{"ok":true,"license":"CC BY 4.0 -  https:\/\/creativecommons.tankerkoenig.de","data":"MTS-K","status":"ok","stations":[
    {"id":"6649f1c1-5154-4641-945c-96419ea88f01","name":"TOTAL BEELITZ","brand":"TOTAL","street":"BERLINER STR.","place":"BEELITZ","lat":52.252377,"lng":12.9861,"dist":6.2,"diesel":1.219,"e5":1.339,"e10":1.319,"isOpen":true,"houseNumber":"107","postCode":14547},{"id":"5a5ed93f-84aa-4517-dc7c-c888f278b5c7","name":"Gulf Neuseddin","brand":"GULF","street":"Pappelallee","place":"Seddiner See","lat":52.2888,"lng":13.0057,"dist":8.8,"diesel":1.209,"e5":1.379,"e10":null,"isOpen":true,"houseNumber":"50","postCode":14554},{"id":"2ec39fe2-77ab-47e4-bdc2-e45a0735a4b2","name":"Michendorf S\u00fcd","brand":"TOTAL","street":"BAB A10","place":"Michendorf","lat":52.3025627,"lng":13.013485,"dist":10.1,"diesel":1.309,"e5":1.479,"e10":1.459,"isOpen":true,"houseNumber":"","postCode":14552},{"id":"f1f981ba-af61-42f1-977c-e80a7bd52216","name":"TOTAL MICHENDORF","brand":"TOTAL","street":"BAB NORD\/A10","place":"MICHENDORF","lat":52.30201,"lng":13.020796,"dist":10.5,"diesel":1.149,"e5":1.349,"e10":1.329,"isOpen":true,"houseNumber":"","postCode":14552},{"id":"533abf42-a618-4d18-802e-fabdf0429269","name":"MICHENDORF, AN DER AUTOBAHN.","brand":"Shell","street":"AN DER AUTOBAHN 1 A","place":"MICHENDORF","lat":52.302112,"lng":13.025497,"dist":10.7,"diesel":1.279,"e5":1.399,"e10":1.359,"isOpen":true,"houseNumber":"","postCode":14552},{"id":"005056ba-7cb6-1ed2-bceb-5bd0f5970d18","name":"star Tankstelle","brand":"STAR","street":"Klaistower Strasse","place":"Glindow","lat":52.35605,"lng":12.90828,"dist":12,"diesel":1.119,"e5":1.299,"e10":1.279,"isOpen":true,"houseNumber":"38","postCode":14542},{"id":"52d4f76d-2246-48da-ab22-1ee2861ea01f","name":"Esso Tankstelle","brand":"ESSO","street":"WESTFALENSTR. 1 \/ BAB9","place":"LINTHE","lat":52.15923,"lng":12.78139,"dist":12.6,"diesel":1.189,"e5":1.389,"e10":1.369,"isOpen":true,"houseNumber":"","postCode":14822},{"id":"950115a5-ef58-4ff8-a370-ccfa24cb3939","name":"City Tank KLOSTER LEHNIN","brand":"City Tank","street":"KURFUERSTENSTR.","place":"KLOSTER LEHNIN","lat":52.32018,"lng":12.74612,"dist":12.9,"diesel":1.109,"e5":1.289,"e10":1.269,"isOpen":true,"houseNumber":"5","postCode":14797},{"id":"8b2a7288-3974-54ed-b4d0-216eefcca86e","name":"Kloster Lehnin","brand":"Die Gr\u00fcne","street":"Damsdorfer Chaussee","place":"Kloster Lehnin","lat":52.32479858398,"lng":12.75199985504,"dist":12.9,"diesel":1.119,"e5":1.299,"e10":1.279,"isOpen":true,"houseNumber":"10","postCode":14797},{"id":"3982311a-9693-475f-ad86-319befe2db38","name":"WERDER, AUF DEM STRENGFELD 1","brand":"Shell","street":"AUF DEM STRENGFELD 1","place":"Werder","lat":52.36454,"lng":12.938326,"dist":13.3,"diesel":1.199,"e5":1.369,"e10":1.329,"isOpen":true,"houseNumber":"","postCode":14542},{"id":"d88638ef-97b9-4251-b3f2-bccdfd53e594","name":"Aral Tankstelle","brand":"ARAL","street":"Potsdamer Stra\u00dfe","place":"Werder","lat":52.36449,"lng":12.9406109,"dist":13.3,"diesel":1.199,"e5":1.369,"e10":1.349,"isOpen":true,"houseNumber":"82","postCode":14542},{"id":"74a06794-4452-4315-9dea-d137c63a3df2","name":"MUEHLENFLIESS GT GRABOW, AN DER A 9 WEST","brand":"Shell","street":"AN DER A 9 WEST 1","place":"MUEHLENFLIESS GT GRABOW","lat":52.134226,"lng":12.752934,"dist":15.9,"diesel":1.379,"e5":1.549,"e10":1.529,"isOpen":true,"houseNumber":"","postCode":14823},{"id":"22d3f644-fa21-4ed6-ae1f-3547d8cd9227","name":"TOTAL POTSDAM","brand":"TOTAL","street":"PIRSCHHEIDE","place":"POTSDAM","lat":52.3753,"lng":13.008198,"dist":16.1,"diesel":1.139,"e5":1.319,"e10":1.299,"isOpen":true,"houseNumber":"1","postCode":14471},{"id":"15485197-8268-4e30-a57d-335d96e44ddd","name":"TOTAL AUTOHOF PLOETZIN","brand":"TOTAL","street":"AUTOHOF BAB 10\/B1","place":"PLOETZIN","lat":52.390854,"lng":12.844964,"dist":16.2,"diesel":1.129,"e5":1.309,"e10":1.289,"isOpen":true,"houseNumber":"","postCode":14542},{"id":"3d84a4cd-9186-47e7-88ac-091acd643ec9","name":"MUEHLENFLIESS GT GRABOW, AN DER A 9 OST","brand":"Shell","street":"AN DER A 9 OST 1","place":"MUEHLENFLIESS GT GRABOW OST","lat":52.131002,"lng":12.751706,"dist":16.3,"diesel":1.379,"e5":1.549,"e10":1.529,"isOpen":true,"houseNumber":"","postCode":14823},{"id":"ed66a4c5-a6e5-49e2-968a-4f4bcf76e88a","name":"Sprint Werder Otto Lilienthal Str.","brand":"Sprint","street":"Otto Lilienthal Str.","place":"Werder","lat":52.397301,"lng":12.9152,"dist":16.6,"diesel":1.129,"e5":1.299,"e10":1.279,"isOpen":true,"houseNumber":"22","postCode":14542},{"id":"51d4b650-a095-1aa0-e100-80009459e03a","name":"JET POTSDAM ZEPPELINSTRASSE 130-131","brand":"JET","street":"ZEPPELINSTRASSE 130-131","place":"POTSDAM","lat":52.3877,"lng":13.0273,"dist":17.9,"diesel":1.129,"e5":1.309,"e10":1.289,"isOpen":true,"houseNumber":"","postCode":14471},{"id":"c1bbc272-befc-4404-8d58-12f4b7f31359","name":"TOTAL TREUENBRIETZEN","brand":"TOTAL","street":"LEIPZIGER STR.","place":"TREUENBRIETZEN","lat":52.0883,"lng":12.851795,"dist":18,"diesel":1.189,"e5":1.359,"e10":1.339,"isOpen":true,"houseNumber":"152","postCode":14929},{"id":"5e6dcfc9-4474-4c03-8b0f-13ec7c0d56d6","name":"Aral Tankstelle","brand":"ARAL","street":"Arthur-Scheunert-Allee","place":"Nuthetal","lat":52.35094,"lng":13.1034555,"dist":18.2,"diesel":1.199,"e5":1.379,"e10":1.359,"isOpen":true,"houseNumber":"73","postCode":14558},{"id":"a08e4d7e-8159-4f85-a299-0885478c8186","name":"Aral Tankstelle","brand":"ARAL","street":"Drewitzer Stra\u00dfe","place":"Potsdam","lat":52.37411,"lng":13.0881519,"dist":19.2,"diesel":1.199,"e5":1.379,"e10":1.359,"isOpen":true,"houseNumber":"20A","postCode":14478},{"id":"c7866e1a-f5f7-409d-8913-a88132310021","name":"TOTAL Horstweg","brand":"TOTAL","street":"HORSTWEG","place":"POTSDAM","lat":52.382195,"lng":13.089295,"dist":19.9,"diesel":1.139,"e5":1.319,"e10":1.299,"isOpen":true,"houseNumber":"53 C","postCode":14478},{"id":"005056ba-7cb6-1ed5-8cbd-4897fe54e42b","name":"star Tankstelle","brand":"STAR","street":"Am Silbergraben","place":"Potsdam","lat":52.35516,"lng":13.135243,"dist":20.2,"diesel":1.129,"e5":1.309,"e10":1.289,"isOpen":true,"houseNumber":"30","postCode":14480},{"id":"96e15a2b-9293-4b6d-b9ee-beaea25f85db","name":"Agravis Fl\u00e4ming Mittelelbe GmbH","brand":"Raiffeisen","street":"Brandenburger Str.","place":"Golzow","lat":52.2836,"lng":12.603,"dist":20.2,"diesel":1.109,"e5":1.289,"e10":null,"isOpen":true,"houseNumber":"22","postCode":14778},{"id":"676ae5d2-565c-47e9-a70f-0708bf01b374","name":"POTSDAM, FRITZ-ZUBEIL-STR. 1","brand":"Shell","street":"FRITZ-ZUBEIL-STR. 1","place":"Potsdam","lat":52.381666,"lng":13.100129,"dist":20.4,"diesel":1.199,"e5":1.379,"e10":1.339,"isOpen":true,"houseNumber":"","postCode":14482},{"id":"e1a15081-2597-9107-e040-0b0a3dfe563c","name":"Potsdam, Friedrich-List-Str. 11","brand":"HEM","street":"Friedrich-List-Str.","place":"Potsdam","lat":52.39231,"lng":13.084542,"dist":20.6,"diesel":1.129,"e5":1.309,"e10":1.289,"isOpen":true,"houseNumber":"11","postCode":14482},{"id":"51d4b4f2-a095-1aa0-e100-80009459e03a","name":"JET POTSDAM POTSDAMER STR. 164","brand":"JET","street":"POTSDAMER STR. 164","place":"POTSDAM","lat":52.4166,"lng":13.0203,"dist":20.6,"diesel":1.129,"e5":1.309,"e10":1.289,"isOpen":true,"houseNumber":"","postCode":14469},{"id":"3e17a2ae-db29-425f-895d-f841d817309a","name":"Aral Tankstelle","brand":"ARAL","street":"Potsdamer Stra\u00dfe","place":"Potsdam","lat":52.41958,"lng":13.0127954,"dist":20.7,"diesel":1.209,"e5":1.389,"e10":1.369,"isOpen":true,"houseNumber":"55","postCode":14469},{"id":"815f1e60-6564-4f74-b497-371e9e2ef99b","name":"Aral Tankstelle","brand":"ARAL","street":"Gerlachstra\u00dfe","place":"Potsdam","lat":52.36785,"lng":13.12857,"dist":20.7,"diesel":1.199,"e5":1.379,"e10":1.359,"isOpen":true,"houseNumber":"8","postCode":14480},{"id":"51d4b5e9-a095-1aa0-e100-80009459e03a","name":"JET POTSDAM ZUM KIRCHSTEIGFELD 3","brand":"JET","street":"ZUM KIRCHSTEIGFELD 3","place":"POTSDAM","lat":52.3709,"lng":13.12782,"dist":20.9,"diesel":1.129,"e5":1.309,"e10":1.269,"isOpen":true,"houseNumber":"","postCode":14480},{"id":"2738df4a-0b19-423b-81b1-3912d53b69fb","name":"Aral Tankstelle","brand":"ARAL","street":"Grossbeerenstra\u00dfe","place":"Potsdam","lat":52.3860855,"lng":13.1066551,"dist":21,"diesel":1.209,"e5":1.389,"e10":1.369,"isOpen":true,"houseNumber":"121","postCode":14482},{"id":"5671832b-77cb-430e-8b61-87c2e34dd284","name":"POTSDAM, NEUENDORFER STR.","brand":"Shell","street":"NEUENDORFER STRA. 39","place":"POTSDAM","lat":52.373249,"lng":13.127426,"dist":21.1,"diesel":1.209,"e5":1.379,"e10":1.339,"isOpen":true,"houseNumber":"","postCode":14480},{"id":"e1d851d8-c763-425c-b727-f01fdec36cf3","name":"TOTAL POTSDAM","brand":"TOTAL","street":"GROSSBEERENSTR.","place":"POTSDAM","lat":52.3858,"lng":13.108893,"dist":21.1,"diesel":1.139,"e5":1.319,"e10":1.299,"isOpen":true,"houseNumber":"137","postCode":14482},{"id":"140b41f2-fc48-4c08-8461-68be5dc1b491","name":"POTSDAM, BERLINER STR","brand":"Shell","street":"BERLINER STR. 116 A","place":"Potsdam","lat":52.40868,"lng":13.076356,"dist":21.7,"diesel":1.199,"e5":1.379,"e10":1.359,"isOpen":true,"houseNumber":"","postCode":14467},{"id":"51d4b5df-a095-1aa0-e100-80009459e03a","name":"JET POTSDAM NEDLITZER STR. 20","brand":"JET","street":"NEDLITZER STR. 20","place":"POTSDAM","lat":52.422793,"lng":13.054896,"dist":22.2,"diesel":1.129,"e5":1.309,"e10":1.289,"isOpen":true,"houseNumber":"","postCode":14469},{"id":"1b2a11e8-8125-4edd-b98d-1cee20bd084a","name":"TOTAL TREBBIN","brand":"TOTAL","street":"BERLINER TOR","place":"TREBBIN","lat":52.222034,"lng":13.219567,"dist":22.3,"diesel":1.149,"e5":1.329,"e10":1.309,"isOpen":true,"houseNumber":"2","postCode":14959},{"id":"696c4bbc-b69c-4254-9cd3-6d86d1e128fc","name":"Aral Tankstelle","brand":"ARAL","street":"Br\u00fccker Landstra\u00dfe","place":"Belzig","lat":52.1447,"lng":12.6128559,"dist":22.4,"diesel":1.269,"e5":1.459,"e10":1.439,"isOpen":true,"houseNumber":"22a","postCode":14806},{"id":"51d4b5c3-a095-1aa0-e100-80009459e03a","name":"JET POTSDAM GROSSBEERENSTR. 344","brand":"JET","street":"GROSSBEERENSTR. 344","place":"POTSDAM","lat":52.3805,"lng":13.1449,"dist":22.5,"diesel":1.129,"e5":1.309,"e10":1.289,"isOpen":true,"houseNumber":"","postCode":14480},{"id":"123d97cb-48d2-50e5-b8a9-ca0f9c4987f3","name":"Niemegk","brand":"Hoyer","street":"Treuenbrietzener Str.","place":"Niemegk","lat":52.08059310913,"lng":12.70670795441,"dist":22.6,"diesel":1.199,"e5":1.389,"e10":1.369,"isOpen":true,"houseNumber":"30","postCode":14823},{"id":"558f266a-1c06-5776-8bf8-817bdc6fbb34","name":"Dahnsdorf","brand":"Hoyer","street":"Belziger Str.","place":"Dahnsdorf","lat":52.10189819336,"lng":12.66279983521,"dist":22.7,"diesel":1.199,"e5":1.389,"e10":null,"isOpen":true,"houseNumber":"6","postCode":14806},{"id":"8b55cbb7-4ddf-4c49-a540-0b3681c97709","name":"Tankstelle am Marktkauf","brand":"Marktkauf","street":"Frankenfelder Chaussee 7","place":"Luckenwalde","lat":52.101602,"lng":13.126165,"dist":22.7,"diesel":1.159,"e5":1.329,"e10":1.309,"isOpen":true,"houseNumber":"","postCode":14943},{"id":"5d452268-625b-4cb6-adde-43af7a302b58","name":"TOTAL BELZIG","brand":"TOTAL","street":"BRANDENBURGER STR.","place":"BELZIG","lat":52.15054,"lng":12.600528,"dist":22.8,"diesel":1.209,"e5":1.409,"e10":1.389,"isOpen":true,"houseNumber":"","postCode":14806},{"id":"8c6f550b-0141-48b5-8edd-3b16cb296a95","name":"Sprint Luckenwalde Berkenbruecker Chaussee","brand":"Sprint","street":"Berkenbruecker Chaussee","place":"Luckenwalde","lat":52.111301,"lng":13.1442,"dist":22.8,"diesel":1.159,"e5":1.339,"e10":1.319,"isOpen":true,"houseNumber":"","postCode":14943},{"id":"bd3800c6-6e7a-4279-89d5-7a1b9df59517","name":"Service Center der Agf Trebbiner Stra\u00dfe 12","brand":"","street":"Trebbiner Stra\u00dfe","place":"Klein Schulzendorf","lat":52.197484,"lng":13.244812,"dist":24.5,"diesel":1.159,"e5":1.339,"e10":1.319,"isOpen":true,"houseNumber":"12","postCode":14959},{"id":"51d4b472-a095-1aa0-e100-80009459e03a","name":"JET LUDWIGSFELDE RHEINSTR. 1","brand":"JET","street":"RHEINSTR. 1","place":"LUDWIGSFELDE","lat":52.3102,"lng":13.2424,"dist":24.6,"diesel":1.139,"e5":1.319,"e10":1.299,"isOpen":true,"houseNumber":"","postCode":14974},{"id":"671e47a2-b789-47e3-bab0-04b596e039ec","name":"TOTAL LUDWIGSFELDE","brand":"TOTAL","street":"BRANDENBURGISCHE STR.","place":"LUDWIGSFELDE","lat":52.311756,"lng":13.243392,"dist":24.8,"diesel":1.149,"e5":1.329,"e10":1.309,"isOpen":true,"houseNumber":"3","postCode":14974},


{"id":"f8faddcb-9754-4ccb-00da-2e8ed29efd6b","name":"5 UP Kropst\u00e4dt","brand":"freie Tankstelle","street":"Jahmoer Str.","place":"Luth. Wittenberg","lat":51.959301,"lng":12.743729,"dist":12.5,"diesel":1.179,"e5":1.379,"e10":null,"isOpen":true,"houseNumber":"12","postCode":6889},{"id":"123d97cb-48d2-50e5-b8a9-ca0f9c4987f3","name":"Niemegk","brand":"Hoyer","street":"Treuenbrietzener Str.","place":"Niemegk","lat":52.08059310913,"lng":12.70670795441,"dist":13.1,"diesel":1.199,"e5":1.389,"e10":1.369,"isOpen":true,"houseNumber":"30","postCode":14823},{"id":"558f266a-1c06-5776-8bf8-817bdc6fbb34","name":"Dahnsdorf","brand":"Hoyer","street":"Belziger Str.","place":"Dahnsdorf","lat":52.10189819336,"lng":12.66279983521,"dist":13.3,"diesel":1.199,"e5":1.389,"e10":null,"isOpen":true,"houseNumber":"6","postCode":14806},{"id":"79e73985-a8c8-49c6-ae4f-1a69b58b7b3c","name":"TOTAL WITTENBERG","brand":"TOTAL","street":"BERLINER CH.","place":"WITTENBERG","lat":51.8928,"lng":12.667499,"dist":13.3,"diesel":1.189,"e5":1.379,"e10":1.359,"isOpen":true,"houseNumber":"70","postCode":6886},{"id":"c011b1d8-aec3-4733-89f5-405283b8f171","name":"Lutherstadt Wittenberg, Coswiger Landstr. 37","brand":"SB","street":"Coswiger Landstr. 37","place":"Lutherstadt Wittenberg","lat":51.876855,"lng":12.546795,"dist":13.4,"diesel":1.179,"e5":1.369,"e10":1.329,"isOpen":true,"houseNumber":"","postCode":6886},{"id":"3d075d59-b4c6-4353-8c11-0611fc93f5bc","name":"Gulf Griebo","brand":"GULF","street":"Stra\u00dfe der Freundschaft","place":"Wittenberg","lat":51.8807,"lng":12.5139,"dist":13.5,"diesel":1.179,"e5":1.369,"e10":1.349,"isOpen":true,"houseNumber":"25","postCode":6886},{"id":"85676cb6-96df-4d4b-8c59-68ec4793b472","name":"Aral Tankstelle","brand":"ARAL","street":"Berliner Stra\u00dfe","place":"Lutherstadt Wittenbe","lat":51.8786659,"lng":12.6518707,"dist":14.2,"diesel":1.249,"e5":1.439,"e10":1.419,"isOpen":true,"houseNumber":"39","postCode":6886},{"id":"eccf0b47-691e-434c-9bf3-0fc9cd44d616","name":"Sprint Wittenberg Puschkinstr.","brand":"Sprint","street":"Puschkinstr.","place":"Wittenberg","lat":51.874298,"lng":12.6338,"dist":14.3,"diesel":1.179,"e5":1.369,"e10":1.349,"isOpen":true,"houseNumber":"26","postCode":6886},{"id":"62ad958c-5789-478d-94f7-aae7f4d9f7d5","name":"Raiffeisen Warengenossenschaft K\u00f6then-Bernburg eG Markt Coswig","brand":"Raiffeisen","street":"Querstra\u00dfe","place":"Coswig","lat":51.8921,"lng":12.4471,"dist":14.4,"diesel":1.169,"e5":1.359,"e10":1.319,"isOpen":true,"houseNumber":"","postCode":6869},{"id":"d5c0d292-bc6d-43b6-b71f-a268ce26b3c9","name":"GO Treuenbrietzen OT Marzahna Feldheimer Str.","brand":"GO","street":"Feldheimer Str.","place":"Treuenbrietzen OT Marzahna","lat":52.004902,"lng":12.7823,"dist":14.5,"diesel":1.179,"e5":1.369,"e10":1.349,"isOpen":true,"houseNumber":"5","postCode":14929},{"id":"daa64ff1-f280-46c4-b347-5bd518efe3ae","name":"TOTAL WITTENBERG","brand":"TOTAL","street":"DESSAUER STR.","place":"WITTENBERG","lat":51.86566,"lng":12.615115,"dist":14.9,"diesel":1.189,"e5":1.379,"e10":1.359,"isOpen":true,"houseNumber":"13","postCode":6886},{"id":"01bff8f4-91d2-49d4-9d65-dcc1902ca4bc","name":"Aral Tankstelle","brand":"ARAL","street":"Dessauer Stra\u00dfe","place":"Lutherstadt Wittenbe","lat":51.8656464,"lng":12.6216984,"dist":15,"diesel":1.249,"e5":1.439,"e10":1.419,"isOpen":true,"houseNumber":"274a","postCode":6886},{"id":"d6190cdc-943d-4cd6-113b-dc7056592b6e","name":"Liero GmbH","brand":"freie Tankstelle","street":"Roteichenweg","place":"Wiesenburg","lat":52.117877,"lng":12.46626,"dist":15.3,"diesel":1.215,"e5":1.406,"e10":null,"isOpen":true,"houseNumber":"1","postCode":14827},{"id":"c054a320-1257-4c8d-90f2-ca3ff17be46d","name":"COSWIG, ROSSLAUER STR.","brand":"Shell","street":"ROSSLAUER STR. 42","place":"COSWIG","lat":51.884594,"lng":12.433022,"dist":15.7,"diesel":1.199,"e5":1.409,"e10":1.369,"isOpen":true,"houseNumber":"","postCode":6869},{"id":"e1a15081-2588-9107-e040-0b0a3dfe563c","name":"Lutherstadt Wittenberg, Triftstr. 15a","brand":"HEM","street":"Triftstr.","place":"Lutherstadt Wittenberg","lat":51.868626,"lng":12.674659,"dist":15.9,"diesel":1.179,"e5":1.369,"e10":1.349,"isOpen":true,"houseNumber":"15a","postCode":6886},{"id":"eff02589-7b0f-4179-8ccd-46eeb6b544d9","name":"TOTAL COSWIG","brand":"TOTAL","street":"SANDBREITE","place":"COSWIG","lat":51.888638,"lng":12.403536,"dist":16.6,"diesel":1.179,"e5":1.369,"e10":1.349,"isOpen":true,"houseNumber":"1","postCode":6869},{"id":"696c4bbc-b69c-4254-9cd3-6d86d1e128fc","name":"Aral Tankstelle","brand":"ARAL","street":"Br\u00fccker Landstra\u00dfe","place":"Belzig","lat":52.1447,"lng":12.6128559,"dist":16.7,"diesel":1.269,"e5":1.459,"e10":1.439,"isOpen":true,"houseNumber":"22a","postCode":14806},{"id":"e147094f-cfc3-443e-82c3-34c6233fc14f","name":"Esso Tankstelle","brand":"ESSO","street":"DRESDENER STR. 42","place":"LUTHERSTADT WITTENBERG","lat":51.864527,"lng":12.688628,"dist":16.7,"diesel":1.189,"e5":1.379,"e10":1.359,"isOpen":true,"houseNumber":"","postCode":6886},{"id":"d2fd5d12-f15a-4baa-90f6-3f1dab9e13c8","name":"Tank- und Baumarkt Zahna","brand":"Tank- und Baumarkt Zahna","street":"Bahnhofstra\u00dfe","place":"Zahna","lat":51.919061,"lng":12.783277,"dist":16.9,"diesel":1.169,"e5":1.369,"e10":null,"isOpen":true,"houseNumber":"33","postCode":6895},{"id":"5d452268-625b-4cb6-adde-43af7a302b58","name":"TOTAL BELZIG","brand":"TOTAL","street":"BRANDENBURGER STR.","place":"BELZIG","lat":52.15054,"lng":12.600528,"dist":17.2,"diesel":1.209,"e5":1.409,"e10":1.389,"isOpen":true,"houseNumber":"","postCode":14806},{"id":"3d84a4cd-9186-47e7-88ac-091acd643ec9","name":"MUEHLENFLIESS GT GRABOW, AN DER A 9 OST","brand":"Shell","street":"AN DER A 9 OST 1","place":"MUEHLENFLIESS GT GRABOW OST","lat":52.131002,"lng":12.751706,"dist":19.4,"diesel":1.379,"e5":1.549,"e10":1.529,"isOpen":true,"houseNumber":"","postCode":14823},{"id":"74a06794-4452-4315-9dea-d137c63a3df2","name":"MUEHLENFLIESS GT GRABOW, AN DER A 9 WEST","brand":"Shell","street":"AN DER A 9 WEST 1","place":"MUEHLENFLIESS GT GRABOW","lat":52.134226,"lng":12.752934,"dist":19.7,"diesel":1.379,"e5":1.549,"e10":1.529,"isOpen":true,"houseNumber":"","postCode":14823},{"id":"c1bbc272-befc-4404-8d58-12f4b7f31359","name":"TOTAL TREUENBRIETZEN","brand":"TOTAL","street":"LEIPZIGER STR.","place":"TREUENBRIETZEN","lat":52.0883,"lng":12.851795,"dist":21.7,"diesel":1.189,"e5":1.359,"e10":1.339,"isOpen":true,"houseNumber":"152","postCode":14929},{"id":"52d4f76d-2246-48da-ab22-1ee2861ea01f","name":"Esso Tankstelle","brand":"ESSO","street":"WESTFALENSTR. 1 \/ BAB9","place":"LINTHE","lat":52.15923,"lng":12.78139,"dist":23.1,"diesel":1.189,"e5":1.359,"e10":1.339,"isOpen":true,"houseNumber":"","postCode":14822},{"id":"1f499b97-77cf-4bfa-a9f4-7a6cb8ce516b","name":"ROSSLAU, KIEFERNWEG.","brand":"Shell","street":"KIEFERNWEG 1\/ B187 1\/ B187","place":"Rosslau","lat":51.88942,"lng":12.272552,"dist":23.7,"diesel":1.239,"e5":1.429,"e10":1.389,"isOpen":true,"houseNumber":"","postCode":6862},{"id":"7d0e73d5-33a4-4cb4-a407-8b59faa5f58b","name":"Q1 Tankstelle","brand":"Q1","street":"Dessauer Stra\u00dfe","place":"Oranienbaum","lat":51.8016,"lng":12.3921,"dist":24.9,"diesel":1.129,"e5":1.329,"e10":1.309,"isOpen":true,"houseNumber":"47","postCode":6785},

{"id":"d05aefa5-51a1-46e5-817a-7287a7b9dd06","name":"Aral Tankstelle","brand":"ARAL","street":"Sonnenfeld","place":"Bitterfeld","lat":51.6355743,"lng":12.1989012,"dist":2.7,"diesel":1.239,"e5":1.429,"e10":1.409,"isOpen":true,"houseNumber":"2","postCode":6766},{"id":"37882506-0c06-4eea-bddb-a06c7126a0af","name":"GO Wolfen Jahnstr.","brand":"GO","street":"Jahnstr.","place":"Wolfen","lat":51.651901,"lng":12.2639,"dist":3.5,"diesel":1.169,"e5":1.359,"e10":1.339,"isOpen":true,"houseNumber":"23","postCode":6766},{"id":"83753c2f-cf00-4e44-9662-a303def08009","name":"GO Wolfen Verbindungsstr.","brand":"GO","street":"Verbindungsstr.","place":"Wolfen","lat":51.6717,"lng":12.2604,"dist":3.6,"diesel":1.169,"e5":1.359,"e10":1.339,"isOpen":true,"houseNumber":"1","postCode":6766},{"id":"e1a15081-24f2-9107-e040-0b0a3dfe563c","name":"Greppin, An der B184","brand":"HEM","street":"An der B184","place":"Greppin","lat":51.63822,"lng":12.278874,"dist":5,"diesel":1.169,"e5":1.359,"e10":1.339,"isOpen":true,"houseNumber":"","postCode":6803},{"id":"39d0751d-3eee-4d9d-9743-0d8f08db31f5","name":"Aral Tankstelle","brand":"ARAL","street":"Steinfurther Stra\u00dfe\/B","place":"Wolfen","lat":51.68338,"lng":12.273757,"dist":5,"diesel":1.239,"e5":1.429,"e10":1.409,"isOpen":true,"houseNumber":"184","postCode":6766},{"id":"51d4b661-a095-1aa0-e100-80009459e03a","name":"JET BOBBAU SIEBENHAUSENER STR.","brand":"JET","street":"SIEBENHAUSENER STR.","place":"BOBBAU","lat":51.6947,"lng":12.2621,"dist":5.3,"diesel":1.169,"e5":1.359,"e10":1.339,"isOpen":true,"houseNumber":"","postCode":6766},{"id":"e5c7596b-2bfd-4b44-a61b-eca1e8431ab0","name":"Total BAT K\u00f6ckern Ost","brand":"","street":"BAT A9,  K\u00f6ckern Ost","place":"K\u00f6ckern","lat":51.608163,"lng":12.186959,"dist":5.8,"diesel":1.339,"e5":1.509,"e10":1.489,"isOpen":true,"houseNumber":"","postCode":6794},{"id":"14e62a62-8610-47a6-b4c5-c3870a62e15e","name":"Total BAT K\u00f6ckern West","brand":"","street":"BAT A9 K\u00f6ckern West","place":"K\u00f6ckern","lat":51.607216,"lng":12.183966,"dist":6,"diesel":1.339,"e5":1.509,"e10":1.489,"isOpen":true,"houseNumber":"","postCode":6794},{"id":"2c42725e-e41e-4958-baad-66ff08e4889d","name":"Aral Tankstelle","brand":"ARAL","street":"Bitterfelder Stra\u00dfe","place":"Z\u00f6rbig","lat":51.6254845,"lng":12.1337214,"dist":6.6,"diesel":1.239,"e5":1.439,"e10":1.419,"isOpen":true,"houseNumber":"51","postCode":6780},{"id":"6ca65cc2-b112-484e-8596-201956efced3","name":"BITTERFELD-WOLFEN, ZOERBIGER STR.","brand":"Shell","street":"ZOERBIGER STR.","place":"BITTERFELD-WOLFEN","lat":51.623335,"lng":12.29368,"dist":6.7,"diesel":1.239,"e5":1.429,"e10":1.389,"isOpen":true,"houseNumber":"","postCode":6749},{"id":"e1a15081-25c5-9107-e040-0b0a3dfe563c","name":"Bitterfeld, Brehnaer Str. 32","brand":"HEM","street":"Brehnaer Str.","place":"Bitterfeld","lat":51.614506,"lng":12.31038,"dist":8.2,"diesel":1.169,"e5":1.359,"e10":1.339,"isOpen":true,"houseNumber":"32","postCode":6749},{"id":"2e4b186d-e982-4a98-ad4f-ae471e5a2644","name":"Bitterfeld, Bismarckstra\u00dfe 45","brand":"bft","street":"Bismarckstra\u00dfe 45","place":"Bitterfeld","lat":51.619632,"lng":12.319607,"dist":8.5,"diesel":1.169,"e5":1.359,"e10":1.319,"isOpen":true,"houseNumber":"","postCode":6749},{"id":"f123b5f5-1c34-40b4-bfa0-939e73db1740","name":"OIL! Tankstelle Wei\u00dfandt-G\u00f6lzau","brand":"OIL!","street":"Lindenstra\u00dfe 4 \/ An der B 183","place":"Wei\u00dfandt-G\u00f6lzau","lat":51.6726,"lng":12.0834,"dist":9.1,"diesel":1.159,"e5":1.359,"e10":1.339,"isOpen":true,"houseNumber":"","postCode":6369},{"id":"6aa55ab3-d94c-4643-ba2c-5b082f002468","name":"Aral Tankstelle","brand":"ARAL","street":"Wittenberger Stra\u00dfe","place":"Bitterfeld","lat":51.62711,"lng":12.3366671,"dist":9.2,"diesel":1.239,"e5":1.429,"e10":1.409,"isOpen":true,"houseNumber":"","postCode":6749},{"id":"43632282-625b-444d-beca-74011c9886e1","name":"Gulf Friedersdorf","brand":"GULF","street":"An der B","place":"Muldestausee","lat":51.6424,"lng":12.3648,"dist":10.6,"diesel":1.169,"e5":1.359,"e10":1.339,"isOpen":true,"houseNumber":"100","postCode":6774},{"id":"b213b887-6ed3-430a-bbee-17e97be6286f","name":"GO Friedersdorf Bitterfelder Str.","brand":"GO","street":"Bitterfelder Str.","place":"Friedersdorf","lat":51.641701,"lng":12.3732,"dist":11.2,"diesel":1.169,"e5":1.359,"e10":1.339,"isOpen":true,"houseNumber":"18","postCode":6774},{"id":"e3890cb9-3d27-4cc1-b954-845546dd4334","name":"Aral Tankstelle","brand":"ARAL","street":"An der B","place":"Brehna","lat":51.5537376,"lng":12.1966591,"dist":11.6,"diesel":1.239,"e5":1.429,"e10":1.409,"isOpen":true,"houseNumber":"10032","postCode":6796},{"id":"b511c0ea-63db-4183-351f-46012f0465f4","name":"Gulf R\u00f6dgen","brand":"GULF","street":"Eschenweg","place":"Delitzsch","lat":51.5541,"lng":12.3066,"dist":13.2,"diesel":1.129,"e5":1.359,"e10":null,"isOpen":true,"houseNumber":"1","postCode":4509},{"id":"2260d75d-ec51-46be-8c6c-9f214dd4802a","name":"Tankstelle Jarski","brand":"Freie Tankstelle","street":"Radegaster Str.","place":"S\u00fcdliches Anhalt OT G\u00f6rzig","lat":51.659885,"lng":12.004334,"dist":14.4,"diesel":1.159,"e5":1.359,"e10":null,"isOpen":true,"houseNumber":"52","postCode":6369},{"id":"c0d422fa-0998-46d8-bdd7-87e913d22560","name":"LANDSBERG\/ SPICKEND., GESCHW.","brand":"Shell","street":"GESCHWISTER-SCHOLL - STR. 1","place":"LANDSBERG \/ OT W\u00d6LLS-PETERSDORF","lat":51.53551,"lng":12.137362,"dist":14.6,"diesel":1.239,"e5":1.429,"e10":1.389,"isOpen":true,"houseNumber":"","postCode":6188},{"id":"51d4b48f-a095-1aa0-e100-80009459e03a","name":"JET DESSAU HEIDESTR. 385","brand":"JET","street":"HEIDESTR. 385","place":"DESSAU","lat":51.7942,"lng":12.241,"dist":15.3,"diesel":1.169,"e5":1.359,"e10":1.339,"isOpen":true,"houseNumber":"","postCode":6849},{"id":"deb0308c-df78-4517-83ff-3f39f6a9acc2","name":"Esso Tankstelle","brand":"ESSO","street":"B100  NORDSEITE","place":"LANDSBERG","lat":51.531512,"lng":12.124019,"dist":15.3,"diesel":1.179,"e5":1.369,"e10":1.329,"isOpen":true,"houseNumber":"","postCode":6188},{"id":"1d92ca59-74f3-47f3-b2ad-e02f6ec5fdfd","name":"Esso Tankstelle","brand":"ESSO","street":"B100  SUEDSEITE","place":"LANDSBERG","lat":51.530551,"lng":12.125143,"dist":15.4,"diesel":1.179,"e5":1.369,"e10":1.329,"isOpen":true,"houseNumber":"","postCode":6188},{"id":"005056ba-7cb6-1ed2-bceb-be91db708d4e","name":"star Tankstelle","brand":"STAR","street":"Securiusstra\u00dfe","place":"Delitzsch","lat":51.5341,"lng":12.32208,"dist":15.7,"diesel":1.119,"e5":1.319,"e10":1.299,"isOpen":true,"houseNumber":"45","postCode":4509},{"id":"4f1f910e-2b43-482a-ae62-26ee8b145b05","name":"Aral Tankstelle","brand":"ARAL","street":"Heidestra\u00dfe","place":"Dessau","lat":51.7979965,"lng":12.2401152,"dist":15.7,"diesel":1.239,"e5":1.429,"e10":1.409,"isOpen":true,"houseNumber":"348","postCode":6849},{"id":"c24213a2-b723-4dff-bff5-0652ca8b4e0a","name":"Michael Geyer","brand":"AVIA","street":"Gadewitzer Weg","place":"Gr\u00e4fenhainichen","lat":51.7258,"lng":12.4351,"dist":17.1,"diesel":1.139,"e5":1.339,"e10":1.319,"isOpen":true,"houseNumber":"16","postCode":6773},{"id":"45870418-d16e-40e2-852c-8dd927e0de8c","name":"DELITZSCH, SCHKEUDITZER STR","brand":"Shell","street":"SCHKEUDITZER STR. 27","place":"Delitzsch","lat":51.518973,"lng":12.31931,"dist":17.1,"diesel":1.189,"e5":1.379,"e10":1.339,"isOpen":true,"houseNumber":"","postCode":4509},{"id":"218ef706-19c9-4b5e-ae27-211d3f3fedeb","name":"TOTAL DELITZSCH","brand":"TOTAL","street":"DUEBENER STR.","place":"DELITZSCH","lat":51.531902,"lng":12.357294,"dist":17.2,"diesel":1.129,"e5":1.329,"e10":1.309,"isOpen":true,"houseNumber":"133","postCode":4509},{"id":"005056ba-7cb6-1ed2-bceb-9c1c42144d3c","name":"star Tankstelle","brand":"STAR","street":"Helmut Kohl Stra\u00dfe","place":"Dessau","lat":51.81205,"lng":12.244086,"dist":17.3,"diesel":1.169,"e5":1.359,"e10":1.339,"isOpen":true,"houseNumber":"82","postCode":6842},{"id":"005056ba-7cb6-1ed2-bceb-5ba7ebdf8d18","name":"star Tankstelle","brand":"STAR","street":"Kochstedter Kreisstrasse","place":"Dessau","lat":51.81392,"lng":12.22373,"dist":17.4,"diesel":1.169,"e5":1.359,"e10":1.339,"isOpen":true,"houseNumber":"50","postCode":6847},{"id":"e1a15081-261c-9107-e040-0b0a3dfe563c","name":"K\u00f6then, Prosigker Kreisstr. \/ B183","brand":"HEM","street":"Prosigker Kreisstr. \/ B183","place":"K\u00f6then","lat":51.74157,"lng":11.99935,"dist":17.5,"diesel":1.159,"e5":1.359,"e10":1.339,"isOpen":true,"houseNumber":"","postCode":6366},{"id":"54426bf2-3c38-4074-b1d1-bad04e19c6be","name":"Dessau, Otto Marder Str 1","brand":"SB","street":"Otto Marder Str. 1","place":"Dessau","lat":51.818514,"lng":12.183403,"dist":18,"diesel":1.209,"e5":1.409,"e10":1.369,"isOpen":true,"houseNumber":"","postCode":6842},{"id":"0eccf76a-64a8-4b2d-ab6e-6eb7671009a3","name":"Supermarkt KOETHEN","brand":"Supermarkt","street":"MERZIENER STR.","place":"KOETHEN","lat":51.754444,"lng":12.001871,"dist":18.1,"diesel":1.149,"e5":1.349,"e10":1.329,"isOpen":true,"houseNumber":"20","postCode":6366},{"id":"1ae8044b-d90d-4491-9e52-74122fa30d75","name":"DELITZSCH, LEIPZIGER STR. 33","brand":"Shell","street":"LEIPZIGER STR. 33","place":"DELITSCH","lat":51.512473,"lng":12.337207,"dist":18.3,"diesel":1.189,"e5":1.379,"e10":1.339,"isOpen":true,"houseNumber":"","postCode":4509},{"id":"e1a15081-24f1-9107-e040-0b0a3dfe563c","name":"Gr\u00e4fenhainichen, Rathenaustr. 35","brand":"HEM","street":"Rathenaustr.","place":"Gr\u00e4fenhainichen","lat":51.733486,"lng":12.449527,"dist":18.3,"diesel":1.129,"e5":1.329,"e10":1.309,"isOpen":true,"houseNumber":"35","postCode":6773},{"id":"51d4b455-a095-1aa0-e100-80009459e03a","name":"JET KOETHEN LEIPZIGER STR. 36D","brand":"JET","street":"LEIPZIGER STR. 36D","place":"KOETHEN","lat":51.7471,"lng":11.9877,"dist":18.5,"diesel":1.159,"e5":1.359,"e10":1.339,"isOpen":true,"houseNumber":"","postCode":6366},{"id":"e369b8dd-0049-41d5-8225-247345e76392","name":"TOTAL AUTOHOF LANDSBERG","brand":"TOTAL","street":"AM AUTOHOF","place":"LANDSBERG","lat":51.54479,"lng":12.01427,"dist":18.6,"diesel":1.179,"e5":1.379,"e10":1.359,"isOpen":true,"houseNumber":"1","postCode":6118},{"id":"e1698893-a7e1-45d8-9993-d624a832829d","name":"DESSAU, RAGUHNER STR.","brand":"Shell","street":"RAGUHNER STR. 18","place":"DESSAU","lat":51.825078,"lng":12.234892,"dist":18.7,"diesel":1.239,"e5":1.429,"e10":1.389,"isOpen":true,"houseNumber":"","postCode":6842},{"id":"ec3664a2-4657-42f0-b0f9-fcf64dd2772e","name":"Aral Tankstelle","brand":"ARAL","street":"Junkersstra\u00dfe\/Weststra\u00dfe","place":"Dessau","lat":51.82617,"lng":12.214941,"dist":18.7,"diesel":1.239,"e5":1.429,"e10":1.409,"isOpen":true,"houseNumber":"","postCode":6847},{"id":"4747ee32-98b1-4c76-a22a-3980dadde8fd","name":"Kaufland Tankstelle Dessau-Rosslau","brand":"Kaufland","street":"Am Eichengarten","place":"Dessau-Rosslau","lat":51.81925,"lng":12.303237,"dist":19,"diesel":1.159,"e5":1.349,"e10":1.319,"isOpen":true,"houseNumber":"2","postCode":6842},{"id":"857fb724-783a-4e91-9431-c6a2cad67b7c","name":"Esso Tankstelle","brand":"ESSO","street":"ORANIENBAUMER CHAUSSEE 40","place":"DESSAU","lat":51.824593,"lng":12.300378,"dist":19.5,"diesel":1.139,"e5":1.339,"e10":1.319,"isOpen":true,"houseNumber":"","postCode":6842},{"id":"a74f0f2f-bcff-4e0f-8885-49d16cd5ae34","name":"TOTAL KOETHEN","brand":"TOTAL","street":"DESSAUER STR.","place":"KOETHEN","lat":51.765038,"lng":11.98758,"dist":19.6,"diesel":1.169,"e5":1.369,"e10":1.349,"isOpen":true,"houseNumber":"","postCode":6366},{"id":"ce85a852-d143-4f05-a2d9-ca133735d293","name":"DESSAU, ORANIENBAUMER CHAUSSEE 3","brand":"Shell","street":"ORANIENBURGER CHAUSSEE 3","place":"Dessau","lat":51.833714,"lng":12.258461,"dist":19.8,"diesel":1.199,"e5":1.399,"e10":1.359,"isOpen":true,"houseNumber":"","postCode":6844},{"id":"51d4b56b-a095-1aa0-e100-80009459e03a","name":"Supermarkt-Tankstelle LANDSBERG SAARBRUECKER STR. 1","brand":"Supermarkt-Tankstelle","street":"SAARBRUECKER STR. 1","place":"LANDSBERG","lat":51.509764,"lng":12.052615,"dist":19.9,"diesel":1.159,"e5":1.349,"e10":1.329,"isOpen":true,"houseNumber":"","postCode":6188},{"id":"7d0e73d5-33a4-4cb4-a407-8b59faa5f58b","name":"Q1 Tankstelle","brand":"Q1","street":"Dessauer Stra\u00dfe","place":"Oranienbaum","lat":51.8016,"lng":12.3921,"dist":20.2,"diesel":1.129,"e5":1.329,"e10":1.309,"isOpen":true,"houseNumber":"47","postCode":6785},{"id":"727b564d-ac77-4809-8e57-97bf60091146","name":"Koethen, Langenfelder Str.","brand":"SB","street":"Langenfelder Str. 11.","place":"Koethen","lat":51.74473,"lng":11.946981,"dist":20.8,"diesel":1.159,"e5":1.359,"e10":1.319,"isOpen":true,"houseNumber":"","postCode":6366},{"id":"7da2caed-5494-4c59-85b0-54600c388759","name":"Aral Tankstelle","brand":"ARAL","street":"Geuzer Stra\u00dfe \/ B","place":"K\u00f6then","lat":51.7546,"lng":11.94881,"dist":21.2,"diesel":1.229,"e5":1.429,"e10":1.409,"isOpen":true,"houseNumber":"185","postCode":6366},{"id":"2c5356db-2934-4759-bd88-1922388f0072","name":"Aral Tankstelle","brand":"ARAL","street":"Rosenfelder Stra\u00dfe","place":"Halle","lat":51.5022469,"lng":12.0336819,"dist":21.3,"diesel":1.239,"e5":1.429,"e10":1.409,"isOpen":true,"houseNumber":"13","postCode":6116},{"id":"8160bd79-63a5-4c14-a620-219d8bc041a5","name":"Aral Tankstelle","brand":"ARAL","street":"Albrechtstra\u00dfe","place":"Dessau","lat":51.8483429,"lng":12.2418528,"dist":21.3,"diesel":1.239,"e5":1.429,"e10":1.409,"isOpen":true,"houseNumber":"35","postCode":6844},{"id":"de68b42d-7ffd-4ec1-94b6-f024fa2dd35c","name":"TOTAL DESSAU","brand":"TOTAL","street":"ALBRECHTSTR.","place":"DESSAU","lat":51.848763,"lng":12.240352,"dist":21.3,"diesel":1.179,"e5":1.369,"e10":1.349,"isOpen":true,"houseNumber":"95","postCode":6844},{"id":"a67f69d2-5368-4a1c-90bc-39cb13b8e573","name":"GO Loebejuen Ploetzer Chaussee","brand":"GO","street":"Ploetzer Chaussee","place":"Loebejuen","lat":51.646198,"lng":11.9014,"dist":21.6,"diesel":1.169,"e5":1.369,"e10":1.349,"isOpen":true,"houseNumber":"1C","postCode":6193},{"id":"244191c9-0c24-4844-b7db-599929a77cab","name":"Kfz-Service-GmbH-Zwochau","brand":"Freie Tankstelle","street":"Hallesche Stra\u00dfe","place":"Wiedemar OT Zwochau","lat":51.465117,"lng":12.263571,"dist":21.7,"diesel":1.189,"e5":null,"e10":null,"isOpen":true,"houseNumber":"16","postCode":4509},{"id":"5bc06118-cf14-4cbe-8c90-0972fd865ef1","name":"Aral Tankstelle","brand":"ARAL","street":"Geltestra\u00dfe","place":"D\u00f6lbau","lat":51.4763336,"lng":12.0862637,"dist":22,"diesel":1.249,"e5":1.439,"e10":1.419,"isOpen":true,"houseNumber":"1","postCode":6184},{"id":"09af89a2-370b-4566-83d2-45f985e0c928","name":"HALLE, DESSAUER STR.","brand":"Shell","street":"DESSAUER STR. 80","place":"HALLE","lat":51.513093,"lng":11.994777,"dist":22.1,"diesel":1.239,"e5":1.429,"e10":1.389,"isOpen":true,"houseNumber":"","postCode":6118},{"id":"2aa1d221-d746-4226-ab1e-035df714acf0","name":"HALLE, BERLINER STR.","brand":"Shell","street":"BERLINER STR. 190","place":"HALLE","lat":51.495596,"lng":12.011057,"dist":22.8,"diesel":1.239,"e5":1.429,"e10":1.389,"isOpen":true,"houseNumber":"","postCode":6116},{"id":"e1a15081-24ba-9107-e040-0b0a3dfe563c","name":"Aken, Dessauer Landstr. 82","brand":"HEM","street":"Dessauer Landstr.","place":"Aken","lat":51.85028,"lng":12.089252,"dist":23.1,"diesel":1.159,"e5":1.359,"e10":1.339,"isOpen":true,"houseNumber":"82","postCode":6385},{"id":"c1873109-323a-482e-ae57-d13416582da0","name":"Raiffeisen Warengenossenschaft K\u00f6then-Bernburg eG Markt Gr\u00f6bzig","brand":"Raiffeisen","street":"M\u00fchlbreite","place":"Gr\u00f6bzig","lat":51.685,"lng":11.8784,"dist":23.3,"diesel":1.179,"e5":1.379,"e10":null,"isOpen":true,"houseNumber":"1 b-c","postCode":6388},{"id":"f42dabd6-2337-4408-87c4-c4d24d06a8ec","name":"HALLE, KOETHENER STR","brand":"Shell","street":"K\u00d6THENER STR. 19","place":"HALLE","lat":51.52129,"lng":11.956492,"dist":23.4,"diesel":1.239,"e5":1.439,"e10":1.419,"isOpen":true,"houseNumber":"","postCode":6118},{"id":"85f63546-aec8-4055-a4f2-a11c93822b1e","name":"PETERSBERG, MAGDEBURGER CHAUSSEE","brand":"Shell","street":"MAGDEBURGER CHAUSSEE 73","place":"PETERSBERG","lat":51.53246,"lng":11.941428,"dist":23.4,"diesel":1.239,"e5":1.439,"e10":1.399,"isOpen":true,"houseNumber":"","postCode":6193},{"id":"fab65fce-80e0-4c4e-8519-cc438bad8c9d","name":"Aral Tankstelle","brand":"ARAL","street":"Magdeburger Chaussee","place":"Halle","lat":51.5218773,"lng":11.953743,"dist":23.5,"diesel":1.259,"e5":1.449,"e10":1.429,"isOpen":true,"houseNumber":"2","postCode":6118},{"id":"59dba916-60cd-4257-a6fc-e544fde677cd","name":"TOTAL HALLE","brand":"TOTAL","street":"TROTHAER STRASSE","place":"HALLE","lat":51.51919,"lng":11.95504,"dist":23.6,"diesel":1.179,"e5":1.379,"e10":1.359,"isOpen":true,"houseNumber":"40","postCode":6118},{"id":"206db8a5-dcf0-4135-803e-df0261feff40","name":"Gulf Glesien","brand":"GULF","street":"Gagarinstr.","place":"Schkeuditz","lat":51.4452,"lng":12.232,"dist":23.7,"diesel":1.159,"e5":1.359,"e10":1.339,"isOpen":true,"houseNumber":"8","postCode":4435},{"id":"d1eae26d-910f-4430-8d9b-281d6316c3cd","name":"Aral Tankstelle","brand":"ARAL","street":"Dessauer Platz","place":"Halle","lat":51.49741,"lng":11.98195,"dist":24,"diesel":1.259,"e5":1.449,"e10":1.429,"isOpen":true,"houseNumber":"4","postCode":6118},{"id":"6e93cce3-e34b-4998-a593-c91674c64801","name":"Halle, Delitzscher Stra\u00dfe 75","brand":"bft","street":"Delitzscher Stra\u00dfe 75","place":"Halle","lat":51.4787,"lng":12.0161,"dist":24.1,"diesel":1.169,"e5":1.369,"e10":1.329,"isOpen":true,"houseNumber":"","postCode":6112},{"id":"e82999a7-e97d-487c-bf3a-f810ebdb17f2","name":"Halle, Delitzscher Str.38a","brand":"SB","street":"Delitzscherstr.38a","place":"Halle","lat":51.478765,"lng":12.015845,"dist":24.1,"diesel":1.169,"e5":1.369,"e10":1.329,"isOpen":true,"houseNumber":"","postCode":6112},{"id":"175498b0-0b94-43cb-9132-7fd1c1168e07","name":"bft Tankstelle","brand":"bft","street":"Dessauer Chaussee","place":"Aken","lat":51.8537,"lng":12.0554,"dist":24.4,"diesel":1.159,"e5":1.359,"e10":1.339,"isOpen":true,"houseNumber":"11","postCode":6385},{"id":"43e1b89e-a5b6-4263-ba0d-dc64164639f9","name":"Esso Tankstelle","brand":"ESSO","street":"DELITZSCHER STR. 56","place":"HALLE","lat":51.478162,"lng":12.004944,"dist":24.6,"diesel":1.179,"e5":1.369,"e10":1.349,"isOpen":true,"houseNumber":"","postCode":6112},{"id":"d7e2f7a3-3bfa-4f67-a702-a8c90a52dba7","name":"Aral Tankstelle","brand":"ARAL","street":"Volkmannstra\u00dfe","place":"Halle","lat":51.487915,"lng":11.984189,"dist":24.6,"diesel":1.269,"e5":1.459,"e10":1.439,"isOpen":true,"houseNumber":"19","postCode":6112},{"id":"812ecef1-650c-4930-a88b-71b9793607e6","name":"TOTAL HALLE","brand":"TOTAL","street":"DELITZSCHER STR.","place":"HALLE","lat":51.47852,"lng":11.996009,"dist":25,"diesel":1.189,"e5":1.379,"e10":1.359,"isOpen":true,"houseNumber":"36","postCode":6112},


{"id":"f83188ab-d3c1-4925-8e29-db1232cb73d7","name":"Esso Tankstelle","brand":"ESSO","street":"AN DER AUTOBAHN 1","place":"NEMPITZ \/ BAD DUERRENBERG","lat":51.290339,"lng":12.138228,"dist":3.3,"diesel":1.149,"e5":1.319,"e10":1.299,"isOpen":true,"houseNumber":"","postCode":6231},{"id":"9f86da14-54cf-453c-b530-6016e5566c9d","name":"Aral Tankstelle","brand":"ARAL","street":"Nordpark","place":"Leuna OT K\u00f6tschlitz","lat":51.34761,"lng":12.1752119,"dist":4,"diesel":1.199,"e5":1.379,"e10":1.359,"isOpen":true,"houseNumber":"3","postCode":6237},{"id":"005056a9-779e-1ee7-87bf-483f5b7a58cc","name":"star Tankstelle","brand":"STAR","street":"L\u00fctzner Stra\u00dfe","place":"Markranst\u00e4dt","lat":51.28748,"lng":12.193097,"dist":5.2,"diesel":1.099,"e5":1.299,"e10":1.279,"isOpen":true,"houseNumber":"145","postCode":4420},{"id":"255d3177-8106-4f2a-dee3-5690ccbc37d3","name":"Gulf Bad D\u00fcrrenberg","brand":"GULF","street":"Bahnhofstr.","place":"Bad D\u00fcrrenberg","lat":51.3027,"lng":12.0671,"dist":5.3,"diesel":1.139,"e5":1.339,"e10":1.319,"isOpen":true,"houseNumber":"15","postCode":6231},{"id":"62c825fa-8eba-4ac1-8d3c-ccbfe928a814","name":"Aral Tankstelle","brand":"ARAL","street":"Leipziger Stra\u00dfe","place":"Bad D\u00fcrrenberg","lat":51.2908974,"lng":12.0762978,"dist":5.4,"diesel":1.209,"e5":1.379,"e10":1.359,"isOpen":true,"houseNumber":"63a","postCode":6231},{"id":"7d6b9173-36d6-4c91-9802-0794560c7c1c","name":"Schkeuditz (D\u00f6lzig)","brand":"Greenline","street":"Westringstr.","place":"Schkeuditz\/OT D\u00f6lzig","lat":51.3506,"lng":12.2038,"dist":5.7,"diesel":1.098,"e5":1.288,"e10":1.278,"isOpen":true,"houseNumber":"183","postCode":4435},{"id":"005056ba-7cb6-1ed2-bceb-c09bb8a08d50","name":"star Tankstelle","brand":"STAR","street":"Leipziger Stra\u00dfe","place":"Markranst\u00e4dt","lat":51.30853,"lng":12.22921,"dist":6.4,"diesel":1.099,"e5":1.299,"e10":1.279,"isOpen":true,"houseNumber":"70","postCode":4420},{"id":"4479aa12-7476-46da-84e0-bbdef1b5c0c6","name":"Esso Tankstelle","brand":"ESSO","street":"MERSEBURGER CHAUSSEE 10","place":"SCHKEUDITZ","lat":51.349808,"lng":12.222068,"dist":6.7,"diesel":1.119,"e5":1.309,"e10":1.289,"isOpen":true,"houseNumber":"","postCode":4435},{"id":"18de0a63-b132-467d-a629-37a5d62ba50d","name":"Aral Tankstelle","brand":"ARAL","street":"G\u00f6teborger Stra\u00dfe","place":"L\u00fctzen","lat":51.2517357,"lng":12.137886,"dist":7.6,"diesel":1.189,"e5":1.379,"e10":1.359,"isOpen":true,"houseNumber":"12a","postCode":6686},{"id":"005056ba-7cb6-1ed2-bceb-c359dd860d50","name":"star Tankstelle","brand":"STAR","street":"Stra\u00dfe am See 11 \/L\u00fctzenerstr.","place":"Leipzig (OT Miltitz)","lat":51.31566,"lng":12.25624,"dist":8.2,"diesel":1.099,"e5":1.299,"e10":1.279,"isOpen":true,"houseNumber":"","postCode":4207},{"id":"005056ba-7cb6-1ed2-bceb-619811956d1d","name":"star Tankstelle","brand":"STAR","street":"Leipziger Strasse","place":"Merseburg","lat":51.35838,"lng":12.02665,"dist":8.9,"diesel":1.129,"e5":1.319,"e10":1.299,"isOpen":true,"houseNumber":"11","postCode":6217},{"id":"9feb1add-e019-4774-be19-83e7e5023a74","name":"TOTAL LEIPZIG","brand":"TOTAL","street":"SANDBERG","place":"LEIPZIG","lat":51.346096,"lng":12.26085,"dist":9,"diesel":1.119,"e5":1.319,"e10":1.299,"isOpen":true,"houseNumber":"30","postCode":4178},{"id":"88daadb8-b619-4700-b966-5ad8860fa7af","name":"Bavaria Petrol","brand":"Bavaria Petrol","street":"L\u00fctzner Stra\u00dfe","place":"Leipzig","lat":51.317337,"lng":12.270607,"dist":9.2,"diesel":1.099,"e5":1.299,"e10":1.279,"isOpen":true,"houseNumber":"536","postCode":4205},{"id":"005056ba-7cb6-1ed2-bceb-70d6a4dd8d23","name":"star Tankstelle","brand":"STAR","street":"Friedrich-Ebert-Strasse","place":"Leuna","lat":51.33153,"lng":12.00615,"dist":9.3,"diesel":1.129,"e5":1.319,"e10":1.299,"isOpen":true,"houseNumber":"","postCode":6237},{"id":"d2df6d6c-9a64-4b85-9c59-adb424bc9f92","name":"Aral Tankstelle","brand":"ARAL","street":"Bierweg","place":"Schkeuditz","lat":51.3980064,"lng":12.1889553,"dist":9.4,"diesel":1.229,"e5":1.379,"e10":1.359,"isOpen":true,"houseNumber":"6","postCode":4435},{"id":"a6e99069-ac8c-43b4-a6c6-4c13392fc657","name":"MERSEBURG, AMTSHAEUSER STR.3.","brand":"Shell","street":"AMTSH\u00c4USER STR. 31","place":"Merseburg","lat":51.359092,"lng":12.017151,"dist":9.5,"diesel":1.199,"e5":1.389,"e10":1.349,"isOpen":true,"houseNumber":"","postCode":6217},{"id":"1171f563-0b9e-4469-8df5-d4ff27042817","name":"Bavaria Petrol","brand":"Bavaria Petrol","street":"Kiewer Stra\u00dfe","place":"Leipzig","lat":51.32023,"lng":12.2765732,"dist":9.6,"diesel":1.099,"e5":1.299,"e10":1.279,"isOpen":true,"houseNumber":"31","postCode":4205},{"id":"f3b2af0c-601f-41e4-33cc-5f9af868ade1","name":"Gulf Gro\u00dfkorbetha","brand":"GULF","street":"Merseburger Str.","place":"Gro\u00dfkorbetha","lat":51.2666,"lng":12.0271,"dist":9.7,"diesel":1.149,"e5":1.359,"e10":1.339,"isOpen":true,"houseNumber":"40","postCode":6688},{"id":"ca9424ce-0a27-4180-af66-8376199788e4","name":"Aral Tankstelle","brand":"ARAL","street":"Thomas-M\u00fcntzer-Strasse","place":"Merseburg","lat":51.34279,"lng":11.9892,"dist":10.7,"diesel":1.209,"e5":1.409,"e10":1.389,"isOpen":true,"houseNumber":"2","postCode":6217},{"id":"b8c9911e-d23a-4063-9269-40ff5d0684c5","name":"TOTAL MERSEBURG","brand":"TOTAL","street":"THOMAS-MUENTZER-STR.","place":"MERSEBURG","lat":51.344917,"lng":11.987999,"dist":10.8,"diesel":1.149,"e5":1.349,"e10":1.329,"isOpen":true,"houseNumber":"5","postCode":6217},{"id":"0e336311-6214-4e20-8524-125f4df94978","name":"ELAN LEIPZIG","brand":"ELAN","street":"SCHOMBURGKSTR.","place":"LEIPZIG","lat":51.33985,"lng":12.299255,"dist":11.4,"diesel":1.109,"e5":1.309,"e10":1.289,"isOpen":true,"houseNumber":"8-10","postCode":4179},{"id":"283603e1-c280-4926-aefc-2772a19dc661","name":"MERSEBURG","brand":"Agip","street":"Thomas Muentzer Str.","place":"Merseburg","lat":51.35263,"lng":11.98054,"dist":11.6,"diesel":1.139,"e5":1.329,"e10":1.309,"isOpen":true,"houseNumber":"74","postCode":6217},{"id":"63fcf00a-3e4c-4ccf-8f17-939023696cd1","name":"Aral Tankstelle","brand":"ARAL","street":"Ludwig-Hupfeld-Stra\u00dfe","place":"Leipzig","lat":51.3485336,"lng":12.3014727,"dist":11.8,"diesel":1.189,"e5":1.389,"e10":1.369,"isOpen":true,"houseNumber":"15","postCode":4178},{"id":"e5a8f51b-c9b3-463a-b4be-bc8ff75eb7b1","name":"LEIPZIG","brand":"Agip","street":"Hallesche Str.","place":"Leipzig","lat":51.38467256875,"lng":12.273064110511,"dist":11.8,"diesel":1.129,"e5":1.329,"e10":1.309,"isOpen":true,"houseNumber":"182","postCode":4159},{"id":"1c052df4-0317-4ac0-9d9d-56edf169e2de","name":"Sprint Leipzig Luetzner Str.","brand":"Sprint","street":"Luetzner Str.","place":"Leipzig","lat":51.328098,"lng":12.3081,"dist":11.8,"diesel":1.119,"e5":1.319,"e10":1.299,"isOpen":true,"houseNumber":"218","postCode":4179},{"id":"005056ba-7cb6-1ed2-bceb-c06116ffad50","name":"star Tankstelle","brand":"STAR","street":"Sch\u00f6nauer Str.","place":"Leipzig","lat":51.31124,"lng":12.30897,"dist":11.9,"diesel":1.099,"e5":1.299,"e10":1.279,"isOpen":true,"houseNumber":"113","postCode":4207},{"id":"c1852ef2-d735-447f-6b34-ccd47462cd3f","name":"PALT-Kfz-Service GmbH","brand":"freie Tankstelle","street":"Eisdorfer Str.","place":"Pegau OT Kitzen","lat":51.225143,"lng":12.218609,"dist":11.9,"diesel":1.179,"e5":1.369,"e10":null,"isOpen":true,"houseNumber":"1","postCode":4523},{"id":"005056ba-7cb6-1ed2-bceb-bdab22cd0d4e","name":"star Tankstelle","brand":"STAR","street":"Leipziger Stra\u00dfe","place":"Leipzig","lat":51.35505,"lng":12.30067,"dist":11.9,"diesel":1.109,"e5":1.309,"e10":1.289,"isOpen":true,"houseNumber":"16","postCode":4178},{"id":"005056a9-779e-1ed7-8988-6fa5c7da9ac8","name":"star Tankstelle","brand":"STAR","street":"Br\u00fcnner Stra\u00dfe","place":"Leipzig","lat":51.31723,"lng":12.310435,"dist":12,"diesel":1.099,"e5":1.299,"e10":1.279,"isOpen":true,"houseNumber":"3","postCode":4209},{"id":"52ed69e2-1c00-41c7-9143-308fc6b75fe5","name":"LEIPZIG, MERSEBURGER STR.","brand":"Shell","street":"MERSEBURGER STR 158","place":"Leipzig","lat":51.342146,"lng":12.307194,"dist":12,"diesel":1.179,"e5":1.379,"e10":1.339,"isOpen":true,"houseNumber":"","postCode":4179},{"id":"cd8ba6a6-856e-1ed6-9c90-e3996156055b","name":"JET LEIPZIG RUECKMARSDORFER STR. 17","brand":"JET","street":"RUECKMARSDORFER STR. 17","place":"LEIPZIG","lat":51.34716342,"lng":12.30881483,"dist":12.2,"diesel":1.109,"e5":1.309,"e10":1.289,"isOpen":true,"houseNumber":"","postCode":4179},{"id":"eb9746c0-e174-4c94-bb2a-2ba4997b540c","name":"TOTAL MERSEBURG","brand":"TOTAL","street":"QUERFURTER STR.","place":"MERSEBURG","lat":51.37179,"lng":11.982872,"dist":12.3,"diesel":1.149,"e5":1.349,"e10":1.329,"isOpen":true,"houseNumber":"4A","postCode":6217},{"id":"59af0a78-f97c-4a92-a773-4bfa4fe2cab1","name":"GO Leipzig Saarlaender Str","brand":"GO","street":"Saarlaender Str","place":"Leipzig","lat":51.325401,"lng":12.3154,"dist":12.3,"diesel":1.119,"e5":1.319,"e10":1.299,"isOpen":true,"houseNumber":"12","postCode":4179},{"id":"94666a50-d397-464e-a85f-64c9e0bb0521","name":"TOTAL AUTOHOF WEISSENFELS","brand":"TOTAL","street":"BAEUMCHEN","place":"WEISSENFELS","lat":51.26872,"lng":11.9783125,"dist":12.5,"diesel":1.149,"e5":1.349,"e10":1.329,"isOpen":true,"houseNumber":"15","postCode":6667},{"id":"2e9ec7c8-815d-4750-bd35-22be4055ff22","name":"Esso Tankstelle","brand":"ESSO","street":"HALLESCHE STR. 116","place":"MERSEBURG","lat":51.380058,"lng":11.986346,"dist":12.5,"diesel":1.149,"e5":1.349,"e10":1.329,"isOpen":true,"houseNumber":"","postCode":6217},{"id":"d7d31c1d-0b41-451c-9b46-ac01542d98fc","name":"Aral Tankstelle","brand":"ARAL","street":"Dieskaustra\u00dfe","place":"Leipzig","lat":51.27281,"lng":12.3083773,"dist":12.9,"diesel":1.189,"e5":1.389,"e10":1.369,"isOpen":true,"houseNumber":"483a","postCode":4249},{"id":"51d4b667-a095-1aa0-e100-80009459e03a","name":"JET LEIPZIG DIESKAUSTR. 111","brand":"JET","street":"DIESKAUSTR. 111","place":"LEIPZIG","lat":51.3105,"lng":12.32605,"dist":13.1,"diesel":1.099,"e5":1.299,"e10":1.279,"isOpen":true,"houseNumber":"","postCode":4249},{"id":"d73876f0-823c-4705-b8b3-b40e88c41843","name":"Aral Tankstelle","brand":"ARAL","street":"Merseburger Stra\u00dfe","place":"Leipzig","lat":51.33817,"lng":12.3255987,"dist":13.2,"diesel":1.199,"e5":1.399,"e10":1.379,"isOpen":true,"houseNumber":"111","postCode":4177},{"id":"e1a15081-261d-9107-e040-0b0a3dfe563c","name":"Leipzig, Dieskaustr. 155","brand":"HEM","street":"Dieskaustr.","place":"Leipzig","lat":51.307774,"lng":12.3271,"dist":13.2,"diesel":1.099,"e5":1.299,"e10":1.279,"isOpen":true,"houseNumber":"155","postCode":4249},{"id":"c8e031a6-7aeb-45dc-b0e1-a3afd3bea3d0","name":"OIL! Tankstelle Beuna","brand":"OIL!","street":"Merseburger Stra\u00dfe 51","place":"Beuna","lat":51.3186,"lng":11.9469,"dist":13.3,"diesel":1.129,"e5":1.319,"e10":1.299,"isOpen":true,"houseNumber":"","postCode":6217},{"id":"f54c9d8b-0bf3-46ab-ad91-3e2b064382f5","name":"TOTAL LEIPZIG","brand":"TOTAL","street":"ZSCHOCHERSCHE STR.","place":"LEIPZIG","lat":51.32266,"lng":12.3319,"dist":13.4,"diesel":1.109,"e5":1.309,"e10":1.289,"isOpen":true,"houseNumber":"84","postCode":4229},{"id":"005056ba-7cb6-1ed2-bceb-c7d7f7828d53","name":"star Tankstelle","brand":"STAR","street":"Georg-Schumann Str.","place":"Leipzig","lat":51.37692,"lng":12.31199,"dist":13.6,"diesel":1.109,"e5":1.299,"e10":1.279,"isOpen":true,"houseNumber":"392","postCode":4159},{"id":"fd98e3a1-1b5e-4ed6-8999-801b2b7a9fc8","name":"MINOL LEIPZIG","brand":"MINOL","street":"LUETZNER STR.","place":"LEIPZIG","lat":51.33525,"lng":12.337796,"dist":14,"diesel":1.099,"e5":1.299,"e10":1.279,"isOpen":true,"houseNumber":"7A","postCode":4177},{"id":"e762102a-f63d-4008-bbba-298466ad86e0","name":"Q1 Tankstelle","brand":"Q1","street":"Georg-Schumann-Stra\u00dfe","place":"Leipzig","lat":51.3712,"lng":12.334,"dist":14.7,"diesel":1.109,"e5":1.299,"e10":1.279,"isOpen":true,"houseNumber":"270","postCode":4159},{"id":"cfbe6d86-3f43-4717-bbad-f45aee0db320","name":"Aral Tankstelle","brand":"ARAL","street":"Marschnerstra\u00dfe","place":"Leipzig","lat":51.3402824,"lng":12.3543406,"dist":15.2,"diesel":1.199,"e5":1.399,"e10":1.379,"isOpen":true,"houseNumber":"50","postCode":4109},{"id":"36b1de89-11e3-529d-8f56-46d112641b04","name":"Leipzig","brand":"Hoyer","street":"Poststr.","place":"Leipzig","lat":51.41292190552,"lng":12.29946136475,"dist":15.2,"diesel":1.139,"e5":1.339,"e10":1.319,"isOpen":true,"houseNumber":"18","postCode":4158},{"id":"206db8a5-dcf0-4135-803e-df0261feff40","name":"Gulf Glesien","brand":"GULF","street":"Gagarinstr.","place":"Schkeuditz","lat":51.4452,"lng":12.232,"dist":15.4,"diesel":1.159,"e5":1.359,"e10":1.339,"isOpen":true,"houseNumber":"8","postCode":4435},{"id":"204b51ec-04d9-40c8-9758-4e3c3e40a157","name":"TOTAL AUTOHOF LEIPZIG","brand":"TOTAL","street":"AUTOHOF A14 POSTSTRASSE","place":"LEIPZIG","lat":51.41359,"lng":12.308158,"dist":15.7,"diesel":1.129,"e5":1.319,"e10":1.299,"isOpen":true,"houseNumber":"3","postCode":4158},{"id":"d8519c79-59d8-4cab-a2d2-488ad3b726a1","name":"Tankcenter LEIPZIG","brand":"Tankcenter","street":"MAX-LIEBERMANN-STRASSE","place":"LEIPZIG","lat":51.37536,"lng":12.349103,"dist":15.9,"diesel":1.099,"e5":1.289,"e10":1.269,"isOpen":true,"houseNumber":"11","postCode":4159},{"id":"51d4b42e-a095-1aa0-e100-80009459e03a","name":"JET WEISSENFELS MERSEBURGER STR. 109 E","brand":"JET","street":"MERSEBURGER STR. 109 E","place":"WEISSENFELS","lat":51.2189,"lng":11.9696,"dist":16.2,"diesel":1.139,"e5":1.339,"e10":1.319,"isOpen":true,"houseNumber":"","postCode":6667},{"id":"6a650211-e8f6-442f-8507-2ca60c0131d6","name":"Aral Tankstelle","brand":"ARAL","street":"Koburger Stra\u00dfe","place":"Markkleeberg","lat":51.28609,"lng":12.3660984,"dist":16.3,"diesel":1.189,"e5":1.399,"e10":1.379,"isOpen":true,"houseNumber":"52","postCode":4416},{"id":"9de396c1-f584-43be-88d4-5e3dbbc26b3e","name":"M1 Leipzig","brand":"M1","street":"Am Ostergraben","place":"Schkeuditz-Leipzig","lat":51.421359509,"lng":12.308067083,"dist":16.3,"diesel":1.119,"e5":null,"e10":null,"isOpen":true,"houseNumber":"4","postCode":4435},{"id":"075b667a-cd7b-4257-b301-b0c39e1e1208","name":"Aral Tankstelle","brand":"ARAL","street":"Zum Apelstein","place":"Leipzig \/ Lindenthal","lat":51.39355,"lng":12.3419638,"dist":16.3,"diesel":1.199,"e5":1.409,"e10":1.389,"isOpen":true,"houseNumber":"1","postCode":4158},{"id":"86ef00a5-0814-467f-bd06-70a40db321b5","name":"Aral Tankstelle","brand":"ARAL","street":"Merseburger Stra\u00dfe","place":"Braunsbedra","lat":51.2886162,"lng":11.9046736,"dist":16.6,"diesel":1.209,"e5":1.409,"e10":1.389,"isOpen":true,"houseNumber":"","postCode":6242},{"id":"06daeb2e-aad2-4b0d-bc9b-65b0b262b5ce","name":"TOTAL LEIPZIG","brand":"TOTAL","street":"LINDENTHALER STR.","place":"LEIPZIG","lat":51.36601,"lng":12.366082,"dist":16.6,"diesel":1.109,"e5":1.299,"e10":1.279,"isOpen":true,"houseNumber":"61\/63","postCode":4155},{"id":"b08d1d24-b295-4dba-8ea8-ea70bef72dfc","name":"Tankstelle am Marktkauf","brand":"Marktkauf","street":"St\u00e4dtelner Str. 54","place":"Markkleeberg","lat":51.271752,"lng":12.364873,"dist":16.6,"diesel":1.119,"e5":1.329,"e10":1.309,"isOpen":true,"houseNumber":"","postCode":4416},{"id":"d3cb0bd1-35b0-42d8-924c-9f8799fe99ad","name":"Aral Tankstelle","brand":"ARAL","street":"Landsberger Stra\u00dfe","place":"Leipzig","lat":51.3794937,"lng":12.3586349,"dist":16.7,"diesel":1.209,"e5":1.409,"e10":1.389,"isOpen":true,"houseNumber":"116","postCode":4157},{"id":"d78abbfc-2123-4a6a-aba5-bfae1c696386","name":"WEISSENFELS, SELAUER STRA\u00dfE.","brand":"Shell","street":"SELAUER STRA\u00dfE 91","place":"Weissenfels","lat":51.199172,"lng":11.994921,"dist":16.7,"diesel":1.219,"e5":1.409,"e10":1.369,"isOpen":true,"houseNumber":"","postCode":6667},{"id":"2a2c2784-2488-4a24-b7f1-6254b9496b99","name":"TOTAL HALLE","brand":"TOTAL","street":"MERSEBURGER STR.","place":"HALLE","lat":51.438263,"lng":11.984795,"dist":16.9,"diesel":1.189,"e5":1.379,"e10":1.359,"isOpen":true,"houseNumber":"359","postCode":6132},{"id":"cdb29e19-8308-4c77-c6d0-9323d03ba280","name":"Gulf Rattmannsdorf","brand":"GULF","street":"An der Halleschen Str.","place":"Schkopau","lat":51.4139,"lng":11.9462,"dist":17,"diesel":1.139,"e5":1.359,"e10":1.339,"isOpen":true,"houseNumber":"4","postCode":6258},{"id":"67137cc2-d235-4770-95e6-70413f180a1b","name":"Aral Tankstelle","brand":"ARAL","street":"Eutritzscher Stra\u00dfe","place":"Leipzig","lat":51.3560371,"lng":12.3769083,"dist":17,"diesel":1.199,"e5":1.399,"e10":1.379,"isOpen":true,"houseNumber":"26","postCode":4105},{"id":"50b9f4ea-f4a7-40f8-b1a1-18753fb81af9","name":"Aral Tankstelle","brand":"ARAL","street":"Merseburger Stra\u00dfe","place":"Halle","lat":51.44012,"lng":11.9845171,"dist":17.1,"diesel":1.269,"e5":1.459,"e10":1.439,"isOpen":true,"houseNumber":"355","postCode":6132},{"id":"761ff4da-7b94-4bf4-919f-8238418e90cc","name":"Globus Handelshof GmbH & Co. KG Betriebsst\u00e4tte Halle Bruckdorf","brand":"Globus SB Warenhaus","street":"Leipziger Chaussee","place":"Halle","lat":51.454327,"lng":12.016922,"dist":17.2,"diesel":1.159,"e5":1.359,"e10":1.339,"isOpen":true,"houseNumber":"147","postCode":6112},{"id":"c01d9551-0891-40ff-7f3a-1efcd037a972","name":"Tankstelle Lukosek","brand":"Tankstelle Lukosek","street":"Carsdorfer H\u00f6he","place":"Pegau","lat":51.180697,"lng":12.248745,"dist":17.3,"diesel":1.179,"e5":1.369,"e10":null,"isOpen":true,"houseNumber":"22","postCode":4523},{"id":"005056ba-7cb6-1ed2-bceb-8ebf627c6d35","name":"star Tankstelle","brand":"STAR","street":"Merseburger Stra\u00dfe","place":"Halle","lat":51.4437,"lng":11.98383,"dist":17.5,"diesel":1.169,"e5":1.369,"e10":1.349,"isOpen":true,"houseNumber":"322","postCode":6132},{"id":"be41a5ce-de2d-4974-95c5-19d4c719f5e7","name":"TOTAL LEIPZIG","brand":"TOTAL","street":"ARNO-NITZSCHE STRASSE","place":"LEIPZIG","lat":51.30892,"lng":12.389452,"dist":17.5,"diesel":1.109,"e5":1.309,"e10":1.289,"isOpen":true,"houseNumber":"32","postCode":4277},{"id":"02391f41-5eac-4ff9-8e59-7b64ee5ef5ee","name":"OIL! Tankstelle Hohenm\u00f6lsen","brand":"OIL!","street":"Wilhelm-K\u00fclz-Str. 9","place":"Hohenm\u00f6lsen","lat":51.1649,"lng":12.0924,"dist":17.5,"diesel":1.119,"e5":1.319,"e10":1.299,"isOpen":true,"houseNumber":"","postCode":6679},{"id":"90eae4cc-cbbf-4b40-977f-3661c6f1d4a7","name":"Aral Tankstelle","brand":"ARAL","street":"Max-Liebermann-Stra\u00dfe","place":"Leipzig","lat":51.3760719,"lng":12.37766,"dist":17.8,"diesel":1.189,"e5":1.379,"e10":1.359,"isOpen":true,"houseNumber":"101","postCode":4157},{"id":"f7635a84-20e9-4a02-a172-f8875641af9e","name":"Q1 Tankstelle","brand":"Q1","street":"Wittenberger Stra\u00dfe","place":"Leipzig","lat":51.3555,"lng":12.3877,"dist":17.8,"diesel":1.109,"e5":1.299,"e10":1.279,"isOpen":true,"houseNumber":"7","postCode":4129},{"id":"5bc06118-cf14-4cbe-8c90-0972fd865ef1","name":"Aral Tankstelle","brand":"ARAL","street":"Geltestra\u00dfe","place":"D\u00f6lbau","lat":51.4763336,"lng":12.0862637,"dist":17.8,"diesel":1.249,"e5":1.439,"e10":1.419,"isOpen":true,"houseNumber":"1","postCode":6184},{"id":"99178f16-3e92-4550-bb6b-ba9bde6f3675","name":"Aral Tankstelle","brand":"ARAL","street":"Nikolaus-Otto-Stra\u00dfe","place":"Wei\u00dfenfels","lat":51.18824,"lng":11.9891253,"dist":17.9,"diesel":1.159,"e5":1.349,"e10":1.329,"isOpen":true,"houseNumber":"1","postCode":6667},{"id":"97b089af-351b-4f21-8f39-412f60136ddf","name":"TOTAL LEIPZIG","brand":"TOTAL","street":"LUDWIG-ERHARD-STR.","place":"LEIPZIG","lat":51.34323,"lng":12.395468,"dist":18,"diesel":1.109,"e5":1.309,"e10":1.289,"isOpen":true,"houseNumber":"36","postCode":4103},{"id":"c13314c9-6024-4cf6-aabd-6a92e15cd309","name":"Supermarkt WEISSENFELS","brand":"Supermarkt","street":"MAX-PLANCK-STR.","place":"WEISSENFELS","lat":51.18903,"lng":11.983685,"dist":18.1,"diesel":1.129,"e5":1.329,"e10":1.309,"isOpen":true,"houseNumber":"3","postCode":6667},{"id":"ab28a89a-bff1-4bfe-8af4-c41872b3efb6","name":"Aral Tankstelle","brand":"ARAL","street":"Hallesche Stra\u00dfe","place":"L\u00fctzen \/ OT Zorbau","lat":51.1777077,"lng":12.0101843,"dist":18.1,"diesel":1.249,"e5":1.409,"e10":1.389,"isOpen":true,"houseNumber":"41\/Schwa","postCode":6686},{"id":"74bd3eaa-958d-4fb9-a2ab-a83352f0d5ec","name":"HALLE - FREYBURGER STR. 17","brand":"Agip","street":"Freyburger Str.","place":"Halle","lat":51.44469,"lng":11.96994,"dist":18.2,"diesel":1.189,"e5":1.379,"e10":1.359,"isOpen":true,"houseNumber":"17","postCode":6132},{"id":"650ee77c-888a-4d14-8430-ab32e22c8a64","name":"TOTAL WEISSENFELS","brand":"TOTAL","street":"NAUMBURGER STRASSE","place":"WEISSENFELS","lat":51.198265,"lng":11.963868,"dist":18.2,"diesel":1.149,"e5":1.349,"e10":1.329,"isOpen":true,"houseNumber":"26","postCode":6667},{"id":"f5f45e04-0c02-4336-bbb8-9a761970ed0b","name":"TOTAL LEIPZIG","brand":"TOTAL","street":"BORNAISCHE STR.","place":"LEIPZIG","lat":51.284904,"lng":12.394645,"dist":18.2,"diesel":1.119,"e5":1.319,"e10":1.299,"isOpen":true,"houseNumber":"227","postCode":4279},{"id":"dd4dc453-2854-4bc9-ac96-5adee91cb0f9","name":"TOTAL LEIPZIG","brand":"TOTAL","street":"RACKWITZER STRASSE","place":"LEIPZIG","lat":51.354443,"lng":12.395,"dist":18.2,"diesel":1.109,"e5":1.309,"e10":1.289,"isOpen":true,"houseNumber":"26","postCode":4347},{"id":"005056ba-7cb6-1ed2-bceb-c322b5658d50","name":"star Tankstelle","brand":"STAR","street":"Delitzscher Str.","place":"Leipzig","lat":51.38017,"lng":12.38401,"dist":18.3,"diesel":1.099,"e5":1.289,"e10":1.269,"isOpen":true,"houseNumber":"133","postCode":4129},{"id":"244191c9-0c24-4844-b7db-599929a77cab","name":"Kfz-Service-GmbH-Zwochau","brand":"Freie Tankstelle","street":"Hallesche Stra\u00dfe","place":"Wiedemar OT Zwochau","lat":51.465117,"lng":12.263571,"dist":18.3,"diesel":1.189,"e5":null,"e10":null,"isOpen":true,"houseNumber":"16","postCode":4509},{"id":"8abad435-f632-41d9-a63e-bcb454e443f6","name":"Esso Tankstelle","brand":"ESSO","street":"BAUMEISTERALLEE 2","place":"ZWENKAU","lat":51.205198,"lng":12.331131,"dist":18.5,"diesel":1.139,"e5":1.319,"e10":1.299,"isOpen":true,"houseNumber":"","postCode":4442},{"id":"e90c3aa7-34b7-43cb-bd6b-440e5944aa51","name":"Aral Tankstelle","brand":"ARAL","street":"An der Tabaksm\u00fchle","place":"Leipzig","lat":51.3135757,"lng":12.4046116,"dist":18.5,"diesel":1.169,"e5":1.369,"e10":1.349,"isOpen":true,"houseNumber":"","postCode":4277},{"id":"005056ba-7cb6-1ed2-bceb-8bcc4e724d33","name":"star Tankstelle","brand":"STAR","street":"Dieselstra\u00dfe","place":"Halle","lat":51.45671,"lng":11.98406,"dist":18.6,"diesel":1.169,"e5":1.369,"e10":1.349,"isOpen":true,"houseNumber":"59","postCode":6130},{"id":"50b300c2-af91-46d8-9c1d-6c4eb5723409","name":"LEIPZIG, EILENBURGER STR. 21","brand":"Shell","street":"EILENBURGER STR. 21 A","place":"LEIPZIG","lat":51.332941,"lng":12.405758,"dist":18.6,"diesel":1.169,"e5":1.359,"e10":1.339,"isOpen":true,"houseNumber":"","postCode":4317},{"id":"005056ba-7cb6-1ed2-bceb-c01e75192d50","name":"star Tankstelle","brand":"STAR","street":"Maximilianallee \/ B2","place":"Leipzig","lat":51.36683,"lng":12.39652,"dist":18.7,"diesel":1.099,"e5":1.289,"e10":1.269,"isOpen":true,"houseNumber":"15","postCode":4129},{"id":"591259f4-8cb4-44d9-90be-a63c03af8081","name":"TOTAL BRAUNSBEDRA","brand":"TOTAL","street":"MUECHELNER STR.","place":"BRAUNSBEDRA","lat":51.28373,"lng":11.875212,"dist":18.7,"diesel":1.149,"e5":1.349,"e10":1.329,"isOpen":true,"houseNumber":"4","postCode":6242},{"id":"f5480754-3b6a-4078-9294-44607f5a08de","name":"HALLE, LEIPZIGER CHAUSSEE","brand":"Shell","street":"LEIPZIGER CHAUSSEE 26","place":"HALLE","lat":51.46507,"lng":12.00058,"dist":18.8,"diesel":1.239,"e5":1.439,"e10":1.399,"isOpen":true,"houseNumber":"","postCode":6112},{"id":"4b57ad4b-8b70-45fc-869f-e613a6294ce9","name":"Esso Tankstelle","brand":"ESSO","street":"MAXIMILIANALLEE 26","place":"LEIPZIG","lat":51.370486,"lng":12.397775,"dist":18.9,"diesel":1.109,"e5":1.299,"e10":1.279,"isOpen":true,"houseNumber":"","postCode":4129},{"id":"a986c849-68f7-438b-a7ec-40ed9b3a03ba","name":"Aral Tankstelle","brand":"ARAL","street":"Maximilianallee","place":"Leipzig","lat":51.3858,"lng":12.3897448,"dist":18.9,"diesel":1.189,"e5":1.379,"e10":1.359,"isOpen":true,"houseNumber":"70","postCode":4129},{"id":"cdb3eb5e-521d-479e-94c5-bb80d3aa7ba6","name":"HALLE, SUEDSTADTRING 80.","brand":"Shell","street":"SUEDSTADTRING 80","place":"HALLE","lat":51.44872,"lng":11.957218,"dist":19.1,"diesel":1.239,"e5":1.439,"e10":1.399,"isOpen":true,"houseNumber":"","postCode":6128},{"id":"02fcb5ad-1c69-42b4-adee-df88479d7e87","name":"Aral Tankstelle","brand":"ARAL","street":"Essener Stra\u00dfe","place":"Leipzig","lat":51.3765755,"lng":12.3990259,"dist":19.2,"diesel":1.189,"e5":1.379,"e10":1.359,"isOpen":true,"houseNumber":"31","postCode":4357},{"id":"3e90bc3a-01ec-40c2-8b9b-7e2143c0d883","name":"TOTAL LEIPZIG","brand":"TOTAL","street":"PRAGER STR.","place":"LEIPZIG","lat":51.313023,"lng":12.414927,"dist":19.2,"diesel":1.109,"e5":1.309,"e10":1.289,"isOpen":true,"houseNumber":"179-181","postCode":4299},{"id":"671bd191-f75a-4a4e-9399-815571925696","name":"PEGAU, LEIPZIGER VORSTADT","brand":"Shell","street":"LEIPZIGER VORSTADT","place":"PEGAU","lat":51.16479,"lng":12.26408,"dist":19.3,"diesel":1.249,"e5":1.439,"e10":1.399,"isOpen":true,"houseNumber":"","postCode":4523},{"id":"feaf2905-be6a-46d5-ba8e-eccec51cd14e","name":"BAD LAUCHSTAEDT, MERSEBURGER LANDSTR.","brand":"Shell","street":"MERSEBURGER LANDSTR. 59","place":"BAD LAUCHSTAEDT","lat":51.385377,"lng":11.879638,"dist":19.4,"diesel":1.209,"e5":1.409,"e10":1.369,"isOpen":true,"houseNumber":"","postCode":6246},{"id":"92ca58ff-7e88-420a-ba32-6530e1c2cf91","name":"HALLE, SCHMIEDSTR.\/ MERSEBUR.","brand":"Shell","street":"SCHMIEDSTR.\/ MERSEBURGER STR","place":"HALLE","lat":51.46573,"lng":11.984098,"dist":19.4,"diesel":1.239,"e5":1.439,"e10":1.399,"isOpen":true,"houseNumber":"","postCode":6112},{"id":"e1a15081-25c0-9107-e040-0b0a3dfe563c","name":"Leipzig, Zweinaundorfer Str. 74","brand":"HEM","street":"Zweinaundorfer Str.","place":"Leipzig","lat":51.332848,"lng":12.419341,"dist":19.6,"diesel":1.099,"e5":1.289,"e10":1.269,"isOpen":true,"houseNumber":"74","postCode":4318},{"id":"6e93cce3-e34b-4998-a593-c91674c64801","name":"Halle, Delitzscher Stra\u00dfe 75","brand":"bft","street":"Delitzscher Stra\u00dfe 75","place":"Halle","lat":51.4787,"lng":12.0161,"dist":19.6,"diesel":1.169,"e5":1.369,"e10":1.329,"isOpen":true,"houseNumber":"","postCode":6112},{"id":"e82999a7-e97d-487c-bf3a-f810ebdb17f2","name":"Halle, Delitzscher Str.38a","brand":"SB","street":"Delitzscherstr.38a","place":"Halle","lat":51.478765,"lng":12.015845,"dist":19.6,"diesel":1.169,"e5":1.369,"e10":1.329,"isOpen":true,"houseNumber":"","postCode":6112},{"id":"43e1b89e-a5b6-4263-ba0d-dc64164639f9","name":"Esso Tankstelle","brand":"ESSO","street":"DELITZSCHER STR. 56","place":"HALLE","lat":51.478162,"lng":12.004944,"dist":19.9,"diesel":1.179,"e5":1.369,"e10":1.349,"isOpen":true,"houseNumber":"","postCode":6112},{"id":"f5a8eaa0-8ee8-46ae-ad1d-0927c1da81c7","name":"Greenline Leipzig","brand":"Greenline","street":"Mockauer Str.","place":"Leipzig","lat":51.3744,"lng":12.4113,"dist":19.9,"diesel":1.098,"e5":1.288,"e10":1.278,"isOpen":true,"houseNumber":"117","postCode":4357},{"id":"86df5466-ac61-4295-b19d-75f9305f1583","name":"Globus Handelshof GmbH & Co. KG Betriebsst\u00e4tte TS Leipzig-Seehausen","brand":"Globus SB Warenhaus","street":"An der Passage","place":"Leipzig","lat":51.40191,"lng":12.39489,"dist":20,"diesel":1.089,"e5":1.289,"e10":1.269,"isOpen":true,"houseNumber":"Passage1","postCode":4356},{"id":"812ecef1-650c-4930-a88b-71b9793607e6","name":"TOTAL HALLE","brand":"TOTAL","street":"DELITZSCHER STR.","place":"HALLE","lat":51.47852,"lng":11.996009,"dist":20.2,"diesel":1.189,"e5":1.379,"e10":1.359,"isOpen":true,"houseNumber":"36","postCode":6112},{"id":"51d4b663-a095-1aa0-e100-80009459e03a","name":"JET LEIPZIG SOMMERFELDER STR. 58","brand":"JET","street":"SOMMERFELDER STR. 58","place":"LEIPZIG","lat":51.3212,"lng":12.4296,"dist":20.2,"diesel":1.099,"e5":1.289,"e10":1.269,"isOpen":true,"houseNumber":"","postCode":4299},{"id":"9697efdc-155e-48b7-b58d-71a614ebfcbf","name":"LEIPZIG-PODELWITZ - DUEBENER LANDST","brand":"Agip","street":"Kossaerstr.\/Maximilianallee","place":"Leipzig-Podelwitz","lat":51.410611435419,"lng":12.394066572422,"dist":20.4,"diesel":1.119,"e5":1.309,"e10":1.289,"isOpen":true,"houseNumber":"","postCode":4356},{"id":"51461aa6-cd03-4ca6-8dbc-d169d374f46c","name":"Globus Handelshof GmbH & Co. KG Betriebsst\u00e4tte Wachau","brand":"Globus SB Warenhaus","street":"Nordstr.","place":"Wachau","lat":51.283314,"lng":12.427109,"dist":20.5,"diesel":1.099,"e5":1.299,"e10":1.279,"isOpen":true,"houseNumber":"1","postCode":4416},{"id":"51d4b6af-a095-1aa0-e100-80009459e03a","name":"JET HALLE WOERMLITZER STRASSE 18","brand":"JET","street":"WOERMLITZER STRASSE 18","place":"HALLE","lat":51.47073,"lng":11.96635,"dist":20.6,"diesel":1.169,"e5":1.369,"e10":1.349,"isOpen":true,"houseNumber":"","postCode":6110},{"id":"e1a15081-261e-9107-e040-0b0a3dfe563c","name":"Leipzig, Theklaer Str. 92a","brand":"HEM","street":"Theklaer Str.","place":"Leipzig","lat":51.370674,"lng":12.42705,"dist":20.8,"diesel":1.099,"e5":1.289,"e10":1.269,"isOpen":true,"houseNumber":"92a","postCode":4347},{"id":"ad594389-f86e-40d7-8117-a801cb85517c","name":"Aral Tankstelle","brand":"ARAL","street":"Permoserstra\u00dfe","place":"Leipzig","lat":51.3509636,"lng":12.434185,"dist":20.8,"diesel":1.169,"e5":1.359,"e10":1.339,"isOpen":true,"houseNumber":"32","postCode":4318},{"id":"25bbcf0b-95e5-4ccf-8f9c-6621673abe99","name":"bft Tankstelle","brand":"bft","street":"Torgauer Stra\u00dfe","place":"Leipzig","lat":51.3568,"lng":12.4376,"dist":21.2,"diesel":1.099,"e5":1.289,"e10":1.269,"isOpen":true,"houseNumber":"118","postCode":4347},{"id":"595b48a4-b129-494e-8cea-23b15222d1a6","name":"Aral Tankstelle","brand":"ARAL","street":"Altenburger Stra\u00dfe","place":"Groitzsch","lat":51.1510162,"lng":12.2865982,"dist":21.4,"diesel":1.239,"e5":1.429,"e10":1.409,"isOpen":true,"houseNumber":"79","postCode":4539},{"id":"2aa1d221-d746-4226-ab1e-035df714acf0","name":"HALLE, BERLINER STR.","brand":"Shell","street":"BERLINER STR. 190","place":"HALLE","lat":51.495596,"lng":12.011057,"dist":21.5,"diesel":1.239,"e5":1.429,"e10":1.389,"isOpen":true,"houseNumber":"","postCode":6116},{"id":"9b739fdf-3a57-4cc7-ab24-e22c2192d35b","name":"LEIPZIG - PAUNSDORFER STR. 70","brand":"Agip","street":"Paunsdorfer Str.","place":"Leipzig","lat":51.34236,"lng":12.44519,"dist":21.5,"diesel":1.109,"e5":1.299,"e10":1.279,"isOpen":true,"houseNumber":"70","postCode":4316},{"id":"ecf87968-50db-47f9-9135-fae1919bd36d","name":"TOTAL LEIPZIG","brand":"TOTAL","street":"PRAGER STR.","place":"LEIPZIG","lat":51.29083,"lng":12.44469,"dist":21.5,"diesel":1.109,"e5":1.309,"e10":1.289,"isOpen":true,"houseNumber":"420","postCode":4288},{"id":"d7e2f7a3-3bfa-4f67-a702-a8c90a52dba7","name":"Aral Tankstelle","brand":"ARAL","street":"Volkmannstra\u00dfe","place":"Halle","lat":51.487915,"lng":11.984189,"dist":21.5,"diesel":1.269,"e5":1.459,"e10":1.439,"isOpen":true,"houseNumber":"19","postCode":6112},{"id":"2c5356db-2934-4759-bd88-1922388f0072","name":"Aral Tankstelle","brand":"ARAL","street":"Rosenfelder Stra\u00dfe","place":"Halle","lat":51.5022469,"lng":12.0336819,"dist":21.5,"diesel":1.239,"e5":1.429,"e10":1.409,"isOpen":true,"houseNumber":"13","postCode":6116},{"id":"806b21f9-d492-42aa-a7cd-b76c4e4837e4","name":"GO Leipzig Hohentichelnstr.","brand":"GO","street":"Hohentichelnstr.","place":"Leipzig","lat":51.351299,"lng":12.4456,"dist":21.6,"diesel":1.099,"e5":1.289,"e10":1.269,"isOpen":true,"houseNumber":"26","postCode":4328},{"id":"0bb16757-fa71-4c60-baad-002055e7ecb2","name":"bft Tankstelle","brand":"bft","street":"Riesaer Stra\u00dfe","place":"Leipzig","lat":51.3454,"lng":12.4493,"dist":21.8,"diesel":1.099,"e5":1.289,"e10":1.269,"isOpen":true,"houseNumber":"56","postCode":4328},{"id":"51d4b56b-a095-1aa0-e100-80009459e03a","name":"Supermarkt-Tankstelle LANDSBERG SAARBRUECKER STR. 1","brand":"Supermarkt-Tankstelle","street":"SAARBRUECKER STR. 1","place":"LANDSBERG","lat":51.509764,"lng":12.052615,"dist":21.9,"diesel":1.159,"e5":1.349,"e10":1.329,"isOpen":true,"houseNumber":"","postCode":6188},{"id":"e1a15081-25bf-9107-e040-0b0a3dfe563c","name":"Leipzig, Permoserstr. 80","brand":"HEM","street":"Permoserstr.","place":"Leipzig","lat":51.350037,"lng":12.454345,"dist":22.2,"diesel":1.099,"e5":1.289,"e10":1.269,"isOpen":true,"houseNumber":"80","postCode":4328},{"id":"e1a15081-25bc-9107-e040-0b0a3dfe563c","name":"Leipzig, Braunstr. 1","brand":"HEM","street":"Braunstr.","place":"Leipzig","lat":51.350185,"lng":12.454404,"dist":22.2,"diesel":1.099,"e5":1.289,"e10":1.269,"isOpen":true,"houseNumber":"1","postCode":4347},{"id":"8dc50557-2acf-430a-a078-119181ce170a","name":"TOTAL HALLE","brand":"TOTAL","street":"AN DER MAGISTRALE","place":"HALLE","lat":51.4817,"lng":11.945292,"dist":22.4,"diesel":1.179,"e5":1.379,"e10":1.359,"isOpen":true,"houseNumber":"2","postCode":6124},{"id":"f4ff21de-2df3-43d2-cb07-3523ae54e990","name":"RWG TS M\u00fccheln","brand":"Raiffeisen Mansfeld","street":"Merseburger Str.","place":"M\u00fccheln","lat":51.304618,"lng":11.815757,"dist":22.5,"diesel":1.179,"e5":1.379,"e10":1.359,"isOpen":true,"houseNumber":"70","postCode":6249},{"id":"cb1ea505-f3b6-4772-919e-9996cf41a91e","name":"TEUTSCHENTHAL, AN DER LAUCHSTAEDTER STR.","brand":"Shell","street":"AN DER LAUCHSTAEDTER STR. 1","place":"TEUTSCHENTHAL","lat":51.46399,"lng":11.910646,"dist":22.5,"diesel":1.249,"e5":1.439,"e10":1.399,"isOpen":true,"houseNumber":"","postCode":6179},{"id":"d1eae26d-910f-4430-8d9b-281d6316c3cd","name":"Aral Tankstelle","brand":"ARAL","street":"Dessauer Platz","place":"Halle","lat":51.49741,"lng":11.98195,"dist":22.5,"diesel":1.259,"e5":1.449,"e10":1.429,"isOpen":true,"houseNumber":"4","postCode":6118},{"id":"74682857-a2a8-4853-aa60-915407523438","name":"ELAN LEIPZIG","brand":"ELAN","street":"RIESAER STR.","place":"LEIPZIG","lat":51.345596,"lng":12.461214,"dist":22.6,"diesel":1.099,"e5":1.289,"e10":1.269,"isOpen":true,"houseNumber":"72-74","postCode":4328},{"id":"1d5643e1-8f3f-464d-8583-f63f0c8740ff","name":"LEIPZIG, TORGAUER STR.","brand":"Shell","street":"TORGAUER STR. 308","place":"LEIPZIG","lat":51.365334,"lng":12.456355,"dist":22.7,"diesel":1.169,"e5":1.359,"e10":1.339,"isOpen":true,"houseNumber":"","postCode":4347},{"id":"fdf00e6d-0aad-424e-a07c-5006e5cae14f","name":"ELAN HALLE","brand":"ELAN","street":"PLATZ DREI LILIEN","place":"HALLE","lat":51.473614,"lng":11.923858,"dist":22.7,"diesel":1.169,"e5":1.369,"e10":1.349,"isOpen":true,"houseNumber":"5","postCode":6124},{"id":"4b5a018a-66e3-4b7e-ab26-7a3ab17c8ff3","name":"Supermarkt LEIPZIG","brand":"Supermarkt","street":"TORGAUER STR.","place":"LEIPZIG","lat":51.366962,"lng":12.457679,"dist":22.8,"diesel":1.089,"e5":1.289,"e10":1.269,"isOpen":true,"houseNumber":"279","postCode":4347},{"id":"005056a9-779e-1ee7-89d2-58a3b4f13979","name":"star Tankstelle","brand":"STAR","street":"Permoserstra\u00dfe","place":"Leipzig","lat":51.350155,"lng":12.463541,"dist":22.8,"diesel":1.099,"e5":1.289,"e10":1.269,"isOpen":true,"houseNumber":"90","postCode":4328},{"id":"32882b06-b228-47c1-b841-f92d8fb21888","name":"Halle","brand":"tankpool24","street":"Selkestra\u00dfe 7","place":"Halle","lat":51.4883,"lng":11.94069,"dist":23.2,"diesel":1.199,"e5":1.379,"e10":1.359,"isOpen":true,"houseNumber":"","postCode":6122},{"id":"48cb808b-e5e1-45ab-bf45-13bc3684f54f","name":"Tankstelle Teuchern","brand":"Tankstelle Teuchern","street":"Goethestra\u00e1e","place":"Teuchern","lat":51.12281,"lng":12.024721,"dist":23.3,"diesel":1.159,"e5":1.339,"e10":null,"isOpen":true,"houseNumber":"11","postCode":6682},{"id":"4190721d-47ee-4d03-8efa-77457c1c6000","name":"Aral Tankstelle","brand":"ARAL","street":"Eislebener Chaussee","place":"Halle","lat":51.4715576,"lng":11.9049807,"dist":23.4,"diesel":1.269,"e5":1.459,"e10":1.439,"isOpen":true,"houseNumber":"200","postCode":6126},{"id":"1d92ca59-74f3-47f3-b2ad-e02f6ec5fdfd","name":"Esso Tankstelle","brand":"ESSO","street":"B100  SUEDSEITE","place":"LANDSBERG","lat":51.530551,"lng":12.125143,"dist":23.5,"diesel":1.179,"e5":1.369,"e10":1.329,"isOpen":true,"houseNumber":"","postCode":6188},{"id":"deb0308c-df78-4517-83ff-3f39f6a9acc2","name":"Esso Tankstelle","brand":"ESSO","street":"B100  NORDSEITE","place":"LANDSBERG","lat":51.531512,"lng":12.124019,"dist":23.6,"diesel":1.179,"e5":1.369,"e10":1.329,"isOpen":true,"houseNumber":"","postCode":6188},{"id":"09af89a2-370b-4566-83d2-45f985e0c928","name":"HALLE, DESSAUER STR.","brand":"Shell","street":"DESSAUER STR. 80","place":"HALLE","lat":51.513093,"lng":11.994777,"dist":23.7,"diesel":1.239,"e5":1.429,"e10":1.389,"isOpen":true,"houseNumber":"","postCode":6118},{"id":"9cd63b1c-49af-49ed-6653-119c9ef7e97b","name":"Gulf M\u00fccheln","brand":"GULF","street":"St\u00f6bnitzer Str.","place":"M\u00fccheln (Geiseltal)","lat":51.316,"lng":11.7965,"dist":23.8,"diesel":1.159,"e5":1.359,"e10":1.339,"isOpen":true,"houseNumber":"1","postCode":6249},{"id":"005056ba-7cb6-1ed2-bceb-6173b42b4d1b","name":"star Tankstelle","brand":"STAR","street":"Nietlebener Strasse","place":"Halle","lat":51.4801,"lng":11.91164,"dist":23.8,"diesel":1.159,"e5":1.339,"e10":1.319,"isOpen":true,"houseNumber":"9","postCode":6126},{"id":"c0d422fa-0998-46d8-bdd7-87e913d22560","name":"LANDSBERG\/ SPICKEND., GESCHW.","brand":"Shell","street":"GESCHWISTER-SCHOLL - STR. 1","place":"LANDSBERG \/ OT W\u00d6LLS-PETERSDORF","lat":51.53551,"lng":12.137362,"dist":24,"diesel":1.239,"e5":1.429,"e10":1.389,"isOpen":true,"houseNumber":"","postCode":6188},{"id":"f80cc073-157b-4dc9-9582-5c9d538c0e1f","name":"Aral Tankstelle","brand":"ARAL","street":"Leipziger Str.","place":"Taucha","lat":51.37212,"lng":12.474988,"dist":24.1,"diesel":1.179,"e5":1.389,"e10":1.369,"isOpen":true,"houseNumber":"129","postCode":4425},{"id":"2f529cc4-4ba1-4044-8128-36fa60faadf8","name":"Aral Tankstelle","brand":"ARAL","street":"Portitzer Stra\u00dfe","place":"Taucha","lat":51.38208,"lng":12.4776115,"dist":24.6,"diesel":1.189,"e5":1.389,"e10":1.369,"isOpen":true,"houseNumber":"71","postCode":4425},{"id":"51d4b560-a095-1aa0-e100-80009459e03a","name":"JET LEIPZIG RIESAER STR. 176","brand":"JET","street":"RIESAER STR. 176","place":"LEIPZIG","lat":51.34655,"lng":12.49252,"dist":24.8,"diesel":1.099,"e5":1.289,"e10":1.269,"isOpen":true,"houseNumber":"","postCode":4319},

{"id":"bf3b5e44-250f-40ac-a826-629984d647fb","name":"Supermarkt EISENBERG","brand":"Supermarkt","street":"OBERE DONITZSCHKAU","place":"EISENBERG","lat":50.98003,"lng":11.895965,"dist":2.3,"diesel":1.139,"e5":1.309,"e10":1.289,"isOpen":true,"houseNumber":"2","postCode":7607},{"id":"341a80d7-e0f8-483b-8d34-aea307fa9605","name":"Aral Tankstelle","brand":"ARAL","street":"Jenaer Stra\u00dfe","place":"Eisenberg","lat":50.9701042,"lng":11.8900347,"dist":3.5,"diesel":1.239,"e5":1.379,"e10":1.359,"isOpen":true,"houseNumber":"13","postCode":7607},{"id":"fd4d7104-f105-4ecb-b91f-74acb6e797a7","name":"EISENBERG, JENAER STR.","brand":"Shell","street":"JENAER STR. 52","place":"EISENBERG","lat":50.971347,"lng":11.875797,"dist":3.9,"diesel":1.239,"e5":1.419,"e10":1.379,"isOpen":true,"houseNumber":"","postCode":7607},{"id":"f8e846fd-5e24-42c0-b2e4-5f9d5e59b7bd","name":"EISENBERG - JENAER STR. 71","brand":"Agip","street":"Jenaer Str.","place":"Eisenberg","lat":50.96984448647,"lng":11.858356127109,"dist":4.9,"diesel":1.129,"e5":1.309,"e10":1.289,"isOpen":true,"houseNumber":"71","postCode":7607},{"id":"9f1a3670-e6d6-48df-8c6c-3669e03a31a1","name":"TOTAL AUTOHOF OSTERFELD","brand":"TOTAL","street":"BAB 9 Ausfahrt Droy\u00dfig\/21B, Im Heidegrund Sued","place":"OSTERFELD","lat":51.03978,"lng":11.938508,"dist":5,"diesel":1.129,"e5":1.309,"e10":1.289,"isOpen":true,"houseNumber":"","postCode":6721},{"id":"9174d977-1ade-4e9a-8072-93069630338f","name":"bft-Tankstelle FTB, Bad K\u00f6stritz","brand":"bft","street":"Bahnhofstr.","place":"Bad K\u00f6stritz","lat":50.9308,"lng":12.02275,"dist":10.7,"diesel":1.119,"e5":1.299,"e10":1.279,"isOpen":true,"houseNumber":"61","postCode":7586},{"id":"d1c4c2fc-1528-4818-abfa-c983521d09c0","name":"ELAN HERMSDORF","brand":"ELAN","street":"EISENBERGER STR.","place":"HERMSDORF","lat":50.904747,"lng":11.857284,"dist":11,"diesel":1.129,"e5":1.309,"e10":1.289,"isOpen":true,"houseNumber":"89","postCode":7629},{"id":"d7ce116e-05ee-4c19-80de-b62a126bcfa8","name":"BAD KLOSTERLAUSNITZ, AN DER AU.","brand":"Shell","street":"AN DER AUTOBAHN","place":"Bad Klosterlausnitz","lat":50.907382,"lng":11.843394,"dist":11.2,"diesel":1.199,"e5":1.379,"e10":1.359,"isOpen":true,"houseNumber":"","postCode":7639},{"id":"6234376e-4763-4fbb-8cb9-ffea18de21bd","name":"OSTERFELD, A9 OSTERFELD OST.","brand":"Shell","street":"A9 OSTERFELD OST","place":"Osterfeld","lat":51.103175,"lng":11.956584,"dist":12.1,"diesel":1.379,"e5":1.549,"e10":1.529,"isOpen":true,"houseNumber":"","postCode":6721},{"id":"51d4b62e-a095-1aa0-e100-80009459e03a","name":"JET BUERGEL EISENBERGER STR. 54","brand":"JET","street":"EISENBERGER STR. 54","place":"BUERGEL","lat":50.9432,"lng":11.7631,"dist":12.1,"diesel":1.119,"e5":1.299,"e10":1.279,"isOpen":true,"houseNumber":"","postCode":7616},{"id":"2e2141a5-910c-47f9-8303-54955776d087","name":"Aral Tankstelle","brand":"ARAL","street":"Kraftsdorfer Stra\u00dfe","place":"Hermsdorf","lat":50.89011,"lng":11.8733826,"dist":12.3,"diesel":1.189,"e5":1.379,"e10":1.359,"isOpen":true,"houseNumber":"2","postCode":7629},{"id":"83f6d502-059b-4826-9652-a90e5065a46f","name":"HERMSDORF, HERMSDORFER HOEHE","brand":"Shell","street":"HERMSDORFER HOEHE 9","place":"HERMSDORF","lat":50.889978,"lng":11.86765,"dist":12.4,"diesel":1.189,"e5":1.379,"e10":null,"isOpen":true,"houseNumber":"","postCode":7629},{"id":"52e1fff1-62b0-4ad7-b6e5-255e44138b52","name":"Gulf Frauenprie\u00dfnitz","brand":"Gulf","street":"Gartenstr.","place":"Frauenprie\u00dfnitz","lat":51.0143,"lng":11.7357,"dist":12.6,"diesel":1.139,"e5":1.329,"e10":1.309,"isOpen":true,"houseNumber":"9","postCode":7774},{"id":"c591f5cd-e915-44f0-bfe7-1e91862c5cb7","name":"OSTERFELD, A9 OSTERFELD WEST.","brand":"Shell","street":"A9 OSTERFELD WEST","place":"Osterfeld","lat":51.108397,"lng":11.954469,"dist":12.7,"diesel":1.379,"e5":1.549,"e10":1.529,"isOpen":true,"houseNumber":"","postCode":6721},{"id":"8d86c896-d817-470f-ab20-9b7018df36f9","name":"Globus Handelshof GmbH & Co. KG Betriebsst\u00e4tte Hermsdorf","brand":"Globus SB Warenhaus","street":"Rodaer Str.","place":"Hermsdorf","lat":50.886776,"lng":11.851499,"dist":13.1,"diesel":1.109,"e5":1.299,"e10":1.279,"isOpen":true,"houseNumber":"72","postCode":7629},{"id":"cf50a0bf-f0d8-4073-a7c8-2d706162609b","name":"Aral Tankstelle","brand":"ARAL","street":"Siemensstra\u00dfe","place":"Gera","lat":50.91226,"lng":12.0648241,"dist":14.2,"diesel":1.189,"e5":1.379,"e10":1.359,"isOpen":true,"houseNumber":"58","postCode":7546},{"id":"a68a828f-2673-4df3-b851-82e8022b1511","name":"Aral Tankstelle","brand":"ARAL","street":"Siemensstra\u00dfe","place":"Gera","lat":50.907795,"lng":12.06653,"dist":14.7,"diesel":1.189,"e5":1.379,"e10":1.359,"isOpen":true,"houseNumber":"57","postCode":7546},{"id":"573b9379-cb29-4606-af9b-60147ad5fa7e","name":"Esso Tankstelle","brand":"ESSO","street":"AM RASTHOF 7","place":"SCHLEIFREISEN","lat":50.8707696,"lng":11.8504045,"dist":14.8,"diesel":1.149,"e5":1.319,"e10":1.299,"isOpen":true,"houseNumber":"","postCode":7629},{"id":"74544d7e-3a2f-4193-942b-ac91a0af2cc7","name":"Esso Tankstelle","brand":"ESSO","street":"AM RASTHOF 6","place":"SCHLEIFREISEN","lat":50.8707019,"lng":11.8485484,"dist":14.8,"diesel":1.149,"e5":1.319,"e10":1.299,"isOpen":true,"houseNumber":"","postCode":7629},{"id":"4334125e-4a26-40d0-91ed-52bdec0a4ba1","name":"ZEITZ, AM HERRMANNSSCHACHT.","brand":"Shell","street":"AM HERRMANNSSCHACHT 3","place":"Zeitz","lat":51.055028,"lng":12.110519,"dist":15.2,"diesel":1.179,"e5":1.369,"e10":1.349,"isOpen":true,"houseNumber":"","postCode":6712},{"id":"692a36ad-65a4-43b8-b37e-905adbb154cc","name":"GERA, SIEMENSSTR. 1","brand":"Shell","street":"SIEMENSSTR. 1","place":"GERA","lat":50.899723,"lng":12.072177,"dist":15.6,"diesel":1.189,"e5":1.369,"e10":1.339,"isOpen":true,"houseNumber":"","postCode":7545},{"id":"8f81a3cf-11bf-4a2f-a2e3-c8c2413b7003","name":"Supermarkt ZEITZ","brand":"Supermarkt","street":"FRIEDENSSTR.\/SCHWARZER WEG","place":"ZEITZ","lat":51.03579,"lng":12.128107,"dist":15.6,"diesel":1.109,"e5":1.299,"e10":1.279,"isOpen":true,"houseNumber":"","postCode":6712},{"id":"48cb808b-e5e1-45ab-bf45-13bc3684f54f","name":"Tankstelle Teuchern","brand":"Tankstelle Teuchern","street":"Goethestra\u00e1e","place":"Teuchern","lat":51.12281,"lng":12.024721,"dist":16,"diesel":1.159,"e5":1.339,"e10":null,"isOpen":true,"houseNumber":"11","postCode":6682},{"id":"a27ec004-abd5-4ac2-bdef-d07f5598b5b4","name":"TOTAL GERA","brand":"TOTAL","street":"LEIBNIZSTR.","place":"GERA","lat":50.891056,"lng":12.068623,"dist":16.1,"diesel":1.129,"e5":1.309,"e10":1.289,"isOpen":true,"houseNumber":"","postCode":7548},{"id":"20461b49-bf6e-4e23-b575-652cf953d763","name":"Zeitz - KP Petrol GmbH","brand":"bft","street":"Naumburger Stra\u00dfe","place":"Zeitz","lat":51.058553,"lng":12.123138,"dist":16.2,"diesel":1.119,"e5":1.309,"e10":1.289,"isOpen":true,"houseNumber":"46","postCode":6712},{"id":"903dd088-2dcf-4a7f-af67-bd25b2fa2377","name":"OIL! Tankstelle Dornburg-Camburg","brand":"OIL!","street":"Schmiedeh\u00e4user Strasse 54","place":"Dornburg-Camburg","lat":51.0545,"lng":11.6991,"dist":16.3,"diesel":1.119,"e5":1.319,"e10":1.299,"isOpen":true,"houseNumber":"","postCode":7774},{"id":"6363e06a-ff31-4938-bbda-7dbda4a796b4","name":"Gulf Neu-Janisroda","brand":"GULF","street":"An der B","place":"Janisroda","lat":51.1168,"lng":11.7767,"dist":16.3,"diesel":1.129,"e5":1.329,"e10":null,"isOpen":true,"houseNumber":"88","postCode":6618},{"id":"61f45d58-3a17-4559-9173-394c86b09596","name":"Globus Handelshof GmbH & Co. KG Betriebsst\u00e4tte Thei\u00dfen","brand":"Globus SB Warenhaus","street":"Zeitzer Str.","place":"Thei\u00dfen","lat":51.08128,"lng":12.10981,"dist":16.6,"diesel":1.109,"e5":1.299,"e10":1.279,"isOpen":true,"houseNumber":"39","postCode":6727},{"id":"914964bb-09a2-4bfe-a15a-a0a622011f9e","name":"Aral Tankstelle","brand":"ARAL","street":"Wei\u00dfenfelser Stra\u00dfe","place":"Zeitz","lat":51.0693626,"lng":12.1219168,"dist":16.6,"diesel":1.199,"e5":1.389,"e10":1.369,"isOpen":true,"houseNumber":"98","postCode":6712},{"id":"2d22331c-b466-4d2c-8d69-b7a6bb99ef3e","name":"Gera","brand":"BFT","street":"Stadtrodaer Strasse","place":"Gera","lat":50.865329,"lng":12.031015,"dist":16.9,"diesel":1.129,"e5":1.309,"e10":1.289,"isOpen":true,"houseNumber":"8-10","postCode":7548},{"id":"8b3b984a-b233-40d0-9cc5-9eb3c5a43028","name":"Lingner Uwe","brand":"bft - Walther","street":"Theaterstr.","place":"Gera","lat":50.88519,"lng":12.07512,"dist":16.9,"diesel":1.129,"e5":1.299,"e10":1.279,"isOpen":true,"houseNumber":"32","postCode":7545},{"id":"8fc9a122-0153-41d4-a1b8-e2e4cc3eacc7","name":"MINOL ZEITZ","brand":"MINOL","street":"KLEEFELDPLATZ","place":"ZEITZ","lat":51.04442,"lng":12.144135,"dist":17,"diesel":1.119,"e5":1.309,"e10":1.289,"isOpen":true,"houseNumber":"1A","postCode":6712},{"id":"6c963dd4-c877-439f-90c4-9d45b4bc75ff","name":"SB-Markttankstelle Gera Thueringer Str.","brand":"SB-Markttankstelle","street":"Thueringer Str.","place":"Gera","lat":50.8992,"lng":12.1012,"dist":17.1,"diesel":1.109,"e5":1.299,"e10":1.279,"isOpen":true,"houseNumber":"26","postCode":7552},{"id":"4aae7f46-f94a-45eb-ad72-e8839a60fe28","name":"Esso Tankstelle","brand":"ESSO","street":"WEISSENFELSER STR. 45","place":"NAUMBURG","lat":51.144619,"lng":11.83422,"dist":17.3,"diesel":1.129,"e5":1.329,"e10":1.309,"isOpen":true,"houseNumber":"","postCode":6618},{"id":"005056a9-779e-1ee7-86a8-143b93b38e95","name":"star Tankstelle","brand":"STAR","street":"Leipziger Stra\u00dfe","place":"Zeitz","lat":51.063705,"lng":12.137747,"dist":17.3,"diesel":1.119,"e5":1.309,"e10":1.289,"isOpen":true,"houseNumber":"43","postCode":6712},{"id":"51d4b512-a095-1aa0-e100-80009459e03a","name":"JET NAUMBURG WEISSENFELSER STR. 72","brand":"JET","street":"WEISSENFELSER STR. 72","place":"NAUMBURG","lat":51.1459,"lng":11.8333,"dist":17.4,"diesel":1.119,"e5":1.319,"e10":1.299,"isOpen":true,"houseNumber":"","postCode":6618},{"id":"39388494-aebe-4cb4-8823-1714b9383ef2","name":"Gulf Autohof Quirla","brand":"GULF","street":"Dorfstr.","place":"Quirla","lat":50.866,"lng":11.7726,"dist":17.6,"diesel":1.179,"e5":1.359,"e10":null,"isOpen":true,"houseNumber":"46a","postCode":7646},{"id":"51d4b511-a095-1aa0-e100-80009459e03a","name":"JET ZEITZ GEUSSNITZER STR. 98","brand":"JET","street":"GEUSSNITZER STR. 98","place":"ZEITZ","lat":51.0367,"lng":12.1595,"dist":17.8,"diesel":1.119,"e5":1.309,"e10":1.289,"isOpen":true,"houseNumber":"","postCode":6712},{"id":"9a39eb67-265b-4d0e-9374-7758ffc04f4d","name":"bft-Tankstelle FTB, Naumburg","brand":"bft","street":"Theaterplatz","place":"Naumburg","lat":51.151638,"lng":11.81496,"dist":18.5,"diesel":1.119,"e5":1.319,"e10":1.299,"isOpen":true,"houseNumber":"4","postCode":6618},{"id":"9018fe8d-583f-494e-b865-d71128c4d973","name":"M\u00fcnchenbernsdorf","brand":"BFT","street":"Kleinbernsdorfer","place":"M\u00fcnchenbernsdorf","lat":50.83236,"lng":11.94263,"dist":18.5,"diesel":1.129,"e5":1.309,"e10":null,"isOpen":true,"houseNumber":"26f","postCode":7589},{"id":"96163be3-33aa-4ba7-9548-856fdc082d1a","name":"Aral Tankstelle","brand":"ARAL","street":"K\u00f6sener Stra\u00dfe","place":"Naumburg","lat":51.1509743,"lng":11.7839956,"dist":19.3,"diesel":1.189,"e5":1.389,"e10":1.369,"isOpen":true,"houseNumber":"","postCode":6618},{"id":"2ea8dc02-183e-408d-913e-ff7d73369c29","name":"AVIA Tankstelle","brand":"AVIA","street":"Geraer Stra\u00dfe","place":"Stadtroda","lat":50.860065,"lng":11.743962,"dist":19.4,"diesel":1.179,"e5":1.359,"e10":1.339,"isOpen":true,"houseNumber":"72","postCode":7646},{"id":"8fdd523d-d5df-43f8-a584-9485f63d9a84","name":"GERA, RONNEBURGER STR.","brand":"Shell","street":"RONNEBURGER STR 59","place":"GERA","lat":50.881207,"lng":12.119918,"dist":19.4,"diesel":1.189,"e5":1.369,"e10":1.339,"isOpen":true,"houseNumber":"","postCode":7546},{"id":"2fcde72b-c45a-4399-88e6-696658125da9","name":"JENAPRIESNITZ, BUERGELSCHE STR. 2.","brand":"Shell","street":"BUERGELSCHE STR. 2","place":"JENAPRIESNITZ","lat":50.933023,"lng":11.652367,"dist":19.6,"diesel":1.229,"e5":1.369,"e10":1.349,"isOpen":true,"houseNumber":"","postCode":7751},{"id":"005056ba-7cb6-1ed2-bceb-c1ffe0264d50","name":"star Tankstelle","brand":"STAR","street":"Vogtlandstra\u00dfe \/ B92","place":"Gera","lat":50.85227,"lng":12.07687,"dist":19.8,"diesel":1.119,"e5":1.299,"e10":1.279,"isOpen":true,"houseNumber":"10","postCode":7549},{"id":"990edc13-9d95-4b81-833c-3fee8a40c692","name":"Globus Handelshof GmbH & Co. KG Betriebsst\u00e4tte Gera-Trebnitz","brand":"Globus SB Warenhaus","street":"An der Beerweinsch\u00e4nke","place":"Gera","lat":50.88664,"lng":12.136913,"dist":19.9,"diesel":1.109,"e5":1.309,"e10":1.289,"isOpen":true,"houseNumber":"2","postCode":7554},{"id":"a2f59e1d-29e8-408a-8192-b8c4a669ac70","name":"T GERA","brand":"T","street":"HEERESBERGSTRASSE","place":"GERA","lat":50.84769,"lng":12.0765,"dist":20.2,"diesel":1.119,"e5":1.299,"e10":1.279,"isOpen":true,"houseNumber":"3","postCode":7549},{"id":"e5e8701d-ad86-42f0-b91d-66851d418aac","name":"TOTAL BAD KOESEN","brand":"TOTAL","street":"AN DER B87","place":"BAD KOESEN","lat":51.138947,"lng":11.730228,"dist":20.3,"diesel":1.129,"e5":1.329,"e10":1.309,"isOpen":true,"houseNumber":"","postCode":6628},{"id":"e1a15081-2566-9107-e040-0b0a3dfe563c","name":"Gera, Stra\u00dfe der V\u00f6lkerfreundschaft 1","brand":"HEM","street":"Stra\u00dfe der V\u00f6lkerfreundschaft","place":"Gera","lat":50.853195,"lng":12.090244,"dist":20.3,"diesel":1.119,"e5":1.299,"e10":1.279,"isOpen":true,"houseNumber":"1","postCode":7551},{"id":"035f60cc-b918-40a4-8656-bf38de99b800","name":"Gera  (07549), Zopfstr. 8","brand":"Gulf","street":"Zopfstr.","place":"Gera","lat":50.8355,"lng":12.0541,"dist":20.5,"diesel":1.129,"e5":1.329,"e10":null,"isOpen":true,"houseNumber":"8","postCode":7549},{"id":"8b6b4fa5-2d8a-4e23-8cc0-1eea2b1dc154","name":"Aral Tankstelle","brand":"ARAL","street":"Heeresbergstra\u00dfe","place":"Gera","lat":50.84223,"lng":12.0767879,"dist":20.7,"diesel":1.199,"e5":1.379,"e10":1.359,"isOpen":true,"houseNumber":"9","postCode":7549},{"id":"ab28a89a-bff1-4bfe-8af4-c41872b3efb6","name":"Aral Tankstelle","brand":"ARAL","street":"Hallesche Stra\u00dfe","place":"L\u00fctzen \/ OT Zorbau","lat":51.1777077,"lng":12.0101843,"dist":21.1,"diesel":1.249,"e5":1.409,"e10":1.389,"isOpen":true,"houseNumber":"41\/Schwa","postCode":6686},{"id":"c13314c9-6024-4cf6-aabd-6a92e15cd309","name":"Supermarkt WEISSENFELS","brand":"Supermarkt","street":"MAX-PLANCK-STR.","place":"WEISSENFELS","lat":51.18903,"lng":11.983685,"dist":21.8,"diesel":1.129,"e5":1.329,"e10":1.309,"isOpen":true,"houseNumber":"3","postCode":6667},{"id":"99178f16-3e92-4550-bb6b-ba9bde6f3675","name":"Aral Tankstelle","brand":"ARAL","street":"Nikolaus-Otto-Stra\u00dfe","place":"Wei\u00dfenfels","lat":51.18824,"lng":11.9891253,"dist":21.9,"diesel":1.159,"e5":1.349,"e10":1.329,"isOpen":true,"houseNumber":"1","postCode":6667},{"id":"51d4b525-a095-1aa0-e100-80009459e03a","name":"JET JENA CAMBURGER STR. 66 D","brand":"JET","street":"CAMBURGER STR. 66 D","place":"JENA","lat":50.9462,"lng":11.6048,"dist":22.3,"diesel":1.159,"e5":1.339,"e10":1.319,"isOpen":true,"houseNumber":"","postCode":7743},{"id":"02391f41-5eac-4ff9-8e59-7b64ee5ef5ee","name":"OIL! Tankstelle Hohenm\u00f6lsen","brand":"OIL!","street":"Wilhelm-K\u00fclz-Str. 9","place":"Hohenm\u00f6lsen","lat":51.1649,"lng":12.0924,"dist":22.4,"diesel":1.119,"e5":1.319,"e10":1.299,"isOpen":true,"houseNumber":"","postCode":6679},{"id":"650ee77c-888a-4d14-8430-ab32e22c8a64","name":"TOTAL WEISSENFELS","brand":"TOTAL","street":"NAUMBURGER STRASSE","place":"WEISSENFELS","lat":51.198265,"lng":11.963868,"dist":22.6,"diesel":1.149,"e5":1.349,"e10":1.329,"isOpen":true,"houseNumber":"26","postCode":6667},{"id":"635b10ae-099b-4c06-b6ea-4b24f47330fc","name":"Aral Tankstelle","brand":"ARAL","street":"Camburger Stra\u00dfe","place":"Jena","lat":50.94256,"lng":11.5970678,"dist":23,"diesel":1.249,"e5":1.419,"e10":1.399,"isOpen":true,"houseNumber":"64","postCode":7743},{"id":"d78abbfc-2123-4a6a-aba5-bfae1c696386","name":"WEISSENFELS, SELAUER STRA\u00dfE.","brand":"Shell","street":"SELAUER STRA\u00dfE 91","place":"Weissenfels","lat":51.199172,"lng":11.994921,"dist":23.1,"diesel":1.219,"e5":1.409,"e10":1.369,"isOpen":true,"houseNumber":"","postCode":6667},{"id":"d0901427-3851-41b8-9eec-e0d986bebfed","name":"TOTAL JENA","brand":"TOTAL","street":"WIESENSTR.","place":"JENA","lat":50.932804,"lng":11.59395,"dist":23.5,"diesel":1.169,"e5":1.309,"e10":1.289,"isOpen":true,"houseNumber":"4","postCode":7749},{"id":"f5a439e7-4956-4000-8e23-02ff9f2fa305","name":"Ronneburg, Friedrichstr. 7","brand":"SB","street":"Friedrichstr. 7","place":"Ronneburg","lat":50.8617,"lng":12.1846,"dist":24.3,"diesel":1.119,"e5":1.299,"e10":1.269,"isOpen":true,"houseNumber":"","postCode":7580},{"id":"77ce97ef-5509-471d-be38-e2f1ccf95b3f","name":"Aral Tankstelle","brand":"ARAL","street":"Stadtrodaer Str.","place":"Jena-Lobeda","lat":50.877388,"lng":11.6219807,"dist":24.4,"diesel":1.259,"e5":1.429,"e10":1.409,"isOpen":true,"houseNumber":"102\/B","postCode":7747},{"id":"7e6bafad-413f-4414-ab2e-57648bf27bf7","name":"LS&WD Handels- GmbH Agrar-u. Baustoffp.","brand":"LS&WD Handels-GmbH Tankstelle","street":"Geraer Stra\u00dfe","place":"W\u00fcnschendorf","lat":50.8083,"lng":12.0912,"dist":24.5,"diesel":1.129,"e5":1.319,"e10":null,"isOpen":true,"houseNumber":"52","postCode":7570},{"id":"ad0c27c2-07e7-4ebd-815d-f940b4b4b67b","name":"Aral Tankstelle","brand":"ARAL","street":"Stadtrodaer Stra\u00dfe","place":"Jena","lat":50.9060326,"lng":11.5898752,"dist":24.8,"diesel":1.249,"e5":1.419,"e10":1.399,"isOpen":true,"houseNumber":"11","postCode":7749},{"id":"51d4b42e-a095-1aa0-e100-80009459e03a","name":"JET WEISSENFELS MERSEBURGER STR. 109 E","brand":"JET","street":"MERSEBURGER STR. 109 E","place":"WEISSENFELS","lat":51.2189,"lng":11.9696,"dist":24.9,"diesel":1.139,"e5":1.339,"e10":1.319,"isOpen":true,"houseNumber":"","postCode":6667},{"id":"dc75a1ec-096e-4c58-b554-e4c134545db7","name":"TOTAL JENA","brand":"TOTAL","street":"AUGUST-BEBEL-STR.","place":"JENA","lat":50.932022,"lng":11.57218,"dist":25,"diesel":1.169,"e5":1.309,"e10":1.289,"isOpen":true,"houseNumber":"33","postCode":7743},{"id":"1b3e2642-5b71-4c60-b0ba-0a146e3d6f39","name":"TOTAL JENA","brand":"TOTAL","street":"GOESCHWITZER STR.","place":"JENA","lat":50.898014,"lng":11.593384,"dist":25,"diesel":1.189,"e5":1.359,"e10":1.339,"isOpen":true,"houseNumber":"1","postCode":7745},

{"id":"984050f9-de2f-4d2d-973f-bbe68b29d6cd","name":"TOTAL AUTOHOF SELBITZ","brand":"TOTAL","street":"STEGENWALDHAUSER STR.","place":"SELBITZ","lat":50.32434,"lng":11.784478,"dist":2.5,"diesel":1.189,"e5":1.369,"e10":1.349,"isOpen":true,"houseNumber":"1","postCode":95152},{"id":"00061585-0008-4444-8888-acdcffffffff","name":"Tankstelle Schauenstein","brand":"Sigmund Hoffmann","street":"Helmbrechtser Strasse","place":"Schauenstein","lat":50.276859283447,"lng":11.74049282074,"dist":4.6,"diesel":1.179,"e5":1.359,"e10":1.339,"isOpen":true,"houseNumber":"6","postCode":95197},{"id":"ba3055ce-db49-48e6-b0fd-ddc5d039b241","name":"Esso Tankstelle","brand":"ESSO","street":"FRANKENWALDSTR. 43","place":"NAILA","lat":50.323692,"lng":11.7072101,"dist":6.5,"diesel":1.189,"e5":1.369,"e10":1.349,"isOpen":true,"houseNumber":"","postCode":95119},{"id":"5893cdbe-eb0f-4b00-b27e-c4ff0fb68e3c","name":"Esso Tankstelle","brand":"ESSO","street":"KULMBACHER STR. 56","place":"HOF","lat":50.316819,"lng":11.895434,"dist":7.5,"diesel":1.189,"e5":1.369,"e10":1.349,"isOpen":true,"houseNumber":"","postCode":95030},{"id":"f23dfbc9-c4f7-4807-be6f-fcbb8fa716d7","name":"Hof\/Saale Ernst-Reuter-Strasse 166","brand":"OMV","street":"Ernst-Reuter-Str.","place":"Hof\/Saale","lat":50.3261,"lng":11.89288,"dist":7.6,"diesel":1.189,"e5":1.379,"e10":1.359,"isOpen":true,"houseNumber":"166","postCode":95030},{"id":"94625600-7172-46f3-bf36-8f27cdcb87cc","name":"B\u00f6hm J\u00fcrgen","brand":"bft - Walther","street":"Kalkofen","place":"Naila","lat":50.3167,"lng":11.68624,"dist":7.7,"diesel":1.179,"e5":1.359,"e10":1.339,"isOpen":true,"houseNumber":"7","postCode":95119},{"id":"282247b8-935c-4548-90fa-55f9d9d68269","name":"HOF, JAHNSTR","brand":"Shell","street":"JAHNSTR. 46","place":"Hof","lat":50.317017,"lng":11.898202,"dist":7.7,"diesel":1.249,"e5":1.429,"e10":1.409,"isOpen":true,"houseNumber":"","postCode":95030},{"id":"5b6fb9cd-18db-49f2-93e5-ea64be2bd4a3","name":"AUTOHOF BERG.","brand":"Shell","street":"SIEGGRUBENSTR 5","place":"BERG BEI HOF","lat":50.372021,"lng":11.788274,"dist":7.8,"diesel":1.209,"e5":1.439,"e10":1.399,"isOpen":true,"houseNumber":"","postCode":95180},{"id":"c84830c2-f9b4-4213-9d58-1a22a1a3b0f4","name":"Dabak Tuncay","brand":"bft - Walther","street":"Kulmbacher Str.","place":"Hof","lat":50.317619,"lng":11.899743,"dist":7.8,"diesel":1.179,"e5":1.359,"e10":1.339,"isOpen":true,"houseNumber":"40","postCode":95030},{"id":"ec61c089-370e-41cf-9fe2-47f621100f3c","name":"Hof Ernst-Reuter-Str. 65","brand":"OMV","street":"Ernst-Reuter-Str.","place":"Hof","lat":50.3115,"lng":11.90745,"dist":8.3,"diesel":1.189,"e5":1.379,"e10":1.359,"isOpen":true,"houseNumber":"63","postCode":95030},{"id":"c5fb7246-27b8-4c63-9d87-16f9d6cbc493","name":"Leu Energie","brand":"Leu Energie","street":"Bahnhofstra\u00dfe","place":"Hof","lat":50.3114,"lng":11.914,"dist":8.7,"diesel":1.169,"e5":1.359,"e10":1.339,"isOpen":true,"houseNumber":"2a","postCode":95028},{"id":"0f74de82-f8be-41d7-bc2e-deef6384f351","name":"Helmbrechts Haide 2","brand":"OMV","street":"Haide","place":"Helmbrechts","lat":50.23193,"lng":11.73516,"dist":8.8,"diesel":1.189,"e5":1.379,"e10":1.359,"isOpen":true,"houseNumber":"2","postCode":95233},{"id":"463e8599-d06e-44bf-b175-75fa151595f9","name":"Tankstelle am Marktkauf","brand":"Marktkauf","street":"Schleizer Stra\u00dfe 49","place":"Hof","lat":50.327137,"lng":11.91047,"dist":8.9,"diesel":1.169,"e5":1.359,"e10":1.339,"isOpen":true,"houseNumber":"","postCode":95028},{"id":"6b256ee9-7ab4-439b-a096-3ce6649e4437","name":"Walther-Tankstelle Hof","brand":"Walther Automatenstation","street":"Hans-B\u00f6ckler-Str.","place":"Hof","lat":50.30785,"lng":11.91653,"dist":8.9,"diesel":1.169,"e5":1.349,"e10":1.329,"isOpen":true,"houseNumber":"19","postCode":95032},{"id":"00060073-0002-4444-8888-acdcffffffff","name":"Tankstelle Hof\/Saale","brand":"Sigmund Hoffmann","street":"Am Gueterbahnhof","place":"Hof","lat":50.308479309082,"lng":11.916879653931,"dist":8.9,"diesel":1.179,"e5":1.369,"e10":1.349,"isOpen":true,"houseNumber":"12","postCode":95032},{"id":"e52c624a-cb5f-438d-abcd-b39adb99056c","name":"HOF - WUNSIEDLER STR. 11","brand":"Agip","street":"Wunsiedler Str.","place":"Hof","lat":50.304738793687,"lng":11.9196864439,"dist":9.1,"diesel":1.189,"e5":1.379,"e10":1.359,"isOpen":true,"houseNumber":"11","postCode":95032},{"id":"51b6fcc1-ccc7-41b2-83f6-c5af14cda333","name":"Aral Tankstelle","brand":"ARAL","street":"Fabrikzeile","place":"Hof","lat":50.3193741,"lng":11.9219866,"dist":9.4,"diesel":1.249,"e5":1.439,"e10":1.419,"isOpen":true,"houseNumber":"5","postCode":95028},{"id":"0b81a1cf-09c6-4320-9208-0e078a1500f8","name":"Tankstelle am E-Center","brand":"E-Center","street":"Schaumbergstr.15","place":"Hof","lat":50.28566,"lng":11.92293,"dist":9.5,"diesel":1.169,"e5":1.359,"e10":1.339,"isOpen":true,"houseNumber":"","postCode":95032},{"id":"d02fc563-9787-464a-ad49-f174b0a10a37","name":"L\u00f6hr Angelika","brand":"bft - Walther","street":"Gabelsberger Str.","place":"Hof","lat":50.32123,"lng":11.93113,"dist":10.1,"diesel":1.179,"e5":1.359,"e10":1.339,"isOpen":true,"houseNumber":"68","postCode":95028},{"id":"d709504e-0466-4ddc-bdee-9ac7658368d1","name":"Esso Tankstelle","brand":"ESSO","street":"AUGUST-HORCH-STR. 14","place":"MUENCHBERG","lat":50.202822,"lng":11.777938,"dist":11.1,"diesel":1.189,"e5":1.379,"e10":1.359,"isOpen":true,"houseNumber":"","postCode":95213},{"id":"60c0eefa-d2a8-4f5c-82cc-b5244ecae955","name":"Leu Energie","brand":"Leu Energie","street":"August-Horch-Stra\u00dfe","place":"M\u00fcnchberg","lat":50.2022,"lng":11.782,"dist":11.1,"diesel":1.169,"e5":null,"e10":null,"isOpen":true,"houseNumber":"3","postCode":95213},{"id":"172b299d-eb01-49e4-b7e0-ea94e7918661","name":"BERG-RUDOLPHSTEIN, BAT FRANKENWALD.","brand":"Shell","street":"BAT FRANKENWALD OST A 9","place":"BERG-RUDOLPHSTEIN","lat":50.404203,"lng":11.773599,"dist":11.4,"diesel":1.339,"e5":1.539,"e10":1.519,"isOpen":true,"houseNumber":"","postCode":95180},{"id":"291a148d-fa03-4a61-ac1f-15c27d91ebb8","name":"Aral Tankstelle, BAT FRANKENWALD  WEST","brand":"ARAL","street":"A","place":"Berg","lat":50.40667,"lng":11.77405,"dist":11.7,"diesel":1.329,"e5":1.529,"e10":1.509,"isOpen":true,"houseNumber":"9","postCode":95180},{"id":"bad7438b-c564-4649-b346-44aa1df1cec7","name":"Tankstelle Ortlam","brand":"","street":"Zeppelinstra\u00dfe","place":"Schwarzenbach a Wald","lat":50.286585,"lng":11.628874,"dist":11.7,"diesel":1.179,"e5":1.359,"e10":1.339,"isOpen":true,"houseNumber":"9","postCode":95131},{"id":"cd8ba6a6-9da3-1ee5-a7f1-2d224bed5722","name":"JET MUENCHBERG HELMBRECHTSER STRASSE 1","brand":"JET","street":"HELMBRECHTSER STRASSE 1","place":"MUENCHBERG","lat":50.195395,"lng":11.791671,"dist":11.9,"diesel":1.179,"e5":1.359,"e10":1.339,"isOpen":true,"houseNumber":"","postCode":95213},{"id":"c3825b9c-98d0-41bb-9029-fffaf8589e62","name":"Walther-Tankstelle M\u00fcnchberg","brand":"bft - Walther","street":"Angerstr.","place":"M\u00fcnchberg","lat":50.19057,"lng":11.79393,"dist":12.4,"diesel":1.179,"e5":1.369,"e10":1.349,"isOpen":true,"houseNumber":"27","postCode":95213},{"id":"76b71687-3856-414e-b224-5e99a12be8b9","name":"Aral Tankstelle","brand":"ARAL","street":"Stammbacher Stra\u00dfe","place":"M\u00fcnchberg","lat":50.19026,"lng":11.7784,"dist":12.5,"diesel":1.189,"e5":1.379,"e10":1.359,"isOpen":true,"houseNumber":"45","postCode":95213},{"id":"00061306-0003-4444-8888-acdcffffffff","name":"Tankstelle Muenchberg","brand":"Sigmund Hoffmann","street":"Kirchenlamitzer Strasse","place":"Muenchberg","lat":50.190006256104,"lng":11.807081222534,"dist":12.5,"diesel":1.169,"e5":null,"e10":null,"isOpen":true,"houseNumber":"122","postCode":95213},{"id":"f6ee11b9-c7a4-412d-af09-a1b79e4c14f6","name":"Esso Tankstelle","brand":"ESSO","street":"PEUNTSTR. 19","place":"BAD STEBEN","lat":50.364758,"lng":11.641194,"dist":12.8,"diesel":1.189,"e5":1.369,"e10":1.349,"isOpen":true,"houseNumber":"","postCode":95138},{"id":"00060072-0001-4444-8888-acdcffffffff","name":"Tankstelle Schwarzenbach\/Saale","brand":"Sigmund Hoffmann","street":"Industriestrasse","place":"Schwarzenbach\/Saale","lat":50.225151062012,"lng":11.946439743042,"dist":13.9,"diesel":1.179,"e5":1.369,"e10":1.349,"isOpen":true,"houseNumber":"11","postCode":95126},{"id":"7814b72a-2e49-41a4-b956-1e647bf06b9f","name":"HIRSCHBERG - AN DER A 9","brand":"Agip","street":"An Der A","place":"Hirschberg","lat":50.430218727929,"lng":11.798814301434,"dist":14.3,"diesel":1.269,"e5":1.439,"e10":1.429,"isOpen":true,"houseNumber":"9","postCode":7927},{"id":"bbc0cca2-6851-47a3-9f25-d9536c18baac","name":"Geroldsgr\u00fcn","brand":"Leu Energie","street":"Key\u00dferstra\u00dfe 34","place":"Geroldsgr\u00fcn","lat":50.34,"lng":11.5931,"dist":14.7,"diesel":1.179,"e5":1.359,"e10":1.339,"isOpen":true,"houseNumber":"","postCode":95179},{"id":"14c40def-1689-4a80-b669-74274ffc2f5d","name":"TOTAL GEFELL","brand":"TOTAL","street":"HOFER STR.","place":"GEFELL","lat":50.435177,"lng":11.855584,"dist":15.5,"diesel":1.139,"e5":1.319,"e10":1.299,"isOpen":true,"houseNumber":"38","postCode":7926},{"id":"eaa468aa-1c15-4cc6-8cef-055384b8f166","name":"Hojer Vilma","brand":"bft - Walther","street":"Goethestr.","place":"Rehau","lat":50.24799,"lng":12.02854,"dist":17.9,"diesel":1.179,"e5":1.369,"e10":1.349,"isOpen":true,"houseNumber":"31","postCode":95111},{"id":"00060346-0001-4444-8888-acdc00000001","name":"Auto-H\u00f6pfner & Co. OHG","brand":"","street":"M\u00fcnchberger Stra\u00dfe","place":"Marktleugast","lat":50.169399261475,"lng":11.640299797058,"dist":18.3,"diesel":1.169,"e5":1.329,"e10":null,"isOpen":true,"houseNumber":"13","postCode":95352},{"id":"00060889-0007-4444-8888-acdcffffffff","name":"Tankstelle Rehau","brand":"Sigmund Hoffmann","street":"Zehstrasse","place":"Rehau","lat":50.253913879395,"lng":12.039940834045,"dist":18.4,"diesel":1.179,"e5":1.369,"e10":1.349,"isOpen":true,"houseNumber":"7","postCode":95111},{"id":"8dc0a209-179a-405a-ab74-b5eb638411a3","name":"Tankstelle Ott","brand":"Ott Transporte-Tankstelle e.K.","street":"Kulmbacher Stra\u00dfe","place":"Marktleugast","lat":50.16869,"lng":11.63126,"dist":18.7,"diesel":1.169,"e5":1.329,"e10":1.309,"isOpen":true,"houseNumber":"26","postCode":95352},{"id":"f9f9c9d2-49ae-4153-20ea-8e445a883789","name":"Gulf Sch\u00f6nbrunn","brand":"GULF","street":"Gewerbegebiet","place":"Saalburg-Ebersdorf","lat":50.4689,"lng":11.6535,"dist":21,"diesel":1.149,"e5":1.329,"e10":null,"isOpen":true,"houseNumber":"171","postCode":7929},{"id":"6df261d9-e486-499a-b140-81428dc53058","name":"bft-Tankstelle Reuth","brand":"bft","street":"Dehleser Str.","place":"Reuth","lat":50.47131,"lng":11.96142,"dist":22.3,"diesel":1.129,"e5":1.299,"e10":null,"isOpen":true,"houseNumber":"2","postCode":8538},{"id":"073f1735-92ce-4aca-ada8-2ebfe93acdcc","name":"Aral Tankstelle","brand":"ARAL","street":"Jakob-Degen-Stra\u00dfe","place":"Wallenfels","lat":50.26602,"lng":11.4755793,"dist":22.8,"diesel":1.229,"e5":1.379,"e10":1.359,"isOpen":true,"houseNumber":"21","postCode":96346},{"id":"a47d8fe7-75b8-47d7-b8aa-ff6ebcfb0eab","name":"Aral Tankstelle","brand":"ARAL","street":"Buehlweg","place":"Gefrees","lat":50.09405,"lng":11.7316389,"dist":23.5,"diesel":1.249,"e5":1.439,"e10":1.419,"isOpen":true,"houseNumber":"1","postCode":95482},{"id":"7e564625-ba43-41cf-ac75-f486f261bac5","name":"AVIA Tankstelle","brand":"AVIA","street":"Bayreuther Stra\u00dfe","place":"Wei\u00dfenstadt","lat":50.097393,"lng":11.880675,"dist":23.6,"diesel":1.189,"e5":1.349,"e10":1.329,"isOpen":true,"houseNumber":"36","postCode":95163},{"id":"a30fba5d-ccbf-4609-a6a3-106dab6c7964","name":"Steinwiesen Kronacher Strasse 65","brand":"OMV","street":"Kronacher Str.","place":"Steinwiesen","lat":50.29145,"lng":11.45218,"dist":24.2,"diesel":1.219,"e5":1.379,"e10":1.359,"isOpen":true,"houseNumber":"65","postCode":96349},{"id":"003db5ab-2774-48f5-992a-c10f6988a8b8","name":"AVIA Tankstelle","brand":"AVIA","street":"Selber Stra\u00dfe","place":"Sch\u00f6nwald","lat":50.196316,"lng":12.090964,"dist":24.3,"diesel":1.189,"e5":1.339,"e10":1.319,"isOpen":true,"houseNumber":"20","postCode":95173},{"id":"84b67d46-e42b-48b0-b810-582f0993ede4","name":"Marktleuthen","brand":"Leu Energie","street":"Wunsiedler Stra\u00dfe 7","place":"Marktleuthen","lat":50.1262,"lng":11.9981,"dist":24.4,"diesel":1.189,"e5":1.339,"e10":1.319,"isOpen":true,"houseNumber":"","postCode":95168},


{"id":"80f05a47-a044-4cd0-b176-7a2bd097b26d","name":"AVIA XPress","brand":"AVIA Xpress","street":"Bischof-Heinrich-Stra\u00dfe","place":"Pegnitz","lat":49.824825,"lng":11.496103,"dist":0.7,"diesel":1.219,"e5":1.299,"e10":1.279,"isOpen":true,"houseNumber":"23","postCode":91257},{"id":"2cb609f7-cfaa-4d5e-92ad-77b593091dab","name":"Fr\u00e4nkische Schweiz \u2013 Pegnitz West","brand":"TOTAL","street":"A9","place":"Pegnitz","lat":49.7496452,"lng":11.5107183,"dist":7.9,"diesel":1.319,"e5":1.469,"e10":1.449,"isOpen":true,"houseNumber":"","postCode":91257},{"id":"57386ed2-98a3-4fdc-8e9f-a5731b6a8c58","name":"Aral Tankstelle, BAT FR\u00c4NKISCHE SCHWEIZ\/PEGNITZ OST","brand":"ARAL","street":"A","place":"Pegnitz","lat":49.74735,"lng":11.5133457,"dist":8.1,"diesel":1.369,"e5":1.529,"e10":1.509,"isOpen":true,"houseNumber":"9","postCode":91257},{"id":"261f6058-0d26-4c67-b286-3f85600cf558","name":"Aral Tankstelle","brand":"ARAL","street":"N\u00fcrnberger Str.","place":"Pegnitz","lat":49.7497025,"lng":11.5397015,"dist":8.3,"diesel":1.289,"e5":1.369,"e10":1.349,"isOpen":true,"houseNumber":"39","postCode":91257},{"id":"ea96bc74-02d2-4c57-a322-22cb74f5ce17","name":"PEGNITZ, ALTE POST STR.56.","brand":"Shell","street":"ALTE POST STR. 56","place":"Pegnitz","lat":49.745891,"lng":11.534647,"dist":8.6,"diesel":1.279,"e5":1.349,"e10":1.309,"isOpen":true,"houseNumber":"","postCode":91257},{"id":"6bd9bd46-e267-40f5-9168-817ccfc549e6","name":"TOTAL POTTENSTEIN","brand":"TOTAL","street":"PEGNITZER STRASSE","place":"POTTENSTEIN","lat":49.768494,"lng":11.409829,"dist":8.9,"diesel":1.139,"e5":1.289,"e10":1.269,"isOpen":true,"houseNumber":"31","postCode":91278},{"id":"04d73bf8-aad6-4033-b2fd-0e2c2b7cbf98","name":"TOTAL CREUSSEN","brand":"TOTAL","street":"KAPPEL","place":"CREUSSEN","lat":49.8413,"lng":11.623888,"dist":9,"diesel":1.229,"e5":1.309,"e10":1.289,"isOpen":true,"houseNumber":"2","postCode":95473},{"id":"488816e2-8266-11e7-a4e5-001600004871","name":"RAIMUND Tankstelle Creu\u00dfen","brand":"Robert Raimund e.K.","street":"H\u00f6rhof","place":"Creu\u00dfen","lat":49.874462,"lng":11.613739,"dist":9.9,"diesel":1.229,"e5":null,"e10":null,"isOpen":true,"houseNumber":"3","postCode":95473},{"id":"a49c6f69-9406-40af-8ed7-40b603f60319","name":"Waischenfeld","brand":"Pickelmann","street":"Hauptstr.","place":"Waischenfeld","lat":49.849109649658,"lng":11.343228340149,"dist":11.9,"diesel":1.249,"e5":1.389,"e10":1.369,"isOpen":true,"houseNumber":"50","postCode":91344},{"id":"c059de86-1d74-4055-8cde-7fdb4022e91d","name":"Esso Tankstelle","brand":"ESSO","street":"BAMBERGER STR. 57","place":"BAYREUTH","lat":49.935951,"lng":11.550965,"dist":13.3,"diesel":1.249,"e5":1.359,"e10":1.339,"isOpen":true,"houseNumber":"","postCode":95445},{"id":"51d4b532-a095-1aa0-e100-80009459e03a","name":"JET BAYREUTH JUSTUS-LIEBIG-STR. 45","brand":"JET","street":"JUSTUS-LIEBIG-STR. 45","place":"BAYREUTH","lat":49.9337,"lng":11.5631,"dist":13.3,"diesel":1.239,"e5":1.349,"e10":1.329,"isOpen":true,"houseNumber":"","postCode":95447},{"id":"e6ff0b5e-a970-44a6-a494-5008c84d05af","name":"Raimund Plankenfels","brand":"","street":"Bayreuther Stra\u00dfe","place":"Plankenfels","lat":49.891979,"lng":11.352989,"dist":13.4,"diesel":1.239,"e5":1.349,"e10":1.329,"isOpen":true,"houseNumber":"65","postCode":95515},{"id":"e638f9c6-2c7f-4ee1-ac29-14f41ba7b646","name":"BAYREUTH - BAMBERGER STRASSE 30","brand":"Agip","street":"Bamberger Strasse","place":"Bayreuth","lat":49.93694,"lng":11.55421,"dist":13.5,"diesel":1.249,"e5":1.359,"e10":1.339,"isOpen":true,"houseNumber":"30","postCode":95445},{"id":"c1a0259e-ceaf-4784-469c-540c5d92a788","name":"Raimund Tankstelle","brand":"Raimund Tankstelle","street":"Pezoldstra\u00dfe","place":"G\u00f6\u00dfweinstein","lat":49.766837,"lng":11.33311,"dist":13.6,"diesel":1.139,"e5":1.279,"e10":1.259,"isOpen":true,"houseNumber":"41","postCode":91327},{"id":"00060905-0002-4444-8888-acdc00000002","name":"Tankstelle Motor-N\u00fctzel Vertriebs-GmbH","brand":"","street":"N\u00fcrnberger Str.","place":"Bayreuth","lat":49.926490783691,"lng":11.6010389328,"dist":13.7,"diesel":1.239,"e5":1.349,"e10":null,"isOpen":true,"houseNumber":"95","postCode":95448},{"id":"00060162-0001-4444-8888-acdc00000001","name":"Tankstelle MGS","brand":"","street":"Justus-Liebig-Str.","place":"Bayreuth","lat":49.938751220703,"lng":11.559593200684,"dist":13.8,"diesel":1.239,"e5":1.349,"e10":1.329,"isOpen":true,"houseNumber":"96","postCode":95447},{"id":"5481a1fe-63df-4c44-be3e-45273e8618e6","name":"Esso Tankstelle","brand":"ESSO","street":"NUERNBERGER STR. 1","place":"BAYREUTH","lat":49.936267,"lng":11.591342,"dist":14.3,"diesel":1.169,"e5":1.339,"e10":1.319,"isOpen":true,"houseNumber":"","postCode":95448},{"id":"6c278842-028e-47c1-b9e4-98a951dff90a","name":"Bayreuth N\u00fcrnberger Strasse 16 a","brand":"OMV","street":"N\u00fcrnberger Str.","place":"Bayreuth","lat":49.93666,"lng":11.59029,"dist":14.4,"diesel":1.249,"e5":1.359,"e10":null,"isOpen":true,"houseNumber":"16 a","postCode":95448},{"id":"51d4b628-a095-1aa0-e100-80009459e03a","name":"JET BAYREUTH KOENIGSALLEE 26","brand":"JET","street":"KOENIGSALLEE 26","place":"BAYREUTH","lat":49.9396,"lng":11.5915,"dist":14.7,"diesel":1.239,"e5":1.349,"e10":1.329,"isOpen":true,"houseNumber":"","postCode":95448},{"id":"cff8d365-6ae9-4f52-8e87-5fb60dacde19","name":"Raimund WWS Bth","brand":"","street":"Wieland-Wagner-Strasse","place":"Bayreuth","lat":49.941021,"lng":11.588084,"dist":14.7,"diesel":1.239,"e5":1.349,"e10":1.329,"isOpen":true,"houseNumber":"12","postCode":95444},{"id":"66882ed5-67ff-45c0-8098-240b4b10aa7b","name":"Stockinger Fritz","brand":"bft - Walther","street":"Meranierring","place":"Bayreuth","lat":49.95031,"lng":11.55078,"dist":14.8,"diesel":1.159,"e5":1.329,"e10":1.289,"isOpen":true,"houseNumber":"44","postCode":95445},{"id":"6ca6855c-7f9d-429b-95e7-ca6f91003790","name":"Esso Tankstelle","brand":"ESSO","street":"HINDENBURGSTR. 4","place":"BAYREUTH","lat":49.947688,"lng":11.568083,"dist":14.9,"diesel":1.249,"e5":1.359,"e10":1.339,"isOpen":true,"houseNumber":"","postCode":95445},{"id":"0cc777e4-13bc-48d4-b161-0f23d56afea6","name":"Bayreuth Albrecht-D\u00fcrer-Strasse 1\/2","brand":"OMV","street":"Albrecht-D\u00fcrer-Str.","place":"Bayreuth","lat":49.94614,"lng":11.5832,"dist":15.1,"diesel":1.249,"e5":1.359,"e10":1.339,"isOpen":true,"houseNumber":"1\/2","postCode":95448},{"id":"d9b15b46-9e76-444e-b2d5-dea046ea3e04","name":"Bayreuth , Kulmbacher Stra\u00dfe 86","brand":"bft","street":"Kulmbacher Stra\u00dfe 86","place":"Bayreuth","lat":49.952743,"lng":11.55681,"dist":15.2,"diesel":1.159,"e5":1.329,"e10":1.309,"isOpen":true,"houseNumber":"","postCode":95445},{"id":"102e1be2-a428-4636-b0c8-b7cae445063d","name":"Bayreuth, F.-Ebert-Str","brand":"SB","street":"Friedrich-Ebert-Str. 84","place":"Bayreuth","lat":49.944823,"lng":11.59195,"dist":15.2,"diesel":1.239,"e5":1.349,"e10":1.329,"isOpen":true,"houseNumber":"","postCode":95448},{"id":"53ba4832-0f07-0a60-e100-80009459e03b","name":"JET HEINERSREUTH BAYREUTHERSTRASSE 32","brand":"JET","street":"BAYREUTHERSTRASSE 32","place":"HEINERSREUTH","lat":49.963644,"lng":11.53631,"dist":16.1,"diesel":1.159,"e5":1.329,"e10":1.289,"isOpen":true,"houseNumber":"","postCode":95500},{"id":"e962b80c-58a6-4eee-b7cd-b4dde922b7b8","name":"Betzenstein","brand":"Pickelmann","street":"Alter Brunnen","place":"Betzenstein","lat":49.682460784912,"lng":11.425164222717,"dist":16.3,"diesel":1.199,"e5":null,"e10":null,"isOpen":true,"houseNumber":"1","postCode":91282},{"id":"7af92827-fb68-4e6e-8c9d-897f15f24c78","name":"Walther-Tankstelle Bayreuth","brand":"Walther Automatenstation","street":"Gr\u00fcner Baum 5 1 \/2","place":"Bayreuth","lat":49.957321,"lng":11.589004,"dist":16.4,"diesel":1.149,"e5":1.319,"e10":1.279,"isOpen":true,"houseNumber":"","postCode":95448},{"id":"e6aca3c3-49fd-47fd-b28a-ae94251f691a","name":"BAYREUTH","brand":"Agip","street":"Bernecker Str.","place":"Bayreuth","lat":49.954713,"lng":11.600211,"dist":16.5,"diesel":1.259,"e5":1.379,"e10":1.359,"isOpen":true,"houseNumber":"52","postCode":95448},{"id":"ce97b558-4388-4922-9b79-c1b53276cb68","name":"Aral Tankstelle","brand":"ARAL","street":"Bernecker Stra\u00dfe","place":"Bayreuth","lat":49.9547958,"lng":11.6000938,"dist":16.5,"diesel":1.289,"e5":1.439,"e10":1.419,"isOpen":true,"houseNumber":"51","postCode":95448},{"id":"84d46804-b8cb-434c-8657-eb6bcea5e604","name":"AVIA Tankstelle","brand":"AVIA","street":"Degelsdorfer Str.","place":"Auerbach","lat":49.69464,"lng":11.629252,"dist":16.6,"diesel":1.219,"e5":1.289,"e10":1.269,"isOpen":true,"houseNumber":"6","postCode":91275},{"id":"43009ad1-6497-4250-9ab4-7108bbc3ff63","name":"AVIA Tankstelle","brand":"Freie Tankstelle","street":"Hauptstr.","place":"Seybothenreuth","lat":49.895836,"lng":11.704478,"dist":16.7,"diesel":1.239,"e5":1.349,"e10":1.309,"isOpen":true,"houseNumber":"2","postCode":95517},{"id":"c1171ecb-94c1-4b6f-b21a-68c2dac3c36a","name":"AVIA Tankstelle","brand":"AVIA","street":"Bayreuther Stra\u00dfe","place":"Betzenstein","lat":49.68005,"lng":11.420669,"dist":16.7,"diesel":1.139,"e5":1.289,"e10":1.269,"isOpen":true,"houseNumber":"22","postCode":91282},{"id":"6da4da02-a5cc-4f1d-b31f-8f4c907eaa5c","name":"BayWa Tankstelle Bayreuth","brand":"BayWa","street":"Weiherstr.","place":"Bayreuth","lat":49.95759,"lng":11.5986,"dist":16.7,"diesel":1.239,"e5":1.349,"e10":1.399,"isOpen":true,"houseNumber":"2","postCode":95448},{"id":"238b83d0-84c9-410e-be8e-c68a8d6813d6","name":"AUERBACH, NEUHAUSER STR.","brand":"Shell","street":"NEUHAUSER STR. 26","place":"AUERBACH","lat":49.689381,"lng":11.625175,"dist":17,"diesel":1.279,"e5":1.349,"e10":1.309,"isOpen":true,"houseNumber":"","postCode":91275},{"id":"239e9643-53d6-46a6-94d6-b45262883e59","name":"Raimund RST Bth","brand":"","street":"Riedingerstra\u00dfe","place":"Bayreuth","lat":49.960694,"lng":11.597104,"dist":17,"diesel":1.239,"e5":1.369,"e10":1.349,"isOpen":true,"houseNumber":"11","postCode":95448},{"id":"51d4b422-a095-1aa0-e100-80009459e03a","name":"Supermarkt-Tankstelle am real,- Markt BAYREUTH RIEDINGERSTR. 21","brand":"Supermarkt-Tankstelle am real,- Markt","street":"RIEDINGERSTR. 21","place":"BAYREUTH","lat":49.9598,"lng":11.6022,"dist":17,"diesel":1.229,"e5":1.339,"e10":1.319,"isOpen":true,"houseNumber":"","postCode":95448},{"id":"043f2bef-88b4-428d-a8a9-54c5dead3005","name":"Plech Ottenhof Nr. 51","brand":"OMV","street":"Ottenhof","place":"Plech","lat":49.66647,"lng":11.46595,"dist":17.3,"diesel":1.149,"e5":1.299,"e10":1.279,"isOpen":true,"houseNumber":"51","postCode":91287},{"id":"76b76880-26c5-4761-8087-1501f2500990","name":"BAYREUTH, CHRISTIAN-RITTER-VON-LANGHEINRICH-STR.","brand":"Shell","street":"CHRISTIAN-RITTER-VON-LANGHEINRICH-STR. 2","place":"BAYREUTH","lat":49.962971,"lng":11.610821,"dist":17.6,"diesel":1.309,"e5":1.419,"e10":1.379,"isOpen":true,"houseNumber":"","postCode":95448},{"id":"bdfff22f-4ff5-4390-8859-2d2cddbffe7e","name":"AVIA Tankstelle","brand":"AVIA","street":"Bayreuther Stra\u00dfe","place":"Kirchenthumbach","lat":49.751118,"lng":11.72592,"dist":17.7,"diesel":1.209,"e5":1.329,"e10":1.309,"isOpen":true,"houseNumber":"12","postCode":91281},{"id":"00065001-0002-4444-8888-acdc00000002","name":"Raiffeisenbank Grafenw\u00f6hr-Kirchenthumbac","brand":"","street":"Bahnhofstr.","place":"Kirchenthumbach","lat":49.747440338135,"lng":11.727709770203,"dist":18,"diesel":1.219,"e5":1.369,"e10":1.349,"isOpen":true,"houseNumber":"20","postCode":91281},{"id":"51df69e2-03e1-0f50-e100-80009459e038","name":"JET BINDLACH LEUSCHNITZSTRASSE 1","brand":"JET","street":"LEUSCHNITZSTRASSE 1","place":"BINDLACH","lat":49.977565,"lng":11.611158,"dist":19.1,"diesel":1.239,"e5":1.349,"e10":1.329,"isOpen":true,"houseNumber":"","postCode":95463},{"id":"3494a87d-31f4-4e1e-a537-c192b4f3cffa","name":"SPEICHERSDORF","brand":"Agip","street":"Laibacher Weg","place":"Speichersdorf","lat":49.877628,"lng":11.772335,"dist":20.3,"diesel":1.249,"e5":1.359,"e10":1.339,"isOpen":true,"houseNumber":"1","postCode":95469},{"id":"785cef58-0618-4c59-9b76-fbd95f7c5abc","name":"Esso Tankstelle","brand":"ESSO","street":"KULMBACHER STR. 5","place":"HOLLFELD","lat":49.939531,"lng":11.288059,"dist":20.3,"diesel":1.189,"e5":1.369,"e10":1.349,"isOpen":true,"houseNumber":"","postCode":96142},{"id":"08ce4bd6-cde9-45e3-a162-685a0de65828","name":"AVIA Tankstelle","brand":"AVIA","street":"Glasstra\u00dfe","place":"Weidenberg","lat":49.94442,"lng":11.722387,"dist":20.9,"diesel":1.249,"e5":1.379,"e10":1.359,"isOpen":true,"houseNumber":"2","postCode":95466},{"id":"a765807c-346d-4dd8-b861-7e251ce4bca0","name":"ELO Neuhaus","brand":"ELO","street":"Bahnhofstra\u00dfe","place":"Neuhaus\/Pegnitz","lat":49.626618,"lng":11.550347,"dist":21.8,"diesel":1.139,"e5":1.279,"e10":1.239,"isOpen":true,"houseNumber":"19","postCode":91284},{"id":"6f6d89e0-92f3-42fe-9f56-753c89fd6b45","name":"AVIA Tankstelle","brand":"AVIA","street":"Talstra\u00dfe","place":"Egloffstein","lat":49.699654,"lng":11.261976,"dist":21.9,"diesel":1.139,"e5":1.279,"e10":1.259,"isOpen":true,"houseNumber":"108 a","postCode":91349},{"id":"42d78c57-d22a-4085-852f-bf4212d07ca7","name":"Esso Tankstelle","brand":"ESSO","street":"INDUSTRIESTR. 8","place":"THURNAU","lat":50.02178,"lng":11.408013,"dist":23.4,"diesel":1.159,"e5":1.329,"e10":1.309,"isOpen":true,"houseNumber":"","postCode":95349},{"id":"ecc1f7d9-6882-435d-83a4-8414bb0d867a","name":"AVIA Tankstelle","brand":"AVIA","street":"Berndorfer Stra\u00dfe","place":"Thurnau","lat":50.019936,"lng":11.386201,"dist":23.7,"diesel":1.159,"e5":1.329,"e10":1.309,"isOpen":true,"houseNumber":"24","postCode":95349},{"id":"8e36dbd7-2b93-4c95-87ee-f82834d341ef","name":"Aral Tankstelle","brand":"ARAL","street":"Forchheimer Stra\u00dfe","place":"Ebermannstadt","lat":49.7769,"lng":11.1778955,"dist":23.9,"diesel":1.219,"e5":1.359,"e10":1.339,"isOpen":true,"houseNumber":"44","postCode":91320},{"id":"b8b6039d-5e5f-4768-9f4e-e73123467b4e","name":"Esso Tankstelle","brand":"ESSO","street":"HAUPTSTR. 1","place":"HEILIGENSTADT","lat":49.862262,"lng":11.175141,"dist":24,"diesel":1.159,"e5":1.289,"e10":1.269,"isOpen":true,"houseNumber":"","postCode":91332},{"id":"4817c6f7-4629-4e7b-b554-66b25734c6e5","name":"Aral Tankstelle","brand":"ARAL","street":"An der Autobahn","place":"Neudrossenfeld","lat":50.0373459,"lng":11.490633,"dist":24.1,"diesel":1.289,"e5":1.459,"e10":1.439,"isOpen":true,"houseNumber":"1","postCode":95512},

{"id":"8312a7e3-0054-4f0a-a990-7a77041e5bd5","name":"Schwabach N\u00f6rdlinger Strasse 9 c","brand":"OMV","street":"N\u00f6rdlinger Str.","place":"Schwabach","lat":49.32183,"lng":11.01604,"dist":1.4,"diesel":1.119,"e5":1.249,"e10":1.229,"isOpen":true,"houseNumber":"9 c","postCode":91126},{"id":"e4d67e03-02ce-4f98-a60b-4ae090bc3ede","name":"Esso Tankstelle","brand":"ESSO","street":"NUERNBERGER STR. 84","place":"SCHWABACH","lat":49.337924,"lng":11.021953,"dist":1.7,"diesel":1.129,"e5":1.289,"e10":1.269,"isOpen":true,"houseNumber":"","postCode":91126},{"id":"ae0ad8e8-f7e0-45c3-9e8e-d689364a9790","name":"Aral Tankstelle","brand":"ARAL","street":"An der Autobahn","place":"Kammerstein","lat":49.31136,"lng":11.002243,"dist":2.1,"diesel":1.189,"e5":1.359,"e10":1.339,"isOpen":true,"houseNumber":"1","postCode":91126},{"id":"e1a15081-25a8-9107-e040-0b0a3dfe563c","name":"Schwabach, F\u00fcrther Str. 5","brand":"HEM","street":"F\u00fcrther Str.","place":"Schwabach","lat":49.331894,"lng":11.030839,"dist":2.2,"diesel":1.109,"e5":1.239,"e10":1.219,"isOpen":true,"houseNumber":"5","postCode":91126},{"id":"7038b411-bab6-480f-b366-b11a3e676115","name":"BayWa Tankstelle  Schwabach","brand":"BayWa","street":"Angerstr.","place":"Schwabach","lat":49.32465,"lng":11.032511,"dist":2.3,"diesel":1.119,"e5":1.299,"e10":1.279,"isOpen":true,"houseNumber":"2-6","postCode":91126},{"id":"95b9b9d0-d2bb-4564-a778-c56c6838a935","name":"Aral Tankstelle","brand":"ARAL","street":"Rother Stra\u00dfe","place":"Schwabach","lat":49.3241463,"lng":11.0382166,"dist":2.8,"diesel":1.179,"e5":1.359,"e10":1.339,"isOpen":true,"houseNumber":"13","postCode":91126},{"id":"3245e907-fc2e-4b72-badb-05362902f7e5","name":"SCHWABACH, ROTHER STR. 15.","brand":"Shell","street":"ROTHER STR. 15","place":"Schwabach","lat":49.323661,"lng":11.039737,"dist":2.9,"diesel":1.179,"e5":1.309,"e10":1.289,"isOpen":true,"houseNumber":"","postCode":91126},{"id":"f1a4108e-d192-482e-a79a-60f49a4e0051","name":"KAMMERSTEIN, BAT KAMMERSTEINER.","brand":"Shell","street":"A 6 KAMMERSTEINER LAND NORD","place":"Kammerstein","lat":49.308201,"lng":10.970553,"dist":3.3,"diesel":1.429,"e5":1.599,"e10":1.579,"isOpen":true,"houseNumber":"","postCode":91126},{"id":"f9e142cc-3174-461c-a402-f98c04004616","name":"Schwabach-Limbach Katzwanger Str. 20","brand":"OMV","street":"Katzwanger Str.","place":"Schwabach-Limbach","lat":49.34247,"lng":11.04698,"dist":3.6,"diesel":1.119,"e5":1.249,"e10":1.229,"isOpen":true,"houseNumber":"20","postCode":91126},{"id":"2f7f219f-2b13-4f84-bd16-3c2792ae0f37","name":"Aral Tankstelle, BAT KAMMERSTEINER LAND S\u00dcD","brand":"ARAL","street":"A","place":"Kammerstein","lat":49.3061638,"lng":10.9669628,"dist":3.6,"diesel":1.289,"e5":1.479,"e10":1.459,"isOpen":true,"houseNumber":"6","postCode":91126},{"id":"1605f19f-a8b6-4445-82a4-8bbfea0f9f5e","name":"AVIA Tankstelle","brand":"AVIA","street":"Hauptstra\u00dfe","place":"Kammerstein","lat":49.294727,"lng":10.9764595,"dist":4.3,"diesel":1.119,"e5":1.249,"e10":1.229,"isOpen":true,"houseNumber":"2","postCode":91126},{"id":"d5e26761-c252-42cf-9f65-03c1fb7a9693","name":"NUERNBERG - KATZWANGER HAUPTSTR. 79","brand":"Supol","street":"Katzwanger Hauptstr.","place":"Nuernberg","lat":49.362868,"lng":11.049671,"dist":5.1,"diesel":1.109,"e5":1.239,"e10":1.219,"isOpen":true,"houseNumber":"79","postCode":90453},{"id":"db307731-f6c4-4c45-9af4-1058e9b23397","name":"AVIA Tankstelle","brand":"AVIA","street":"M\u00fchlhofer Hauptstra\u00dfe","place":"N\u00fcrnberg","lat":49.373234,"lng":11.02625,"dist":5.1,"diesel":1.119,"e5":1.279,"e10":1.259,"isOpen":true,"houseNumber":"42-44","postCode":90453},{"id":"19962d6a-85e8-4b1a-802f-58f40745c055","name":"NUERNBERG - VORJURASTRASSE 180","brand":"Agip","street":"Vorjurastrasse","place":"Nuernberg","lat":49.36863,"lng":11.04559,"dist":5.4,"diesel":1.119,"e5":1.249,"e10":1.229,"isOpen":true,"houseNumber":"180","postCode":90453},{"id":"288ed7c1-8ae3-43d1-d041-f33c81ba438d","name":"Tankstelle Klinger","brand":"Freie Tankstelle","street":"Reichelsdorfer Hauptstr.","place":"N\u00fcrnberg","lat":49.378179,"lng":11.028318,"dist":5.7,"diesel":1.119,"e5":1.279,"e10":1.259,"isOpen":true,"houseNumber":"185","postCode":90453},{"id":"6813b1fe-b361-4484-87bb-533792745b42","name":"AVIA XPress","brand":"AVIA Xpress","street":"Willi-Memmert-Str.","place":"B\u00fcchenbach","lat":49.271557,"lng":11.037967,"dist":7,"diesel":1.109,"e5":1.249,"e10":1.229,"isOpen":true,"houseNumber":"30","postCode":91186},{"id":"7fd7417b-acb5-49a4-87b7-cc58350ba56c","name":"NUERNBERG - RADMEISTERSTRASSE 1","brand":"Agip","street":"Radmeisterstrasse","place":"Nuernberg","lat":49.37093,"lng":11.07774,"dist":7.2,"diesel":1.119,"e5":1.249,"e10":1.229,"isOpen":true,"houseNumber":"1","postCode":90455},{"id":"01e1ea53-cd6f-4bbd-b750-c8e9b61902b1","name":"AVIA XPress","brand":"AVIA Xpress","street":"Meckenloher Str.","place":"Rednitzhembach","lat":49.292538,"lng":11.082581,"dist":7.2,"diesel":1.109,"e5":1.249,"e10":1.229,"isOpen":true,"houseNumber":"8","postCode":91126},{"id":"76f9e0d9-6e0e-4e3b-90de-4567f3f34e8f","name":"N\u00fcrnberg Eibacher Hauptstrasse 109","brand":"OMV","street":"Eibacher Hauptstr.","place":"N\u00fcrnberg","lat":49.39911,"lng":11.03779,"dist":8.1,"diesel":1.119,"e5":1.289,"e10":1.269,"isOpen":true,"houseNumber":"109","postCode":90451},{"id":"c6c32ac5-45da-46c2-be07-c1968c6231b9","name":"WENDELSTEIN - RANGAUSTR. 4A","brand":"Agip","street":"Rangaustr.","place":"Wendelstein","lat":49.34587,"lng":11.11118,"dist":8.2,"diesel":1.139,"e5":1.289,"e10":1.269,"isOpen":true,"houseNumber":"4A","postCode":90530},{"id":"61ddfaad-0165-4867-8cf1-13999a44915c","name":"SB-Markttankstelle Wendelstein Rother Str.","brand":"SB-Markttankstelle","street":"Rother Str.","place":"Wendelstein","lat":49.336201,"lng":11.1155,"dist":8.3,"diesel":1.119,"e5":1.269,"e10":1.249,"isOpen":true,"houseNumber":"1 b","postCode":90530},{"id":"90327f90-1899-48ee-ad05-4e9b0af82024","name":"Tankstelle R\u00f6dl","brand":"Frei","street":"M\u00fclheimer Stra\u00dfe","place":"N\u00fcrnberg","lat":49.400346,"lng":11.048983,"dist":8.6,"diesel":1.199,"e5":1.369,"e10":1.349,"isOpen":true,"houseNumber":"17","postCode":90451},{"id":"86694a25-1faa-4357-8fc1-44e9418a07a1","name":"Geiger GmbH Tankstelle Rohr","brand":"Freie Tankstelle","street":"Am Sand","place":"Rohr","lat":49.340915679932,"lng":10.88134098053,"dist":8.8,"diesel":1.159,"e5":null,"e10":null,"isOpen":true,"houseNumber":"30","postCode":91189},{"id":"5c1d84ed-5e45-4ed7-ab62-080ce93a2135","name":"Schwanstetten Hauptstr. 17","brand":"OMV","street":"Hauptstr.","place":"Schwanstetten","lat":49.32486,"lng":11.12315,"dist":8.9,"diesel":1.129,"e5":1.289,"e10":1.269,"isOpen":true,"houseNumber":"17","postCode":90596},{"id":"ae982849-f130-44a2-854d-ecd353b1f5a5","name":"NUERNBERG, EIBACHER HAUPTSTR.","brand":"Shell","street":"EIBACHER HAUPTSTR. 17","place":"NUERNBERG","lat":49.40711,"lng":11.035625,"dist":8.9,"diesel":1.179,"e5":1.349,"e10":1.329,"isOpen":true,"houseNumber":"","postCode":90451},{"id":"bfcfee03-e754-4009-aafb-73484f987a4e","name":"Esso Tankstelle","brand":"ESSO","street":"HAUPTSTR. 65","place":"STEIN","lat":49.411176,"lng":11.005971,"dist":9,"diesel":1.119,"e5":1.289,"e10":1.269,"isOpen":true,"houseNumber":"","postCode":90547},{"id":"51d4b4e8-a095-1aa0-e100-80009459e03a","name":"Supermarkt-Tankstelle NUERNBERG DONAUSTR. 135","brand":"Supermarkt-Tankstelle","street":"DONAUSTR. 135","place":"NUERNBERG","lat":49.4093,"lng":11.0502,"dist":9.5,"diesel":1.099,"e5":1.279,"e10":1.259,"isOpen":true,"houseNumber":"","postCode":90451},{"id":"dfcd38b3-602f-4d88-bb2f-f169c7176ea6","name":"Esso Tankstelle","brand":"ESSO","street":"GEBERSDORFER STR. 29","place":"NUERNBERG","lat":49.419667,"lng":11.018116,"dist":10.1,"diesel":1.119,"e5":1.289,"e10":1.269,"isOpen":true,"houseNumber":"","postCode":90449},{"id":"51d4b570-a095-1aa0-e100-80009459e03a","name":"JET NUERNBERG GEBERSDORFER STR. 22","brand":"JET","street":"GEBERSDORFER STR. 22","place":"NUERNBERG","lat":49.4197,"lng":11.0191,"dist":10.1,"diesel":1.109,"e5":1.279,"e10":1.259,"isOpen":true,"houseNumber":"","postCode":90449},{"id":"5a6df366-c77c-4774-9bcb-5ada501bf882","name":"NUERNBERG, ANSBACHER STR","brand":"Shell","street":"ANSBACHER STR. 105","place":"NUERNBERG","lat":49.419504,"lng":11.025463,"dist":10.1,"diesel":1.179,"e5":1.349,"e10":1.309,"isOpen":true,"houseNumber":"","postCode":90449},{"id":"4912c61c-0c45-4642-b408-b7a8b9aa92fb","name":"NUERNBERG - ANSBACHER STRASSE 102","brand":"Agip","street":"Ansbacher Strasse","place":"Nuernberg","lat":49.4205,"lng":11.02623,"dist":10.2,"diesel":1.119,"e5":1.289,"e10":1.269,"isOpen":true,"houseNumber":"102","postCode":90449},{"id":"ed74879f-a599-479a-857d-45d762909c56","name":"AVIA Tankstelle","brand":"AVIA","street":"Langen\u00e4ckerstra\u00dfe","place":"Oberasbach","lat":49.42617,"lng":10.980667,"dist":10.8,"diesel":1.119,"e5":1.289,"e10":1.269,"isOpen":true,"houseNumber":"1","postCode":90522},{"id":"e698a272-5859-4df4-9485-0d0707355581","name":"AVIA XPress","brand":"AVIA Xpress","street":"Gewerbegebiet","place":"Abenberg","lat":49.23659,"lng":10.954911,"dist":10.9,"diesel":1.109,"e5":1.249,"e10":1.229,"isOpen":true,"houseNumber":"4","postCode":91183},{"id":"a0c51198-0412-455c-814e-11b799c4e849","name":"ROTH - NUERNBERGER STR.45","brand":"Agip","street":"Nuernberger Str.","place":"Roth","lat":49.24995,"lng":11.08998,"dist":11,"diesel":1.139,"e5":1.269,"e10":1.249,"isOpen":true,"houseNumber":"45","postCode":91154},{"id":"5c39c2a3-7be7-45f6-bba6-8c30b9c714f8","name":"N\u00fcrnberg-Schweinau, Schweinauer Hauptstr. 145","brand":"HEM","street":"Schweinauer Hauptstr.","place":"N\u00fcrnberg-Schweinau","lat":49.42577,"lng":11.04068,"dist":11,"diesel":1.109,"e5":1.279,"e10":1.259,"isOpen":true,"houseNumber":"145","postCode":90441},{"id":"2f516717-9cdd-4da2-9360-b8d4332769c2","name":"Esso Tankstelle","brand":"ESSO","street":"SPERBERSLOHER STR. 28","place":"WENDELSTEIN","lat":49.352471,"lng":11.149916,"dist":11.1,"diesel":1.129,"e5":1.289,"e10":1.269,"isOpen":true,"houseNumber":"","postCode":90530},{"id":"fbee292f-8b2c-4cfb-bb7e-997330baff34","name":"NUERNBERG, MINERVASTR.","brand":"Shell","street":"MINERVASTR. 107","place":"NUERNBERG","lat":49.417034,"lng":11.07734,"dist":11.1,"diesel":1.179,"e5":1.329,"e10":1.289,"isOpen":true,"houseNumber":"","postCode":90469},{"id":"f27e1c47-3b37-4436-98fc-a9cf9ce3f44c","name":"Aral Tankstelle","brand":"ARAL","street":"Allersberger Stra\u00dfe","place":"Roth","lat":49.24978,"lng":11.0955877,"dist":11.2,"diesel":1.199,"e5":1.359,"e10":1.339,"isOpen":true,"houseNumber":"33","postCode":91154},{"id":"990418af-9aa5-484e-b119-51388d191f76","name":"Ro\u00dftal F\u00fcrther Str. 2","brand":"OMV","street":"F\u00fcrther Str.","place":"Ro\u00dftal","lat":49.39935,"lng":10.88638,"dist":11.3,"diesel":1.119,"e5":1.269,"e10":1.249,"isOpen":true,"houseNumber":"2","postCode":90574},{"id":"75ba1407-d856-447f-bfc7-ec82e9cd9d43","name":"Aral Tankstelle","brand":"ARAL","street":"Schweinauer Hauptstr.","place":"N\u00fcrnberg","lat":49.42934,"lng":11.0438509,"dist":11.5,"diesel":1.199,"e5":1.359,"e10":1.339,"isOpen":true,"houseNumber":"92","postCode":90441},{"id":"4cad0c58-9edc-4ab4-a4b7-dafa7e1c6770","name":"Aral Tankstelle","brand":"ARAL","street":"M\u00fcnchener Stra\u00dfe","place":"N\u00fcrnberg","lat":49.40208,"lng":11.1148329,"dist":11.5,"diesel":1.199,"e5":1.359,"e10":1.339,"isOpen":true,"houseNumber":"400","postCode":90471},{"id":"cd276990-f064-4eff-9937-5141be4f34d4","name":"Aral Tankstelle","brand":"ARAL","street":"M\u00fcnchener Stra\u00dfe","place":"N\u00fcrnberg","lat":49.40185,"lng":11.1154671,"dist":11.5,"diesel":1.199,"e5":1.359,"e10":1.339,"isOpen":true,"houseNumber":"401","postCode":90471},{"id":"f6b6f082-5f51-45b7-9347-36f31669acc3","name":"NUERNBERG - GUSTAV ADOLF STR. 44","brand":"Agip","street":"Gustav Adolf Str.","place":"Nuernberg","lat":49.42981,"lng":11.04337,"dist":11.5,"diesel":1.119,"e5":1.289,"e10":1.269,"isOpen":true,"houseNumber":"44","postCode":90441},{"id":"5312fc4d-a57a-4fc3-9b74-a997c992f0e1","name":"Esso Tankstelle","brand":"ESSO","street":"TRIERER STR. 166","place":"NUERNBERG","lat":49.405044,"lng":11.111215,"dist":11.5,"diesel":1.129,"e5":1.289,"e10":1.269,"isOpen":true,"houseNumber":"","postCode":90469},{"id":"51d4b5ea-a095-1aa0-e100-80009459e03a","name":"JET NUERNBERG GUSTAV-ADOLF-STR. 139","brand":"JET","street":"GUSTAV-ADOLF-STR. 139","place":"NUERNBERG","lat":49.430208,"lng":11.043206,"dist":11.6,"diesel":1.109,"e5":1.279,"e10":1.259,"isOpen":true,"houseNumber":"","postCode":90439},{"id":"02e15654-8c85-41a4-bd25-868c34185db6","name":"N\u00fcrnberg","brand":"Mr. Wash Autoservice AG","street":"Nopitschstra\u00dfe","place":"N\u00fcrnberg","lat":49.42842,"lng":11.05822,"dist":11.7,"diesel":1.109,"e5":1.259,"e10":1.219,"isOpen":true,"houseNumber":"80","postCode":90441},{"id":"51d4b437-a095-1aa0-e100-80009459e03a","name":"JET OBERASBACH ROTHENBURGER STR. 33","brand":"JET","street":"ROTHENBURGER STR. 33","place":"OBERASBACH","lat":49.435,"lng":10.9731,"dist":11.9,"diesel":1.109,"e5":1.279,"e10":1.259,"isOpen":true,"houseNumber":"","postCode":90522},{"id":"00060595-0001-4444-8888-acdc00000001","name":"Freie Tankstelle Langhans GmbH","brand":"","street":"Richtweg","place":"Wendelstein","lat":49.35283279419,"lng":11.161120414734,"dist":11.9,"diesel":1.149,"e5":null,"e10":1.279,"isOpen":true,"houseNumber":"35","postCode":90530},{"id":"b3f176fe-9789-4bf6-9334-1d7762988a39","name":"OBERASBACH - ROTHENBURGER STRASSE 3","brand":"Agip","street":"Rothenburger Strasse","place":"Oberasbach","lat":49.43594,"lng":10.97738,"dist":11.9,"diesel":1.119,"e5":1.289,"e10":1.269,"isOpen":true,"houseNumber":"32","postCode":90522},{"id":"1b2275c9-488f-4b10-9e8c-211dc4c3922a","name":"ROTH - ALLERSBERGER STR. 81","brand":"Agip","street":"Allersberger Str.","place":"Roth","lat":49.24674,"lng":11.10639,"dist":12,"diesel":1.139,"e5":1.269,"e10":1.249,"isOpen":true,"houseNumber":"81","postCode":91154},{"id":"f690816b-9156-42ac-9fca-c4299bb036f6","name":"OBERASBACH - ROTHENBURGER STRASSE 1","brand":"Supol","street":"Rothenburger Strasse","place":"Oberasbach","lat":49.43738,"lng":10.985942,"dist":12,"diesel":1.109,"e5":1.279,"e10":1.259,"isOpen":true,"houseNumber":"1","postCode":90522},{"id":"ceeb8c3a-2106-4e8a-942a-37aa27389ea1","name":"NUERNBERG - GIBITZENHOFSTR. 172","brand":"Supol","street":"Gibitzenhofstr.","place":"Nuernberg","lat":49.429649,"lng":11.065121,"dist":12,"diesel":1.109,"e5":1.259,"e10":1.219,"isOpen":true,"houseNumber":"172","postCode":90443},{"id":"7c0d0c91-2f4f-4e5b-ba7b-9913fb4bd91e","name":"Esso Tankstelle","brand":"ESSO","street":"GUSTAV-ADOLF-STR. 49","place":"NUERNBERG","lat":49.435202,"lng":11.038754,"dist":12,"diesel":1.119,"e5":1.289,"e10":1.269,"isOpen":true,"houseNumber":"","postCode":90439},{"id":"6e9dd709-53a5-4218-a6d3-06a07e816495","name":"NUERNBERG - WALLENSTEINSTRASSE 90","brand":"Agip","street":"Wallensteinstrasse","place":"Nuernberg","lat":49.4375,"lng":11.0314,"dist":12.2,"diesel":1.119,"e5":1.289,"e10":1.269,"isOpen":true,"houseNumber":"90","postCode":90431},{"id":"97fe6f44-1117-4949-9890-0bc95d8c138d","name":"Aral Tankstelle","brand":"ARAL","street":"Ulmenstra\u00dfe","place":"N\u00fcrnberg","lat":49.4297752,"lng":11.0707664,"dist":12.2,"diesel":1.219,"e5":1.379,"e10":1.359,"isOpen":true,"houseNumber":"31","postCode":90443},{"id":"6ec036af-f3ae-4213-9e41-39b388a8ed6c","name":"ROTH, MUENCHENER STR","brand":"Shell","street":"M\u00dcNCHENER STR. 55","place":"ROTH","lat":49.23492,"lng":11.087573,"dist":12.3,"diesel":1.199,"e5":1.329,"e10":1.289,"isOpen":true,"houseNumber":"","postCode":91154},{"id":"8dd6947b-319a-4a07-bc07-8c767d75861d","name":"ZIRNDORF, NUERNBERGER STR.","brand":"Shell","street":"N\u00dcRNBERGER STR. 59","place":"ZIRNDORF","lat":49.43833,"lng":10.96591,"dist":12.3,"diesel":1.219,"e5":1.379,"e10":1.339,"isOpen":true,"houseNumber":"","postCode":90513},{"id":"c8fbf361-9055-4bae-97b2-3a2a2de63492","name":"Nuernberg, Bauernfeindstr. 57","brand":"SB","street":"Bauernfeindstr. 57","place":"Nuernberg","lat":49.417653,"lng":11.106668,"dist":12.4,"diesel":1.109,"e5":1.259,"e10":1.229,"isOpen":true,"houseNumber":"","postCode":90471},{"id":"1c797890-605a-47d4-b6e5-5c3f9d6adefe","name":"Bavaria Petrol","brand":"Bavaria Petrol","street":"Oppelner Stra\u00dfe","place":"N\u00fcrnberg","lat":49.4022369,"lng":11.1335974,"dist":12.5,"diesel":1.109,"e5":1.269,"e10":1.249,"isOpen":true,"houseNumber":"203","postCode":90473},{"id":"e1a15081-257a-9107-e040-0b0a3dfe563c","name":"N\u00fcrnberg, Rothenburger Str. 325","brand":"HEM","street":"Rothenburger Str.","place":"N\u00fcrnberg","lat":49.44145,"lng":11.028373,"dist":12.6,"diesel":1.109,"e5":1.279,"e10":1.259,"isOpen":true,"houseNumber":"325","postCode":90431},{"id":"51d4b423-a095-1aa0-e100-80009459e03a","name":"Supermarkt-Tankstelle am real,- Markt NUERNBERG VIRNSBERGER STR. 2-4","brand":"Supermarkt-Tankstelle am real,- Markt","street":"VIRNSBERGER STR. 2-4","place":"NUERNBERG","lat":49.4432,"lng":11.0152,"dist":12.6,"diesel":1.099,"e5":1.269,"e10":1.249,"isOpen":true,"houseNumber":"","postCode":90431},{"id":"1796b9cd-b159-429f-9bea-c209e61c822b","name":"WENDELSTEIN (ROETH.) - BOGENSTR. 3","brand":"Supol","street":"Bogenstr.","place":"Wendelstein (Roeth.)","lat":49.367479,"lng":11.169276,"dist":12.9,"diesel":1.119,"e5":1.279,"e10":1.259,"isOpen":true,"houseNumber":"3","postCode":90530},{"id":"2b405359-84be-460c-a414-eb83c528c24a","name":"Esso Tankstelle","brand":"ESSO","street":"MUENCHENER STR. 281","place":"NUERNBERG","lat":49.424289,"lng":11.106145,"dist":13,"diesel":1.119,"e5":1.269,"e10":1.249,"isOpen":true,"houseNumber":"","postCode":90471},{"id":"cbb4d567-4703-402e-8a5a-8c5e69f13f1a","name":"OIL! tank","brand":"OIL!","street":"Benno-Strau\u00df-Str. 31","place":"F\u00fcrth","lat":49.4465,"lng":10.9948,"dist":13,"diesel":1.099,"e5":1.269,"e10":1.249,"isOpen":true,"houseNumber":"","postCode":90763},{"id":"c1d4e3f2-523e-4f9b-a55c-95d8c5915bd4","name":"NUERNBERG - WITSCHELSTR. 93","brand":"Agip","street":"Witschelstr.","place":"Nuernberg","lat":49.44735,"lng":11.03978,"dist":13.3,"diesel":1.119,"e5":1.289,"e10":1.269,"isOpen":true,"houseNumber":"93","postCode":90431},{"id":"286bfd3a-ffe2-4a5c-b79c-51c8bb8d87ae","name":"NUERNBERG, FRANKENSTR.","brand":"Shell","street":"FRANKENSTR. 224","place":"NUERNBERG","lat":49.431029,"lng":11.101356,"dist":13.4,"diesel":1.179,"e5":1.329,"e10":1.289,"isOpen":true,"houseNumber":"","postCode":90461},{"id":"64c20384-1b5c-47c2-b25e-6da078343caf","name":"GVS Tankstelle","brand":"GVS","street":"Lehrberger Str.","place":"N\u00fcrnberg","lat":49.44925,"lng":11.02538,"dist":13.4,"diesel":1.109,"e5":1.289,"e10":null,"isOpen":true,"houseNumber":"12","postCode":90431},{"id":"17faffff-462f-4017-adf6-348e03890a46","name":"Aral Tankstelle","brand":"ARAL","street":"Georg-Ledebour-Stra\u00dfe","place":"N\u00fcrnberg","lat":49.4013329,"lng":11.1508179,"dist":13.4,"diesel":1.199,"e5":1.359,"e10":1.339,"isOpen":true,"houseNumber":"4","postCode":90473},{"id":"864b2fa6-b382-46b4-b44f-d2fa587a4c5c","name":"ZIRNDORF - FUERTHER STRASSE 51","brand":"Agip","street":"Fuerther Strasse","place":"Zirndorf","lat":49.448648581404,"lng":10.96262984261,"dist":13.5,"diesel":1.119,"e5":1.289,"e10":1.269,"isOpen":true,"houseNumber":"51","postCode":90513},{"id":"024dbaf7-9db5-42b9-884d-249e40d7ae02","name":"NUERNBERG, SIGMUNDSTR","brand":"Shell","street":"SIGMUNDSTR. 104","place":"N\u00fcrnberg","lat":49.45279,"lng":11.014865,"dist":13.7,"diesel":1.189,"e5":1.349,"e10":1.309,"isOpen":true,"houseNumber":"","postCode":90431},{"id":"487b87f7-1eaf-4309-a9f5-025cc64028e8","name":"Aral Tankstelle","brand":"ARAL","street":"Wodanstra\u00dfe","place":"N\u00fcrnberg","lat":49.43719,"lng":11.094202,"dist":13.7,"diesel":1.199,"e5":1.359,"e10":1.339,"isOpen":true,"houseNumber":"27","postCode":90461},{"id":"4aac1e43-15e7-4b15-94c1-0eb29c964897","name":"Esso Tankstelle","brand":"ESSO","street":"THOMAS-MANN-STR. 71","place":"NUERNBERG","lat":49.415072,"lng":11.138212,"dist":13.7,"diesel":1.119,"e5":1.269,"e10":1.249,"isOpen":true,"houseNumber":"","postCode":90471},{"id":"1ca2cd6c-c5f7-43fb-87ba-84064faf7e42","name":"NUERNBERG - SCHANZAECKER STRASSE 7-","brand":"Supol","street":"Schanzaecker Strasse","place":"Nuernberg","lat":49.4455315,"lng":11.0683006,"dist":13.7,"diesel":1.109,"e5":1.259,"e10":1.219,"isOpen":true,"houseNumber":"7-9","postCode":90443},{"id":"86d8c18a-0a2b-491f-ad92-57ba0f66680b","name":"N\u00fcrnberg Gleiwitzer Strasse 220","brand":"OMV","street":"Gleiwitzer Str.","place":"N\u00fcrnberg","lat":49.41065,"lng":11.14677,"dist":13.8,"diesel":1.119,"e5":1.269,"e10":1.249,"isOpen":true,"houseNumber":"220","postCode":90475},{"id":"99de6386-c8f4-4a49-b10e-a3f2c680c620","name":"AVIA Tankstelle","brand":"AVIA","street":"Essenweinstra\u00dfe","place":"N\u00fcrnberg","lat":49.446358,"lng":11.072794,"dist":13.9,"diesel":1.119,"e5":1.269,"e10":1.249,"isOpen":true,"houseNumber":"3-7","postCode":90443},{"id":"4d9392b5-5be4-4095-8edd-8312d27e3f89","name":"Esso Tankstelle","brand":"ESSO","street":"SIGMUNDSTR. 47","place":"NUERNBERG","lat":49.457272,"lng":11.01848,"dist":14.2,"diesel":1.129,"e5":1.289,"e10":1.269,"isOpen":true,"houseNumber":"","postCode":90431},{"id":"1845d0fc-9382-4a06-8fcf-4ac05525af5c","name":"NUERNBERG, HARSDOERFFER STR","brand":"Shell","street":"HARSDOERFFER STR. 15","place":"N\u00fcrnberg","lat":49.443268,"lng":11.096067,"dist":14.4,"diesel":1.199,"e5":1.359,"e10":1.339,"isOpen":true,"houseNumber":"","postCode":90478},{"id":"c92fa8b5-6baa-47cb-a0c3-5e4e8de57c9c","name":"FUERTH - HOEFENER STRASSE 44","brand":"Agip","street":"Hoefener Strasse","place":"Fuerth","lat":49.460861,"lng":11.010414,"dist":14.6,"diesel":1.139,"e5":1.289,"e10":1.269,"isOpen":true,"houseNumber":"44","postCode":90763},{"id":"886841e0-58e7-4454-b03c-6577af7a97e9","name":"AVIA Tankstelle","brand":"AVIA","street":"L\u00f6wenberger Stra\u00dfe","place":"N\u00fcrnberg","lat":49.407387,"lng":11.164131,"dist":14.6,"diesel":1.119,"e5":1.269,"e10":1.249,"isOpen":true,"houseNumber":"1","postCode":90475},{"id":"51d4b6a3-a095-1aa0-e100-80009459e03a","name":"JET NUERNBERG FUERTHER STR. 275","brand":"JET","street":"FUERTHER STR. 275","place":"NUERNBERG","lat":49.4603,"lng":11.0264,"dist":14.6,"diesel":1.119,"e5":1.279,"e10":1.259,"isOpen":true,"houseNumber":"","postCode":90429},{"id":"f8646cfb-fb24-479b-aa96-a5a29b76000b","name":"Parkhaus Adlerstrasse","brand":"AVIA","street":"Adlerstrasse","place":"N\u00fcrnberg","lat":49.451836,"lng":11.076934,"dist":14.6,"diesel":1.119,"e5":1.289,"e10":1.269,"isOpen":true,"houseNumber":"4-8","postCode":90403},{"id":"097e5a47-bd7c-4d68-9f9d-7529c347b696","name":"N\u00fcrnberg Regensburger Str. 85","brand":"OMV","street":"Regensburger Str.","place":"N\u00fcrnberg","lat":49.44332,"lng":11.10394,"dist":14.6,"diesel":1.139,"e5":1.279,"e10":1.259,"isOpen":true,"houseNumber":"85","postCode":90478},{"id":"51d4b647-a095-1aa0-e100-80009459e03a","name":"JET NUERNBERG REGENSBURGER STR. 286","brand":"JET","street":"REGENSBURGER STR. 286","place":"NUERNBERG","lat":49.4349,"lng":11.124,"dist":14.7,"diesel":1.109,"e5":1.269,"e10":1.249,"isOpen":true,"houseNumber":"","postCode":90480},{"id":"04034baa-8494-4008-b10a-cbda6c62defb","name":"NUERNBERG, REGENSBURGER STR","brand":"Shell","street":"REGENSBURGER STR. 314","place":"NUERNBERG","lat":49.433805,"lng":11.127038,"dist":14.7,"diesel":1.179,"e5":1.339,"e10":1.299,"isOpen":true,"houseNumber":"","postCode":90480},{"id":"8f182152-4624-4a97-814f-6b1c772848ce","name":"NUERNBERG - REGENSBURGER STR. 290","brand":"Supol","street":"Regensburger Str.","place":"Nuernberg","lat":49.434896,"lng":11.124902,"dist":14.7,"diesel":1.109,"e5":1.269,"e10":1.229,"isOpen":true,"houseNumber":"290","postCode":90480},{"id":"cf407ea4-797b-47d0-a135-c092b0af88c0","name":"AVIA Tankstelle","brand":"AVIA","street":"\u00c4u\u00dfere Gro\u00dfweidenm\u00fchlstra\u00dfe","place":"N\u00fcrnberg","lat":49.457634,"lng":11.058706,"dist":14.8,"diesel":1.129,"e5":1.289,"e10":1.269,"isOpen":true,"houseNumber":"2","postCode":90419},{"id":"00061077-ae56-4444-8888-acdc00000001","name":"Beer GmbH","brand":"freie Tankstelle","street":"Saganer Strasse","place":"N\u00fcrnberg","lat":49.415309906006,"lng":11.160289764404,"dist":14.9,"diesel":1.109,"e5":null,"e10":null,"isOpen":true,"houseNumber":"31","postCode":90475},{"id":"884f8246-0371-482c-87b4-e8a7db97389c","name":"Feucht Tankstelle Feucht-West","brand":"OMV","street":"Feucht-West","place":"Feucht","lat":49.36051,"lng":11.20201,"dist":14.9,"diesel":1.389,"e5":1.549,"e10":1.529,"isOpen":true,"houseNumber":"A 9","postCode":90537},{"id":"80a64139-eb4e-4ac9-8146-2fcf3053a6a0","name":"Esso Tankstelle","brand":"ESSO","street":"NUERNBERGER STR. 22","place":"HEILSBRONN","lat":49.340579,"lng":10.795448,"dist":15,"diesel":1.139,"e5":1.279,"e10":1.259,"isOpen":true,"houseNumber":"","postCode":91560},{"id":"bc76c0fa-b1f0-4c5d-ab31-3d4d69258b74","name":"Aral Tankstelle","brand":"ARAL","street":"Herrnstra\u00dfe","place":"F\u00fcrth","lat":49.4641571,"lng":10.9879084,"dist":15,"diesel":1.199,"e5":1.359,"e10":1.339,"isOpen":true,"houseNumber":"27","postCode":90763},{"id":"193cdf46-69f7-4038-a719-e9ecc86a310f","name":"Esso Tankstelle","brand":"ESSO","street":"BAB A9, OSTSEITE","place":"FEUCHT","lat":49.356167,"lng":11.204004,"dist":15,"diesel":1.319,"e5":1.489,"e10":1.469,"isOpen":true,"houseNumber":"","postCode":90537},{"id":"073b06fc-e3d8-4955-80a1-f3f0f56fb146","name":"Wassermungenau Hauptstr. 30","brand":"OMV","street":"Hauptstr.","place":"Wassermungenau","lat":49.21678,"lng":10.88444,"dist":15.2,"diesel":1.129,"e5":1.259,"e10":1.239,"isOpen":true,"houseNumber":"30","postCode":91183},{"id":"708d59c1-be1f-40ed-bda4-f8c423128451","name":"Aral Tankstelle","brand":"ARAL","street":"N\u00fcrnberger Stra\u00dfe","place":"F\u00fcrth","lat":49.4665337,"lng":11.0100822,"dist":15.2,"diesel":1.209,"e5":1.369,"e10":1.349,"isOpen":true,"houseNumber":"131","postCode":90762},{"id":"c8111391-2d9a-4648-b509-d34ad5c0524c","name":"NUERNBERG - LOEWENBERGER STRASSE 13","brand":"Agip","street":"Loewenberger Strasse","place":"Nuernberg","lat":49.41112,"lng":11.17117,"dist":15.3,"diesel":1.119,"e5":1.269,"e10":1.249,"isOpen":true,"houseNumber":"135","postCode":90475},{"id":"7f028be4-8ca3-4d43-9a3d-1b170187f614","name":"Aral Tankstelle","brand":"ARAL","street":"Nuernberger Stra\u00dfe","place":"F\u00fcrth","lat":49.4675636,"lng":11.0057287,"dist":15.3,"diesel":1.209,"e5":1.369,"e10":1.349,"isOpen":true,"houseNumber":"126","postCode":90762},{"id":"04f6bc6e-77d9-46e9-a9a8-4c9d5f0a7542","name":"Esso Tankstelle","brand":"ESSO","street":"SCHWABACHER STR. 27","place":"FEUCHT","lat":49.368443,"lng":11.207079,"dist":15.5,"diesel":1.129,"e5":1.289,"e10":1.269,"isOpen":true,"houseNumber":"","postCode":90537},{"id":"7e07b3f7-c892-47d7-80d5-2246b2a0f0d1","name":"Esso Tankstelle","brand":"ESSO","street":"SULZBACHER STR. 10-12","place":"NUERNBERG","lat":49.45769348,"lng":11.09112414,"dist":15.6,"diesel":1.129,"e5":1.289,"e10":1.269,"isOpen":true,"houseNumber":"","postCode":90489},{"id":"804a95a2-4701-43aa-a3ee-0764174a0cee","name":"N\u00fcrnberg Sulzbacher Strasse 24-26","brand":"OMV","street":"Sulzbacher Str.","place":"N\u00fcrnberg","lat":49.45788,"lng":11.09329,"dist":15.7,"diesel":1.139,"e5":1.289,"e10":1.269,"isOpen":true,"houseNumber":"24 - 26","postCode":90489},{"id":"34d264ad-4bb8-42a9-83fb-51ce29794517","name":"N\u00fcrnberg Brettergartenstr. 76","brand":"OMV","street":"Brettergartenstr.","place":"N\u00fcrnberg","lat":49.47043,"lng":11.02615,"dist":15.7,"diesel":1.129,"e5":1.299,"e10":1.279,"isOpen":true,"houseNumber":"76","postCode":90427},{"id":"f52c148d-3bf2-451f-b939-20366b98cd9a","name":"Esso Tankstelle","brand":"ESSO","street":"OSTENDSTR. 56","place":"NUERNBERG","lat":49.452372,"lng":11.110863,"dist":15.8,"diesel":1.119,"e5":1.269,"e10":1.249,"isOpen":true,"houseNumber":"","postCode":90482},{"id":"64635fc5-e7cf-4617-ac59-6d7d77a9696c","name":"Aral Tankstelle","brand":"ARAL","street":"Ansbacher Stra\u00dfe","place":"Heilsbronn","lat":49.3340263,"lng":10.7825584,"dist":15.8,"diesel":1.199,"e5":1.359,"e10":1.339,"isOpen":true,"houseNumber":"35","postCode":91560},{"id":"96d1f782-fe33-4280-898b-9c23a63812bd","name":"WINDSBACH - ANSBACHER STRASSE 34","brand":"Agip","street":"Ansbacher Strasse","place":"Windsbach","lat":49.245914289504,"lng":10.823092867323,"dist":15.9,"diesel":1.139,"e5":1.269,"e10":1.249,"isOpen":true,"houseNumber":"34","postCode":91575},{"id":"bce4b7c7-5f26-45bd-9906-c83388b24631","name":"AVIA Tankstelle","brand":"AVIA","street":"Heilsbronner Stra\u00dfe","place":"Neuendettelsau","lat":49.2906,"lng":10.789581,"dist":15.9,"diesel":1.139,"e5":1.269,"e10":1.249,"isOpen":true,"houseNumber":"18 a","postCode":91564},{"id":"e271d8f1-02f8-4944-beed-09f43dc737ba","name":"Esso Tankstelle","brand":"ESSO","street":"BUCHER STR. 108","place":"NUERNBERG","lat":49.467778,"lng":11.069088,"dist":16.1,"diesel":1.129,"e5":1.289,"e10":1.269,"isOpen":true,"houseNumber":"","postCode":90408},{"id":"cfa58d01-85de-41a8-beef-0046830bc3b6","name":"NUERNBERG - GROLANDSTRASSE 65","brand":"Supol","street":"Grolandstrasse","place":"Nuernberg","lat":49.466004,"lng":11.079025,"dist":16.1,"diesel":1.119,"e5":1.279,"e10":1.259,"isOpen":true,"houseNumber":"65","postCode":90408},{"id":"eba6d5d2-e20e-448f-8f67-b2d574e9b145","name":"Reinhold Wurzer GmbH & Co. KG","brand":"Wurzer R. - Freie Tankstelle","street":"Flurst\u00fctze","place":"Georgensgm\u00fcnd","lat":49.18516,"lng":11.02573,"dist":16.2,"diesel":1.129,"e5":1.289,"e10":1.269,"isOpen":true,"houseNumber":"1","postCode":91166},{"id":"ebfed486-9666-44ec-9dc4-ec474a9d5c1c","name":"N\u00fcrnberg Erlanger Strasse 3","brand":"OMV","street":"Erlanger Str.","place":"N\u00fcrnberg","lat":49.46995,"lng":11.0672,"dist":16.3,"diesel":1.129,"e5":1.289,"e10":1.269,"isOpen":true,"houseNumber":"3","postCode":90425},{"id":"8d296fe4-1e30-4cb2-843e-5286ad6fae89","name":"NUERNBERG, ERLANGER STR.","brand":"Shell","street":"ERLANGER STR. 4","place":"NUERNBERG","lat":49.469956,"lng":11.068175,"dist":16.3,"diesel":1.189,"e5":1.349,"e10":1.329,"isOpen":true,"houseNumber":"","postCode":90408},{"id":"afc83c65-6b50-4769-bc51-553b41b74a06","name":"Feucht Altdorfer Strasse 15","brand":"OMV","street":"Altdorfer Str.","place":"Feucht","lat":49.37714,"lng":11.21555,"dist":16.4,"diesel":1.189,"e5":1.349,"e10":1.329,"isOpen":true,"houseNumber":"15","postCode":90537},{"id":"51d4b51f-a095-1aa0-e100-80009459e03a","name":"JET NUERNBERG OSTENDSTR. 148","brand":"JET","street":"OSTENDSTR. 148","place":"NUERNBERG","lat":49.4565,"lng":11.1221,"dist":16.6,"diesel":1.109,"e5":1.259,"e10":1.239,"isOpen":true,"houseNumber":"","postCode":90482},{"id":"77f1b150-2935-41d0-ab73-8cceda50c0db","name":"ELAN NUERNBERG","brand":"ELAN","street":"OSTENDSTRASSE","place":"NUERNBERG","lat":49.456978,"lng":11.121466,"dist":16.6,"diesel":1.109,"e5":1.259,"e10":1.239,"isOpen":true,"houseNumber":"143","postCode":90482},{"id":"23f7c1f2-c19d-4e1b-ad3f-e251e40144cb","name":"Aral Tankstelle","brand":"ARAL","street":"Erlanger Stra\u00dfe","place":"N\u00fcrnberg","lat":49.4736862,"lng":11.0648632,"dist":16.6,"diesel":1.219,"e5":1.379,"e10":1.359,"isOpen":true,"houseNumber":"40","postCode":90425},{"id":"51d4b5e5-a095-1aa0-e100-80009459e03a","name":"JET FUERTH HANS-VOGEL-STR. 26","brand":"JET","street":"HANS-VOGEL-STR. 26","place":"FUERTH","lat":49.4795,"lng":11.01148,"dist":16.6,"diesel":1.119,"e5":1.289,"e10":1.269,"isOpen":true,"houseNumber":"","postCode":90765},{"id":"25125284-b0ec-480f-8d48-c77dcc1ef379","name":"FUERTH, HANS-VOGEL-STR 55.","brand":"Shell","street":"HANS-VOGEL-STR. 55","place":"F\u00dcRTH","lat":49.480283,"lng":11.009685,"dist":16.7,"diesel":1.189,"e5":1.359,"e10":1.339,"isOpen":true,"houseNumber":"","postCode":90765},{"id":"c3dc6f67-11fa-4a93-96e7-0e965c2aa22d","name":"NUERNBERG - AEUSSERE SULZBACHER STR","brand":"Supol","street":"Aeussere Sulzbacher Str.","place":"Nuernberg","lat":49.462016,"lng":11.112242,"dist":16.7,"diesel":1.119,"e5":1.269,"e10":1.229,"isOpen":true,"houseNumber":"63","postCode":90491},{"id":"51d4b47a-a095-1aa0-e100-80009459e03a","name":"JET FUERTH WUERZBURGER STR. 33","brand":"JET","street":"WUERZBURGER STR. 33","place":"FUERTH","lat":49.47992,"lng":10.97434,"dist":16.8,"diesel":1.119,"e5":1.299,"e10":1.279,"isOpen":true,"houseNumber":"","postCode":90766},{"id":"55da9800-9e24-42c0-ad52-71216ca8fbda","name":"NUERNBERG - AEU\u00dfERE BAYREUTHER STR.","brand":"Supol","street":"Aeu\u00dfere Bayreuther Str.","place":"Nuernberg","lat":49.469323,"lng":11.098981,"dist":17,"diesel":1.119,"e5":1.269,"e10":1.229,"isOpen":true,"houseNumber":"63","postCode":90409},{"id":"95429f4a-fff0-475b-800e-451fa276d353","name":"Aral Tankstelle","brand":"ARAL","street":"\u00c4u\u00dfere Sulzbacher Stra\u00dfe","place":"N\u00fcrnberg","lat":49.4645538,"lng":11.1183567,"dist":17.2,"diesel":1.199,"e5":1.359,"e10":1.339,"isOpen":true,"houseNumber":"117","postCode":90491},{"id":"1d0a2517-b154-4514-a11e-6a9cb2070919","name":"Weber Dieter Tankstelle","brand":"","street":"Fernabr\u00fcnster Str.","place":"Gro\u00dfhabersdorf","lat":49.40232,"lng":10.79069,"dist":17.2,"diesel":1.109,"e5":1.279,"e10":1.259,"isOpen":true,"houseNumber":"2","postCode":90613},{"id":"7c73db2c-203a-4e56-b195-3d048bb0f544","name":"Esso Tankstelle","brand":"ESSO","street":"WUERZBURGER STR. 134","place":"FUERTH","lat":49.483324,"lng":10.964929,"dist":17.3,"diesel":1.129,"e5":1.309,"e10":1.289,"isOpen":true,"houseNumber":"","postCode":90766},{"id":"748223cd-6cb2-4619-b8bf-c4987821d0ae","name":"Tankstelle Weber Inh. Dieter Weber","brand":"","street":"Bahnhofstra\u00dfe","place":"Gro\u00dfhabersdorf","lat":49.40246,"lng":10.78974,"dist":17.3,"diesel":1.109,"e5":1.279,"e10":1.259,"isOpen":true,"houseNumber":"19","postCode":90613},{"id":"b60a7521-19f9-4886-8ebe-dcbcb2c58d64","name":"Aral Tankstelle","brand":"ARAL","street":"Erlanger Stra\u00dfe","place":"F\u00fcrth","lat":49.485775,"lng":10.9964848,"dist":17.3,"diesel":1.189,"e5":1.359,"e10":1.339,"isOpen":true,"houseNumber":"98","postCode":90765},{"id":"ddba04f9-a403-49ae-8410-010d0b44d62a","name":"AVIA XPress","brand":"AVIA Xpress","street":"Pleinfelder Str.","place":"Georgensgm\u00fcnd","lat":49.174206,"lng":11.012578,"dist":17.3,"diesel":1.119,"e5":1.259,"e10":1.239,"isOpen":true,"houseNumber":"70b","postCode":91166},{"id":"dce7361a-9c83-472b-9e6b-0f2af980b06c","name":"NUERNBERG, AEUSSERE SULZBACHER STR.","brand":"Shell","street":"AEUSSERE SULZBACHER STR. 156","place":"NUERNBERG","lat":49.465583,"lng":11.122514,"dist":17.5,"diesel":1.189,"e5":1.339,"e10":1.299,"isOpen":true,"houseNumber":"","postCode":90491},{"id":"145b6d77-0a7c-4f2c-be5d-f6e3290ef1e0","name":"FUERTH - WUERZBURGER STRASSE 171","brand":"Supol","street":"Wuerzburger Strasse","place":"Fuerth","lat":49.484715,"lng":10.959549,"dist":17.5,"diesel":1.119,"e5":1.299,"e10":1.279,"isOpen":true,"houseNumber":"171","postCode":90766},{"id":"9bd5320e-aea5-497d-a58f-e22b0c9a8990","name":"Aral Tankstelle","brand":"ARAL","street":"\u00c4uss. Bayreuther Str.","place":"N\u00fcrnberg","lat":49.4746475,"lng":11.1030741,"dist":17.7,"diesel":1.199,"e5":1.359,"e10":1.339,"isOpen":true,"houseNumber":"137","postCode":90411},{"id":"92969b5a-3554-4350-821f-072e284f2184","name":"NUERNBERG, AEUSSERE BAYREUTHER STR","brand":"Shell","street":"AEUSSERE BAYREUTHER STR. 134","place":"NUERNBERG","lat":49.475648,"lng":11.10452,"dist":17.8,"diesel":1.139,"e5":1.289,"e10":1.269,"isOpen":true,"houseNumber":"","postCode":90411},{"id":"3793b323-9a75-47fb-acc1-4ee3ca765f9d","name":"AVIA XPress","brand":"AVIA Xpress","street":"Rother Stra\u00dfe","place":"Spalt","lat":49.174774,"lng":10.9311905,"dist":18,"diesel":1.119,"e5":1.249,"e10":1.229,"isOpen":true,"houseNumber":"5","postCode":91174},{"id":"4a560453-e93f-40e9-9d05-4df1408aafc5","name":"Spalt Windsbacher Str. 39","brand":"OMV","street":"Windsbacher Str.","place":"Spalt","lat":49.17747,"lng":10.91811,"dist":18,"diesel":1.129,"e5":1.269,"e10":1.249,"isOpen":true,"houseNumber":"39","postCode":91174},{"id":"519c486f-e2ce-4af2-94de-0d05e8ef4e5b","name":"CADOLZBURG, NUERNBERGER STR.","brand":"Shell","street":"NUERNBERGER STR 41","place":"CADOLZBURG","lat":49.463629,"lng":10.859763,"dist":18,"diesel":1.189,"e5":1.369,"e10":1.329,"isOpen":true,"houseNumber":"","postCode":90556},{"id":"51d4b4e7-a095-1aa0-e100-80009459e03a","name":"Supermarkt-Tankstelle NUERNBERG BUCHER HAUPTSTR. 40","brand":"Supermarkt-Tankstelle","street":"BUCHER HAUPTSTR. 40","place":"NUERNBERG","lat":49.4929,"lng":11.0513,"dist":18.5,"diesel":1.109,"e5":1.269,"e10":1.249,"isOpen":true,"houseNumber":"","postCode":90427},{"id":"7068c8f1-ce7d-497f-9eb3-5597fdd1d25d","name":"Schwarzenbruck Regensburger Str. 2 a","brand":"OMV","street":"Regensburger Str.","place":"Schwarzenbruck","lat":49.35962,"lng":11.25311,"dist":18.5,"diesel":1.129,"e5":1.289,"e10":1.269,"isOpen":true,"houseNumber":"2 a","postCode":90592},{"id":"f4e30b1b-b818-4508-9123-b30ee56a3ccd","name":"TOTAL NUERNBERG","brand":"TOTAL","street":"LAUFAMHOLZSTR.","place":"NUERNBERG","lat":49.465195,"lng":11.152628,"dist":18.6,"diesel":1.119,"e5":1.269,"e10":1.249,"isOpen":true,"houseNumber":"146","postCode":90482},{"id":"ecd94c07-aee2-41b8-a33f-0c21417be469","name":"Allersberg Rother Str. 18","brand":"OMV","street":"Rother Str.","place":"Allersberg","lat":49.2509,"lng":11.22815,"dist":18.7,"diesel":1.139,"e5":1.259,"e10":1.239,"isOpen":true,"houseNumber":"18","postCode":90584},{"id":"cdb793c7-c56f-4ff4-8d88-c1ff1352deed","name":"N\u00dcRNBERG, MARIENBERGSTR. 10.","brand":"Shell","street":"MARIENBERGSTR. 10","place":"N\u00fcrnberg","lat":49.484311,"lng":11.103622,"dist":18.7,"diesel":1.199,"e5":1.349,"e10":1.319,"isOpen":true,"houseNumber":"","postCode":90411},{"id":"23af9c8c-bab9-4ad1-beba-18731888c27c","name":"NUERNBERG - SCHAFHOFSTR. 9","brand":"Supol","street":"Schafhofstr.","place":"Nuernberg","lat":49.480701,"lng":11.117134,"dist":18.7,"diesel":1.119,"e5":1.269,"e10":1.229,"isOpen":true,"houseNumber":"9","postCode":90411},{"id":"2582cec2-39cd-467b-a9d8-b0017ad0b3b4","name":"Allersberg Rother Strasse 27 a","brand":"OMV","street":"Rother Str.","place":"Allersberg","lat":49.2505,"lng":11.22913,"dist":18.7,"diesel":1.139,"e5":1.259,"e10":1.239,"isOpen":true,"houseNumber":"27 a","postCode":90584},{"id":"26c3cb58-7eb8-4c94-a16b-738e2e514561","name":"BayWa Tankstelle F\u00fcrth","brand":"BayWa","street":"Hafenstr.","place":"F\u00fcrth","lat":49.50104,"lng":10.95523,"dist":19.3,"diesel":1.169,"e5":null,"e10":null,"isOpen":true,"houseNumber":"115","postCode":90768},{"id":"5261d4af-9e7b-438d-be11-a92a8f5ddfb1","name":"Aral Tankstelle","brand":"ARAL","street":"Zeppelinstra\u00dfe","place":"R\u00f6ttenbach","lat":49.1574135,"lng":11.041153,"dist":19.4,"diesel":1.199,"e5":1.389,"e10":1.369,"isOpen":true,"houseNumber":"2","postCode":91187},{"id":"7f5f2d28-95e2-4a7c-84cd-7b83471e0ce1","name":"NUERNBERG - LAUFAMHOLZSTR.","brand":"Agip","street":"Laufamholzstrasse","place":"Nuernberg","lat":49.46895,"lng":11.16705,"dist":19.6,"diesel":1.119,"e5":1.269,"e10":1.249,"isOpen":true,"houseNumber":"294","postCode":90482},{"id":"db940f95-8f12-4229-e6d9-48f81e6dc9dd","name":"ELO Allersberg","brand":"freie Tankstelle","street":"Neumarkter Stra\u00dfe","place":"Allersberg","lat":49.253548,"lng":11.244707,"dist":19.6,"diesel":1.129,"e5":1.249,"e10":1.229,"isOpen":true,"houseNumber":"26a","postCode":90584},{"id":"fee18acb-5b95-495c-be44-cc21a44c4b6b","name":"AVIA Tankstelle","brand":"AVIA","street":"Burgthanner Stra\u00dfe","place":"Burgthann","lat":49.35241,"lng":11.27184,"dist":19.8,"diesel":1.129,"e5":1.289,"e10":1.269,"isOpen":true,"houseNumber":"34","postCode":90559},{"id":"ab9ba7f1-4ac9-4b32-b713-447c158c0ecf","name":"bft-Tankstelle Pyrbaum","brand":"bft Pyrbaum","street":"N\u00fcrnberger Stra\u00dfe","place":"Pyrbaum","lat":49.299291,"lng":11.27708,"dist":20.3,"diesel":1.149,"e5":1.339,"e10":1.319,"isOpen":true,"houseNumber":"19","postCode":90602},{"id":"136c14f8-bc58-4497-ba11-4ad4eee8e276","name":"Hilpoltstein Allersberger Str. 22","brand":"OMV","street":"Allersberger Str.","place":"Hilpoltstein","lat":49.19371,"lng":11.18906,"dist":20.4,"diesel":1.129,"e5":1.259,"e10":1.239,"isOpen":true,"houseNumber":"22","postCode":91161},{"id":"0eee36e7-7c1d-454d-a712-686b606a06c4","name":"Graf N\u00fcrnberg","brand":"Graf","street":"In der Schmalau","place":"N\u00fcrnberg","lat":49.516126141,"lng":11.005511284,"dist":20.7,"diesel":1.139,"e5":1.299,"e10":1.299,"isOpen":true,"houseNumber":"1","postCode":90427},{"id":"89f93610-d753-4993-af05-9e6e2decf62b","name":"NUERNBERG - BOXDORFER HAUPTSTR. 51","brand":"Supol","street":"Boxdorfer Hauptstr.","place":"Nuernberg","lat":49.51543,"lng":11.030703,"dist":20.7,"diesel":1.119,"e5":1.279,"e10":1.259,"isOpen":true,"houseNumber":"51","postCode":90427},{"id":"8b2f8add-d210-46be-ae06-143ddd4cfa08","name":"Veitsbronn F\u00fcrther Str. 60","brand":"OMV","street":"F\u00fcrther Str.","place":"Veitsbronn","lat":49.5044,"lng":10.89378,"dist":20.9,"diesel":1.129,"e5":1.309,"e10":1.289,"isOpen":true,"houseNumber":"60","postCode":90587},{"id":"00061333-0001-4444-8888-acdc00000001","name":"Firma Eberler","brand":"","street":"Ohmstr.","place":"Hilpoltstein","lat":49.180847167969,"lng":11.183794975281,"dist":21.2,"diesel":1.119,"e5":1.289,"e10":1.269,"isOpen":true,"houseNumber":"6-8","postCode":91161},{"id":"63b975a2-065b-4c4f-8c03-d65e10c02ee2","name":"FUERTH - VACHER STRASSE 417","brand":"Agip","street":"Vacher Strasse","place":"Fuerth","lat":49.52106,"lng":10.96406,"dist":21.4,"diesel":1.129,"e5":1.299,"e10":1.279,"isOpen":true,"houseNumber":"417","postCode":90768},{"id":"b661723c-d220-412e-f33a-1ba04e28ebe3","name":"ELO F\u00fcrth","brand":"ELO","street":"Stadelner Hauptstra\u00dfe","place":"F\u00fcrth","lat":49.522003,"lng":10.97647,"dist":21.4,"diesel":1.119,"e5":1.279,"e10":1.259,"isOpen":true,"houseNumber":"160","postCode":90765},{"id":"d4cfbbf1-eda6-43ec-a965-f8d3300a4e9d","name":"N\u00fcrnberg Wiesbadener Strasse 43","brand":"OMV","street":"Wiesbadener Str.","place":"N\u00fcrnberg","lat":49.52286,"lng":11.00714,"dist":21.5,"diesel":1.129,"e5":1.289,"e10":1.269,"isOpen":true,"houseNumber":"43","postCode":90427},{"id":"3bf2eaec-f060-4ec5-899d-02ef9331df50","name":"Aral Tankstelle","brand":"ARAL","street":"R\u00f6thenbacher Stra\u00dfe","place":"Schwaig","lat":49.4721069,"lng":11.2016478,"dist":21.5,"diesel":1.189,"e5":1.359,"e10":1.339,"isOpen":true,"houseNumber":"4","postCode":90571},{"id":"e1395e57-e609-c078-e100-00000630df04","name":"LICHTENAU","brand":"Agip","street":"Fuchsgrabenweg","place":"Lichtenau","lat":49.28013,"lng":10.712788,"dist":21.6,"diesel":1.139,"e5":1.269,"e10":1.249,"isOpen":true,"houseNumber":"1","postCode":91586},{"id":"148a9a0a-f958-426a-5d9b-b62799520f7c","name":"Christoph Schuster","brand":"Tankstelle Schuster","street":"Ansbacher Str.","place":"Wicklesgreuth","lat":49.317019,"lng":10.699321,"dist":21.9,"diesel":1.129,"e5":1.279,"e10":1.259,"isOpen":true,"houseNumber":"15","postCode":91580},{"id":"c7b1d8f5-30d8-453c-b779-f0ffc51c8100","name":"Langenzenn N\u00fcrnberger Str. 210","brand":"OMV","street":"N\u00fcrnberger Str.","place":"Langenzenn","lat":49.49425,"lng":10.81767,"dist":22.6,"diesel":1.129,"e5":1.299,"e10":1.279,"isOpen":true,"houseNumber":"210","postCode":90579},{"id":"0ec24500-81d0-45b4-9161-abfb93a138cf","name":"Wolframs-Eschenbach , Adelmannsdorfer Stra\u00dfe 3","brand":"bft","street":"Adelmannsdorfer Stra\u00dfe 3","place":"Wolframs-Eschenbach","lat":49.225308,"lng":10.7308,"dist":22.8,"diesel":1.119,"e5":1.249,"e10":1.229,"isOpen":true,"houseNumber":"","postCode":91639},{"id":"5793fa87-9ce9-4ef0-80a7-08159c1a15f9","name":"R\u00d6THENBACH A. D. PEGNITZ","brand":"Agip","street":"Am Gewerbepark","place":"R\u00f6thenbach","lat":49.479513,"lng":11.225268,"dist":23.2,"diesel":1.129,"e5":1.279,"e10":1.259,"isOpen":true,"houseNumber":"6","postCode":90552},{"id":"4722644f-699b-4fbb-b388-6847b2cc659f","name":"AVIA Tankstelle","brand":"AVIA","street":"Selingst\u00e4dter Stra\u00dfe","place":"Heideck","lat":49.132397,"lng":11.131136,"dist":23.9,"diesel":1.129,"e5":1.299,"e10":1.279,"isOpen":true,"houseNumber":"1","postCode":91180},{"id":"9123b96c-a68e-485e-b5e6-3095d42d55bc","name":"Aral Tankstelle","brand":"ARAL","street":"Ansbacher Stra\u00dfe","place":"Lichtenau","lat":49.28117,"lng":10.6797447,"dist":23.9,"diesel":1.199,"e5":1.359,"e10":1.339,"isOpen":true,"houseNumber":"34","postCode":91586},{"id":"36460e30-03cc-44f2-a408-2f74a81b0233","name":"TOTAL AUTOHOF ERLANGEN","brand":"TOTAL","street":"SEBASTIANSTR.","place":"ERLANGEN","lat":49.5452,"lng":11.029889,"dist":24,"diesel":1.129,"e5":1.299,"e10":1.279,"isOpen":true,"houseNumber":"28","postCode":91058},{"id":"fd7b5576-40dd-4656-8d00-df9c76997be1","name":"Aral Tankstelle","brand":"ARAL","street":"Hauptstra\u00dfe","place":"Heroldsberg","lat":49.5245056,"lng":11.1507664,"dist":24.2,"diesel":1.199,"e5":1.359,"e10":1.339,"isOpen":true,"houseNumber":"114","postCode":90562},{"id":"78b432b4-dbc2-499d-b53c-b0fb0c5000f0","name":"SB-Markttankstelle Burgthann Espenpark","brand":"SB-Markttankstelle","street":"Espenpark","place":"Burgthann","lat":49.316502,"lng":11.3408,"dist":24.7,"diesel":1.119,"e5":1.269,"e10":1.249,"isOpen":true,"houseNumber":"30","postCode":90559},{"id":"5d7eed92-7586-4093-b36e-48ce48a6e12f","name":"ROETHENBACH A.D.PEGNITZ, RUECKERSDORFER STR.","brand":"Shell","street":"RUECKERSDORFER STR. 42","place":"ROETHENBACH A.D.PEGNITZ","lat":49.485885,"lng":11.246283,"dist":24.8,"diesel":1.189,"e5":1.339,"e10":1.309,"isOpen":true,"houseNumber":"","postCode":90552},{"id":"bcc88ac4-0d2a-41bd-8779-e057fc700018","name":"RUECKERSDORF - HAUPTSTRASSE 5-7","brand":"Agip","street":"Hauptstrasse","place":"Rueckersdorf","lat":49.49203,"lng":11.23676,"dist":24.8,"diesel":1.129,"e5":1.279,"e10":1.259,"isOpen":true,"houseNumber":"5-7","postCode":90607},{"id":"3fd290c9-eb28-4d22-a5d8-b2d05bfb33a3","name":"Tankstelle Bernhard Meyer","brand":"","street":"Neust\u00e4dter Str.","place":"Dietenhofen","lat":49.40891,"lng":10.68066,"dist":24.8,"diesel":1.149,"e5":1.329,"e10":1.309,"isOpen":true,"houseNumber":"35","postCode":90599},

{"id":"79d4d66e-7531-4dbf-b8e4-95db6e8dc1d5","name":"TOTAL AURACH","brand":"TOTAL","street":"BAB A6\/HEILBRONN-NUERNBERG","place":"AURACH","lat":49.24149,"lng":10.3522,"dist":1.8,"diesel":1.189,"e5":1.359,"e10":1.339,"isOpen":true,"houseNumber":"","postCode":91589},{"id":"8a03e576-e8da-4bb3-b5a6-9db702c56e31","name":"BAT FRANKENHOEHE NORD - A6","brand":"Agip","street":"FRANKENHOEHE NORD","place":"Aurach","lat":49.24252,"lng":10.3574,"dist":2.1,"diesel":1.409,"e5":1.579,"e10":1.559,"isOpen":true,"houseNumber":"","postCode":91589},{"id":"9a576578-d330-4e6d-8ca9-f7ef13876b7c","name":"TOTAL FEUCHTWANGEN","brand":"TOTAL","street":"DORFGUETINGEN","place":"FEUCHTWANGEN","lat":49.21633,"lng":10.300219,"dist":4.5,"diesel":1.149,"e5":1.339,"e10":1.319,"isOpen":true,"houseNumber":"43","postCode":91555},{"id":"d6fec23b-950f-41b4-be23-acb77cdf7186","name":"AVIA Station","brand":"AVIA","street":"Ansbacher Stra\u00dfe","place":"Schillingsf\u00fcrst","lat":49.28811,"lng":10.2691145,"dist":6.1,"diesel":1.189,"e5":1.319,"e10":1.299,"isOpen":true,"houseNumber":"1","postCode":91583},{"id":"ba6ed83f-296a-45bd-9e86-09576ec17cae","name":"Esso Tankstelle","brand":"ESSO","street":"ANSBACHER STR. 20","place":"AURACH","lat":49.24781,"lng":10.419022,"dist":6.4,"diesel":1.169,"e5":1.319,"e10":1.299,"isOpen":true,"houseNumber":"","postCode":91589},{"id":"15637718-a8ee-412c-ad60-5524c27436cc","name":"WOERNITZ, BASTENAUER STR","brand":"Shell","street":"BASTENAUER STR. 12","place":"W\u00d6RNITZ","lat":49.25923,"lng":10.235538,"dist":7,"diesel":1.249,"e5":1.399,"e10":1.359,"isOpen":true,"houseNumber":"","postCode":91637},{"id":"a2c3d99c-ece8-452f-9fb8-6fc1a4dae191","name":"AURACH, STEINAUER WEG","brand":"Shell","street":"STEINAUER WEG","place":"AURACH","lat":49.253234,"lng":10.432762,"dist":7.4,"diesel":1.229,"e5":1.379,"e10":1.339,"isOpen":true,"houseNumber":"","postCode":91589},{"id":"0ed1e28e-bf7e-4283-b5d7-4356adb28d2a","name":"TOTAL AURACH","brand":"TOTAL","street":"ANSBACHER STR.","place":"AURACH","lat":49.25234,"lng":10.434523,"dist":7.5,"diesel":1.169,"e5":1.339,"e10":1.319,"isOpen":true,"houseNumber":"42","postCode":91589},{"id":"3780ec3c-67bf-4ad5-941d-93cb1413e90c","name":"Leutershausen Steinweg 20","brand":"OMV","street":"Steinweg","place":"Leutershausen","lat":49.29478,"lng":10.41187,"dist":7.6,"diesel":1.169,"e5":1.289,"e10":1.269,"isOpen":true,"houseNumber":"20","postCode":91578},{"id":"cd921825-2512-413f-81d0-703cf01ddeda","name":"AVIA Xpress Automatenstation","brand":"AVIA Xpress","street":"Crailsheimer Stra\u00dfe","place":"Feuchtwangen","lat":49.168953,"lng":10.322726,"dist":9.1,"diesel":1.149,"e5":1.319,"e10":1.299,"isOpen":true,"houseNumber":"14","postCode":91555},{"id":"51d4b434-a095-1aa0-e100-80009459e03a","name":"JET FEUCHTWANGEN DINKELSBUEHLER STR. 15","brand":"JET","street":"DINKELSBUEHLER STR. 15","place":"FEUCHTWANGEN","lat":49.1638,"lng":10.3276,"dist":9.7,"diesel":1.139,"e5":1.319,"e10":1.299,"isOpen":true,"houseNumber":"","postCode":91555},{"id":"5c73ece4-6de1-49b9-92b2-8a26dc7d2844","name":"Feuchtwangen Schopflochstr. 2","brand":"OMV","street":"Schopflocherstr.","place":"Feuchtwangen","lat":49.15665,"lng":10.32987,"dist":10.5,"diesel":1.159,"e5":1.329,"e10":1.309,"isOpen":true,"houseNumber":"2","postCode":91555},{"id":"6211af39-a7fb-4079-8187-7677bab3a74b","name":"Schnelldorf Rudolf-Diesel-Stra\u00dfe 1","brand":"OMV","street":"Rudolf-Diesel-Str.","place":"Schnelldorf","lat":49.17141,"lng":10.24099,"dist":11,"diesel":1.149,"e5":1.339,"e10":1.319,"isOpen":true,"houseNumber":"1","postCode":91625},{"id":"dceb1224-f840-45da-8f8d-d9eda6b64182","name":"Aral Tankstelle","brand":"ARAL","street":"Am Eichelberg","place":"Herrieden","lat":49.25875,"lng":10.5018711,"dist":12.4,"diesel":1.259,"e5":1.379,"e10":1.359,"isOpen":true,"houseNumber":"2","postCode":91567},{"id":"063f1ada-1cc0-448d-a78c-90d11faa117e","name":"Esso Tankstelle","brand":"ESSO","street":"BAHNHOFSTR. 18","place":"HERRIEDEN","lat":49.232119,"lng":10.501615,"dist":12.5,"diesel":1.169,"e5":1.319,"e10":1.299,"isOpen":true,"houseNumber":"","postCode":91567},{"id":"632db55e-1e90-4d94-8504-d45b92986384","name":"AVIA Tankstelle","brand":"AVIA","street":"Schwabsrother Str.","place":"Geslau","lat":49.36398,"lng":10.308733,"dist":12.7,"diesel":1.189,"e5":null,"e10":null,"isOpen":true,"houseNumber":"4","postCode":91608},{"id":"08a67e2e-29ee-4941-be57-6ce8ebe2b556","name":"AVIA Station","brand":"AVIA","street":"Rothenburger Stra\u00dfe","place":"Schnelldorf","lat":49.198532,"lng":10.176184,"dist":12.7,"diesel":1.139,"e5":1.319,"e10":1.299,"isOpen":true,"houseNumber":"15","postCode":91625},{"id":"ac79f7e6-a993-4d86-b83e-ab75cec4e0e0","name":"AVIA Tankstelle","brand":"AVIA","street":"Am Igelsbach","place":"Rothenburg o.d.T.","lat":49.36757,"lng":10.196026,"dist":16.3,"diesel":1.239,"e5":1.389,"e10":1.369,"isOpen":true,"houseNumber":"19","postCode":91541},{"id":"0f00a6ed-752d-4b89-9b9a-7ce3704cb570","name":"LEHRBERG, UNT. HINDENBURG ST.","brand":"Shell","street":"UNTERE HINDENBURG STR. 55","place":"LEHRBERG","lat":49.341138,"lng":10.511254,"dist":16.5,"diesel":1.309,"e5":1.359,"e10":1.319,"isOpen":true,"houseNumber":"","postCode":91611},{"id":"f561a073-4aae-4d09-9d8d-741b4315c680","name":"Ansbach Feuchtwanger Str. 111","brand":"OMV","street":"Feuchtwanger Str.","place":"Ansbach","lat":49.29187,"lng":10.55568,"dist":16.9,"diesel":1.249,"e5":1.279,"e10":1.259,"isOpen":true,"houseNumber":"111","postCode":91522},{"id":"f363043b-d3b5-414b-8af5-bd015e554b3b","name":"ROTHENBURG, NOERDLINGER STR","brand":"Shell","street":"NOERDLINGER STR. 7","place":"ROTHENBURG","lat":49.368605,"lng":10.183526,"dist":16.9,"diesel":1.299,"e5":1.449,"e10":1.409,"isOpen":true,"houseNumber":"","postCode":91541},{"id":"e5a4cc81-b754-4ba7-9f64-fe99bcd1b256","name":"Aral Tankstelle","brand":"ARAL","street":"Ansbacher Stra\u00dfe","place":"Rothenburg","lat":49.375103,"lng":10.1907988,"dist":17.2,"diesel":1.289,"e5":1.449,"e10":1.429,"isOpen":true,"houseNumber":"38","postCode":91541},{"id":"24b93ce4-c8a6-4deb-836d-c061cb5b8654","name":"BayWa Tankstelle  Rothenburg ob der Taub","brand":"BayWa","street":"Bahnhofstr.","place":"Rothenburg ob der Tauber","lat":49.377647,"lng":10.19124,"dist":17.4,"diesel":1.239,"e5":1.389,"e10":1.369,"isOpen":true,"houseNumber":"17","postCode":91541},{"id":"7fa4a726-3da5-4aca-afdb-161fbbac23b0","name":"ANSBACH - MEINHARDSWINDENER STR. 21","brand":"Supol","street":"Meinhardswindener Str.","place":"Ansbach","lat":49.2859158,"lng":10.5662908,"dist":17.5,"diesel":1.239,"e5":1.289,"e10":1.249,"isOpen":true,"houseNumber":"21","postCode":91522},{"id":"1982c2d7-e665-43e5-9578-594bbce00f40","name":"Esso Tankstelle","brand":"ESSO","street":"ADAM-HOERBER-STR. 38","place":"ROTHENBURG","lat":49.378638,"lng":10.187171,"dist":17.6,"diesel":1.239,"e5":1.389,"e10":1.369,"isOpen":true,"houseNumber":"","postCode":91541},{"id":"cd8ba6a6-3d5b-1ed4-919e-df3064834b99","name":"JET ANSBACH ROTHENBURGERSTRASSE 2-4","brand":"JET","street":"ROTHENBURGERSTRASSE 2-4","place":"ANSBACH","lat":49.310141,"lng":10.560372,"dist":17.9,"diesel":1.239,"e5":1.289,"e10":1.269,"isOpen":true,"houseNumber":"","postCode":91522},{"id":"e3e43e80-9544-45df-8cbe-d22206f89861","name":"ANSBACH - WUERZBURGER LANDSTR. 47","brand":"Agip","street":"Wuerzburger Landstr.","place":"Ansbach","lat":49.309369641079,"lng":10.561082425464,"dist":17.9,"diesel":1.249,"e5":1.299,"e10":1.279,"isOpen":true,"houseNumber":"47","postCode":91522},{"id":"a756dcfa-c450-464c-8622-e2e9dc967079","name":"Esso Tankstelle","brand":"ESSO","street":"VETTERSTR. 1","place":"ANSBACH","lat":49.262666,"lng":10.584632,"dist":18.4,"diesel":1.179,"e5":1.299,"e10":1.279,"isOpen":true,"houseNumber":"","postCode":91522},{"id":"623ebd98-9255-4655-ba9a-b9c78889ba85","name":"ANSBACH, BANDELSTR","brand":"Shell","street":"BANDELSTR. 21","place":"ANSBACH","lat":49.294456,"lng":10.577138,"dist":18.5,"diesel":1.309,"e5":1.359,"e10":1.319,"isOpen":true,"houseNumber":"","postCode":91522},{"id":"312edf85-a262-4c40-a21c-df734dcfdf50","name":"Aral Tankstelle","brand":"ARAL","street":"Ansbacher Stra\u00dfe","place":"Burgoberbach","lat":49.2390442,"lng":10.5927486,"dist":19,"diesel":1.199,"e5":1.359,"e10":1.339,"isOpen":true,"houseNumber":"20","postCode":91595},{"id":"df7acae5-1913-4a06-a97c-69c0361dd4a7","name":"BayWa Tankstelle","brand":"BayWa","street":"Bahnhofstra\u00dfe","place":"Ansbach","lat":49.298847,"lng":10.58363,"dist":19.1,"diesel":1.239,"e5":1.289,"e10":1.269,"isOpen":true,"houseNumber":"14","postCode":91522},{"id":"7170da8b-7c52-4af4-bed3-90f5c3ac3e9a","name":"Bechhofen","brand":"Pickelmann","street":"Ansbacher Str.","place":"Bechhofen","lat":49.166065216065,"lng":10.561367034912,"dist":19.2,"diesel":1.169,"e5":1.289,"e10":1.269,"isOpen":true,"houseNumber":"75 a","postCode":91572},{"id":"8f273be1-5de9-48e6-8504-cf3f10b6f4ca","name":"Aral Tankstelle","brand":"ARAL","street":"Matthias-\u00d6chsler- Str.","place":"Ansbach","lat":49.2990532,"lng":10.5861778,"dist":19.2,"diesel":1.289,"e5":1.389,"e10":1.369,"isOpen":true,"houseNumber":"2","postCode":91522},{"id":"06579697-1c77-4557-a204-2d3cef9a24e0","name":"ANSBACH, NUERNBERGER STR.","brand":"Shell","street":"N\u00dcRNBERGER STR 74","place":"ANSBACH","lat":49.304506,"lng":10.587001,"dist":19.5,"diesel":1.309,"e5":1.359,"e10":1.319,"isOpen":true,"houseNumber":"","postCode":91522},{"id":"51d4b6fb-a095-1aa0-e100-80009459e03a","name":"JET DINKELSBUEHL FEUCHTWANGER STR. 13","brand":"JET","street":"FEUCHTWANGER STR. 13","place":"DINKELSBUEHL","lat":49.074,"lng":10.3252,"dist":19.7,"diesel":1.149,"e5":1.319,"e10":1.299,"isOpen":true,"houseNumber":"","postCode":91550},{"id":"db3438c3-c0a3-4a91-8703-37bc8e90369c","name":"Dinkelsb\u00fchl An der B 25 \/ Luitpoldstrasse 23","brand":"OMV","street":"An der B 25 \/ Luitpoldstr.","place":"Dinkelsb\u00fchl","lat":49.06781,"lng":10.32819,"dist":20.4,"diesel":1.169,"e5":1.329,"e10":1.309,"isOpen":true,"houseNumber":"23","postCode":91550},{"id":"717c11d5-824f-4bcb-b194-f482c89c1fb3","name":"BayWa Tankstelle Dinkelsb\u00fchl","brand":"BayWa","street":"Von- Raumer- Str. 1a","place":"Dinkelsb\u00fchl","lat":49.06732,"lng":10.33136,"dist":20.4,"diesel":1.159,"e5":1.329,"e10":1.309,"isOpen":true,"houseNumber":"","postCode":91550},{"id":"fc22a96a-9d4f-4894-97d4-c98bf7b2792e","name":"Leyh GmbH","brand":"Freie Tankstelle Leyh GmbH","street":"Satteldorfer Hauptstr.","place":"Satteldorf","lat":49.171817,"lng":10.076473,"dist":20.5,"diesel":1.149,"e5":1.329,"e10":1.309,"isOpen":true,"houseNumber":"53","postCode":74589},{"id":"760cf14a-d678-456a-9025-b0f79e7fc833","name":"Esso Tankstelle","brand":"ESSO","street":"MARCO-POLO-STR. 1","place":"SATTELDORF","lat":49.181847,"lng":10.068314,"dist":20.6,"diesel":1.139,"e5":1.319,"e10":1.299,"isOpen":true,"houseNumber":"","postCode":74589},{"id":"7c5eac0e-7557-430c-986e-5c39e40846cb","name":"Geiger GmbH Tankstelle Ansbach","brand":"Freie Tankstelle","street":"Rudolf-Diesel-Stra\u00dfe","place":"Ansbach","lat":49.257320404053,"lng":10.615509986877,"dist":20.6,"diesel":1.179,"e5":1.369,"e10":1.349,"isOpen":true,"houseNumber":"5","postCode":91522},{"id":"9a60eea6-1df8-44db-9cfe-cf97df9a1f8b","name":"Bach GmbH","brand":"","street":"Sinbronn","place":"Dinkelsb\u00fchl","lat":49.06051,"lng":10.3897505,"dist":21.6,"diesel":1.169,"e5":8.888,"e10":null,"isOpen":true,"houseNumber":"55","postCode":91550},{"id":"a9777311-b4b8-4201-bccd-dfc6ae4a9557","name":"AVIA Tankstelle","brand":"AVIA","street":"W\u00fcrzburger Str.","place":"Marktbergel","lat":49.446163,"lng":10.362607,"dist":21.8,"diesel":1.129,"e5":1.289,"e10":1.269,"isOpen":true,"houseNumber":"60","postCode":91613},{"id":"08d4c39c-603d-45df-8fc1-807a4c38a19c","name":"Kfz-Technik Kleppel","brand":"Kfz-Kleppel","street":"Bergeler Str.","place":"Burgbernheim","lat":49.448092,"lng":10.329836,"dist":21.9,"diesel":1.119,"e5":1.279,"e10":1.259,"isOpen":true,"houseNumber":"26","postCode":91593},{"id":"7f13ffd0-6420-41fd-9269-12817a78469c","name":"Aral Tankstelle","brand":"ARAL","street":"Crailsheimer Stra\u00dfe","place":"Rot am See","lat":49.24707,"lng":10.0285082,"dist":22,"diesel":1.209,"e5":1.399,"e10":1.379,"isOpen":true,"houseNumber":"9","postCode":74585},{"id":"9ac3cf63-673b-437d-90fb-d42d57bdc7f1","name":"AVIA Tankstelle","brand":"AVIA","street":"Schlo\u00dfgasse","place":"Burgbernheim","lat":49.449635,"lng":10.3256235,"dist":22.1,"diesel":1.129,"e5":1.289,"e10":1.269,"isOpen":true,"houseNumber":"8","postCode":91593},{"id":"b0bf848e-f960-4947-afd0-dba4fc16ec5d","name":"CRAILSHEIM - BLAUFELDER STRASSE","brand":"Agip","street":"Blaufelder Strasse","place":"Crailsheim","lat":49.140643076228,"lng":10.073384897663,"dist":22.4,"diesel":1.139,"e5":1.329,"e10":1.309,"isOpen":true,"houseNumber":"20","postCode":74564},{"id":"51d4b5bb-a095-1aa0-e100-80009459e03a","name":"JET CRAILSHEIM ELLWANGER STR. 42","brand":"JET","street":"ELLWANGER STR. 42","place":"CRAILSHEIM","lat":49.131,"lng":10.0771,"dist":22.8,"diesel":1.129,"e5":1.319,"e10":1.299,"isOpen":true,"houseNumber":"","postCode":74564},{"id":"5f3e4cb8-4fba-4ae1-b047-ce33591d9b46","name":"CRAILSHEIM, ELLWANGER STR","brand":"Shell","street":"ELLWANGER STR. 7","place":"Crailsheim","lat":49.133522,"lng":10.073755,"dist":22.8,"diesel":1.199,"e5":1.389,"e10":1.369,"isOpen":true,"houseNumber":"","postCode":74564},{"id":"5a17f46a-41a2-47bb-959c-32b3d47a4baa","name":"Aral Tankstelle","brand":"ARAL","street":"Alter Postweg","place":"Crailsheim","lat":49.13868,"lng":10.0627689,"dist":23.2,"diesel":1.209,"e5":1.399,"e10":1.379,"isOpen":true,"houseNumber":"1","postCode":74564},{"id":"e1a15081-25a7-9107-e040-0b0a3dfe563c","name":"Crailsheim, Haller Str. 15","brand":"HEM","street":"Haller Str.","place":"Crailsheim","lat":49.141388,"lng":10.059973,"dist":23.2,"diesel":1.129,"e5":1.319,"e10":1.299,"isOpen":true,"houseNumber":"15","postCode":74564}


]}